[{"aria":"北海道","line":"JR函館本線","name":"函館","name_k":"はこだて","previous_next":"\n\t五稜郭\t","latitude_longitude":"https://map.goo.ne.jp/s_gootransit/staticmap.php?MAP=E140.43.48.300N41.46.16.400&ZM=8&SZ=672,120","address":"函館市若松町","postcode":"0400063","trangit":"\n函館本線\n津軽海峡線\n道南いさりび鉄道\n"},{"aria":"北海道","line":"JR函館本線","name":"五稜郭","name_k":"ごりょうかく","previous_next":"\n函館\t桔梗\t","latitude_longitude":"https://map.goo.ne.jp/s_gootransit/staticmap.php?MAP=E140.44.13.700N41.48.3.300&ZM=8&SZ=672,120","address":"函館市亀田本町","postcode":"0410813","trangit":"\n函館本線\n津軽海峡線\n道南いさりび鉄道\n"},{"aria":"北海道","line":"JR函館本線","name":"桔梗","name_k":"ききょう","previous_next":"\n五稜郭\t大中山\t","latitude_longitude":"https://map.goo.ne.jp/s_gootransit/staticmap.php?MAP=E140.43.35.500N41.50.37.600&ZM=8&SZ=672,120","address":"函館市桔梗町","postcode":"0410801","trangit":"\n函館本線\n"},{"aria":"北海道","line":"JR函館本線","name":"大中山","name_k":"おおなかやま","previous_next":"\n桔梗\t七飯\t","latitude_longitude":"https://map.goo.ne.jp/s_gootransit/staticmap.php?MAP=E140.43.1.400N41.51.43.900&ZM=8&SZ=672,120","address":"亀田郡七飯町大中山","postcode":"0411121","trangit":"\n函館本線\n"},{"aria":"北海道","line":"JR函館本線","name":"七飯","name_k":"ななえ","previous_next":"\n大中山\t新函館北斗\t","latitude_longitude":"https://map.goo.ne.jp/s_gootransit/staticmap.php?MAP=E140.41.32.900N41.53.3.800&ZM=8&SZ=672,120","address":"亀田郡七飯町本町","postcode":"0411111","trangit":"\n函館本線\n"},{"aria":"北海道","line":"JR函館本線","name":"新函館北斗","name_k":"しんはこだてほくと","previous_next":"\n七飯\t仁山\t","latitude_longitude":"https://map.goo.ne.jp/s_gootransit/staticmap.php?MAP=E140.39.1.200N41.54.10.100&ZM=8&SZ=672,120","address":"北斗市市渡","postcode":"0411242","trangit":"\n函館本線\n東北・北海道新幹線\n"},{"aria":"北海道","line":"JR函館本線","name":"仁山","name_k":"にやま","previous_next":"\n新函館北斗\t大沼（北海道）\t","latitude_longitude":"https://map.goo.ne.jp/s_gootransit/staticmap.php?MAP=E140.38.19.600N41.55.38.700&ZM=8&SZ=672,120","address":"亀田郡七飯町仁山","postcode":"0411101","trangit":"\n函館本線\n"},{"aria":"北海道","line":"JR函館本線","name":"大沼（北海道）","name_k":"おおぬま","previous_next":"\n仁山\t大沼公園\t","latitude_longitude":"https://map.goo.ne.jp/s_gootransit/staticmap.php?MAP=E140.40.22.300N41.58.10.100&ZM=8&SZ=672,120","address":"亀田郡七飯町大沼町","postcode":"0411354","trangit":"\n函館本線\n"},{"aria":"北海道","line":"JR函館本線","name":"大沼公園","name_k":"おおぬまこうえん","previous_next":"\n大沼（北海道）\t赤井川\t","latitude_longitude":"https://map.goo.ne.jp/s_gootransit/staticmap.php?MAP=E140.40.24.100N41.58.42.600&ZM=8&SZ=672,120","address":"亀田郡七飯町大沼町","postcode":"0411354","trangit":"\n函館本線\n"},{"aria":"北海道","line":"JR函館本線","name":"赤井川","name_k":"あかいがわ","previous_next":"\n大沼公園\t駒ヶ岳\t","latitude_longitude":"https://map.goo.ne.jp/s_gootransit/staticmap.php?MAP=E140.38.46.100N42.0.2.400&ZM=8&SZ=672,120","address":"茅部郡森町赤井川","postcode":"0492142","trangit":"\n函館本線\n"},{"aria":"北海道","line":"JR函館本線","name":"駒ヶ岳","name_k":"こまがたけ","previous_next":"\n赤井川\t森（北海道）\t","latitude_longitude":"https://map.goo.ne.jp/s_gootransit/staticmap.php?MAP=E140.36.51.100N42.2.10.200&ZM=8&SZ=672,120","address":"茅部郡森町駒ケ岳","postcode":"0492141","trangit":"\n函館本線\n"},{"aria":"北海道","line":"JR函館本線","name":"森（北海道）","name_k":"もり","previous_next":"\n駒ヶ岳\t鹿部\t","latitude_longitude":"https://map.goo.ne.jp/s_gootransit/staticmap.php?MAP=E140.34.39.100N42.6.23.100&ZM=8&SZ=672,120","address":"茅部郡森町本町","postcode":"0492325","trangit":"\n函館本線\n"},{"aria":"北海道","line":"JR函館本線","name":"鹿部","name_k":"しかべ","previous_next":"\n森（北海道）\t渡島沼尻\t","latitude_longitude":"https://map.goo.ne.jp/s_gootransit/staticmap.php?MAP=E140.46.29.500N42.3.42.200&ZM=8&SZ=672,120","address":"茅部郡鹿部町本別","postcode":"0411404","trangit":"\n函館本線\n"},{"aria":"北海道","line":"JR函館本線","name":"渡島沼尻","name_k":"おしまぬまじり","previous_next":"\n鹿部\t渡島砂原\t","latitude_longitude":"https://map.goo.ne.jp/s_gootransit/staticmap.php?MAP=E140.45.4.800N42.6.15.400&ZM=8&SZ=672,120","address":"茅部郡森町砂原東","postcode":"0492223","trangit":"\n函館本線\n"},{"aria":"北海道","line":"JR函館本線","name":"渡島砂原","name_k":"おしまさわら","previous_next":"\n渡島沼尻\t掛澗\t","latitude_longitude":"https://map.goo.ne.jp/s_gootransit/staticmap.php?MAP=E140.41.35.200N42.7.9.000&ZM=8&SZ=672,120","address":"茅部郡森町砂原","postcode":"0492222","trangit":"\n函館本線\n"},{"aria":"北海道","line":"JR函館本線","name":"掛澗","name_k":"かかりま","previous_next":"\n渡島砂原\t尾白内\t","latitude_longitude":"https://map.goo.ne.jp/s_gootransit/staticmap.php?MAP=E140.38.59.300N42.7.0.100&ZM=8&SZ=672,120","address":"茅部郡森町砂原西","postcode":"0492221","trangit":"\n函館本線\n"},{"aria":"北海道","line":"JR函館本線","name":"尾白内","name_k":"おしろない","previous_next":"\n掛澗\t東森\t","latitude_longitude":"https://map.goo.ne.jp/s_gootransit/staticmap.php?MAP=E140.37.1.200N42.6.31.300&ZM=8&SZ=672,120","address":"茅部郡森町尾白内町","postcode":"0492301","trangit":"\n函館本線\n"},{"aria":"北海道","line":"JR函館本線","name":"東森","name_k":"ひがしもり","previous_next":"\n尾白内\t石倉\t","latitude_longitude":"https://map.goo.ne.jp/s_gootransit/staticmap.php?MAP=E140.35.49.900N42.6.15.400&ZM=8&SZ=672,120","address":"茅部郡森町港町","postcode":"0492302","trangit":"\n函館本線\n"},{"aria":"北海道","line":"JR函館本線","name":"石倉","name_k":"いしくら","previous_next":"\n東森\t落部\t","latitude_longitude":"https://map.goo.ne.jp/s_gootransit/staticmap.php?MAP=E140.27.42.600N42.10.12.800&ZM=8&SZ=672,120","address":"茅部郡森町石倉町","postcode":"0492463","trangit":"\n函館本線\n"},{"aria":"北海道","line":"JR函館本線","name":"落部","name_k":"おとしべ","previous_next":"\n石倉\t野田生\t","latitude_longitude":"https://map.goo.ne.jp/s_gootransit/staticmap.php?MAP=E140.25.28.400N42.11.6.500&ZM=8&SZ=672,120","address":"二海郡八雲町落部","postcode":"0492562","trangit":"\n函館本線\n"},{"aria":"北海道","line":"JR函館本線","name":"野田生","name_k":"のだおい","previous_next":"\n落部\t山越\t","latitude_longitude":"https://map.goo.ne.jp/s_gootransit/staticmap.php?MAP=E140.22.47.900N42.12.51.800&ZM=8&SZ=672,120","address":"二海郡八雲町野田生","postcode":"0492672","trangit":"\n函館本線\n"},{"aria":"北海道","line":"JR函館本線","name":"山越","name_k":"やまこし","previous_next":"\n野田生\t八雲\t","latitude_longitude":"https://map.goo.ne.jp/s_gootransit/staticmap.php?MAP=E140.19.48.900N42.13.42.500&ZM=8&SZ=672,120","address":"二海郡八雲町山越","postcode":"0492671","trangit":"\n函館本線\n"},{"aria":"北海道","line":"JR函館本線","name":"八雲","name_k":"やくも","previous_next":"\n山越\t山崎（北海道）\t","latitude_longitude":"https://map.goo.ne.jp/s_gootransit/staticmap.php?MAP=E140.16.35.700N42.15.3.600&ZM=8&SZ=672,120","address":"二海郡八雲町本町","postcode":"0493107","trangit":"\n函館本線\n"},{"aria":"北海道","line":"JR函館本線","name":"山崎（北海道）","name_k":"やまさき","previous_next":"\n八雲\t黒岩\t","latitude_longitude":"https://map.goo.ne.jp/s_gootransit/staticmap.php?MAP=E140.16.41.500N42.18.43.900&ZM=8&SZ=672,120","address":"二海郡八雲町山崎","postcode":"0493342","trangit":"\n函館本線\n"},{"aria":"北海道","line":"JR函館本線","name":"黒岩","name_k":"くろいわ","previous_next":"\n山崎（北海道）\t国縫\t","latitude_longitude":"https://map.goo.ne.jp/s_gootransit/staticmap.php?MAP=E140.17.30.200N42.21.57.100&ZM=8&SZ=672,120","address":"二海郡八雲町黒岩","postcode":"0493341","trangit":"\n函館本線\n"},{"aria":"北海道","line":"JR函館本線","name":"国縫","name_k":"くんぬい","previous_next":"\n黒岩\t中ノ沢\t","latitude_longitude":"https://map.goo.ne.jp/s_gootransit/staticmap.php?MAP=E140.19.28.600N42.26.12.400&ZM=8&SZ=672,120","address":"山越郡長万部町国縫","postcode":"0493462","trangit":"\n函館本線\n"},{"aria":"北海道","line":"JR函館本線","name":"中ノ沢","name_k":"なかのさわ","previous_next":"\n国縫\t長万部\t","latitude_longitude":"https://map.goo.ne.jp/s_gootransit/staticmap.php?MAP=E140.20.58.900N42.28.31.700&ZM=8&SZ=672,120","address":"山越郡長万部町中の沢","postcode":"0493512","trangit":"\n函館本線\n"},{"aria":"北海道","line":"JR函館本線","name":"長万部","name_k":"おしゃまんべ","previous_next":"\n中ノ沢\t二股\t","latitude_longitude":"https://map.goo.ne.jp/s_gootransit/staticmap.php?MAP=E140.22.43.400N42.30.37.200&ZM=8&SZ=672,120","address":"山越郡長万部町長万部","postcode":"0493521","trangit":"\n函館本線\n室蘭本線\n"},{"aria":"北海道","line":"JR函館本線","name":"二股","name_k":"ふたまた","previous_next":"\n長万部\t黒松内\t","latitude_longitude":"https://map.goo.ne.jp/s_gootransit/staticmap.php?MAP=E140.19.27.600N42.34.24.300&ZM=8&SZ=672,120","address":"山越郡長万部町双葉","postcode":"0493501","trangit":"\n函館本線\n"},{"aria":"北海道","line":"JR函館本線","name":"黒松内","name_k":"くろまつない","previous_next":"\n二股\t熱郛\t","latitude_longitude":"https://map.goo.ne.jp/s_gootransit/staticmap.php?MAP=E140.18.33.200N42.40.2.500&ZM=8&SZ=672,120","address":"寿都郡黒松内町黒松内","postcode":"0480101","trangit":"\n函館本線\n"},{"aria":"北海道","line":"JR函館本線","name":"熱郛","name_k":"ねっぷ","previous_next":"\n黒松内\t目名\t","latitude_longitude":"https://map.goo.ne.jp/s_gootransit/staticmap.php?MAP=E140.22.44.400N42.40.23.600&ZM=8&SZ=672,120","address":"寿都郡黒松内町白井川","postcode":"0480134","trangit":"\n函館本線\n"},{"aria":"北海道","line":"JR函館本線","name":"目名","name_k":"めな","previous_next":"\n熱郛\t蘭越\t","latitude_longitude":"https://map.goo.ne.jp/s_gootransit/staticmap.php?MAP=E140.28.10.500N42.45.32.400&ZM=8&SZ=672,120","address":"磯谷郡蘭越町目名町","postcode":"0481261","trangit":"\n函館本線\n"},{"aria":"北海道","line":"JR函館本線","name":"蘭越","name_k":"らんこし","previous_next":"\n目名\t昆布\t","latitude_longitude":"https://map.goo.ne.jp/s_gootransit/staticmap.php?MAP=E140.31.57.400N42.48.7.600&ZM=8&SZ=672,120","address":"磯谷郡蘭越町蘭越町","postcode":"0481301","trangit":"\n函館本線\n"},{"aria":"北海道","line":"JR函館本線","name":"昆布","name_k":"こんぶ","previous_next":"\n蘭越\tニセコ\t","latitude_longitude":"https://map.goo.ne.jp/s_gootransit/staticmap.php?MAP=E140.36.0.400N42.47.43.800&ZM=8&SZ=672,120","address":"磯谷郡蘭越町昆布町","postcode":"0481302","trangit":"\n函館本線\n"},{"aria":"北海道","line":"JR函館本線","name":"ニセコ","name_k":"にせこ","previous_next":"\n昆布\t比羅夫\t","latitude_longitude":"https://map.goo.ne.jp/s_gootransit/staticmap.php?MAP=E140.41.17.800N42.48.22.900&ZM=8&SZ=672,120","address":"虻田郡ニセコ町中央通","postcode":"0481512","trangit":"\n函館本線\n"},{"aria":"北海道","line":"JR函館本線","name":"比羅夫","name_k":"ひらふ","previous_next":"\nニセコ\t倶知安\t","latitude_longitude":"https://map.goo.ne.jp/s_gootransit/staticmap.php?MAP=E140.43.35.700N42.50.47.300&ZM=8&SZ=672,120","address":"虻田郡倶知安町比羅夫","postcode":"0440077","trangit":"\n函館本線\n"},{"aria":"北海道","line":"JR函館本線","name":"倶知安","name_k":"くっちゃん","previous_next":"\n比羅夫\t小沢（北海道）\t","latitude_longitude":"https://map.goo.ne.jp/s_gootransit/staticmap.php?MAP=E140.44.56.800N42.53.57.200&ZM=8&SZ=672,120","address":"虻田郡倶知安町北一条西","postcode":"0440051","trangit":"\n函館本線\n"},{"aria":"北海道","line":"JR函館本線","name":"小沢（北海道）","name_k":"こざわ","previous_next":"\n倶知安\t銀山\t","latitude_longitude":"https://map.goo.ne.jp/s_gootransit/staticmap.php?MAP=E140.40.51.100N42.58.10.500&ZM=8&SZ=672,120","address":"岩内郡共和町小沢","postcode":"0482142","trangit":"\n函館本線\n"},{"aria":"北海道","line":"JR函館本線","name":"銀山","name_k":"ぎんざん","previous_next":"\n小沢（北海道）\t然別\t","latitude_longitude":"https://map.goo.ne.jp/s_gootransit/staticmap.php?MAP=E140.43.8.500N43.2.18.100&ZM=8&SZ=672,120","address":"余市郡仁木町銀山","postcode":"0482335","trangit":"\n函館本線\n"},{"aria":"北海道","line":"JR函館本線","name":"然別","name_k":"しかりべつ","previous_next":"\n銀山\t仁木\t","latitude_longitude":"https://map.goo.ne.jp/s_gootransit/staticmap.php?MAP=E140.44.25.600N43.7.22.800&ZM=8&SZ=672,120","address":"余市郡仁木町然別","postcode":"0482403","trangit":"\n函館本線\n"},{"aria":"北海道","line":"JR函館本線","name":"仁木","name_k":"にき","previous_next":"\n然別\t余市\t","latitude_longitude":"https://map.goo.ne.jp/s_gootransit/staticmap.php?MAP=E140.46.28.100N43.9.6.300&ZM=8&SZ=672,120","address":"余市郡仁木町北町","postcode":"0482405","trangit":"\n函館本線\n"},{"aria":"北海道","line":"JR函館本線","name":"余市","name_k":"よいち","previous_next":"\n仁木\t蘭島\t","latitude_longitude":"https://map.goo.ne.jp/s_gootransit/staticmap.php?MAP=E140.47.54.500N43.11.1.700&ZM=8&SZ=672,120","address":"余市郡余市町黒川町","postcode":"0460003","trangit":"\n函館本線\n"},{"aria":"北海道","line":"JR函館本線","name":"蘭島","name_k":"らんしま","previous_next":"\n余市\t塩谷\t","latitude_longitude":"https://map.goo.ne.jp/s_gootransit/staticmap.php?MAP=E140.51.29.100N43.11.38.400&ZM=8&SZ=672,120","address":"小樽市蘭島","postcode":"0482562","trangit":"\n函館本線\n"},{"aria":"北海道","line":"JR函館本線","name":"塩谷","name_k":"しおや","previous_next":"\n蘭島\t小樽\t","latitude_longitude":"https://map.goo.ne.jp/s_gootransit/staticmap.php?MAP=E140.55.41.700N43.12.0.500&ZM=8&SZ=672,120","address":"小樽市塩谷","postcode":"0482672","trangit":"\n函館本線\n"},{"aria":"北海道","line":"JR函館本線","name":"小樽","name_k":"おたる","previous_next":"\n塩谷\t南小樽\t","latitude_longitude":"https://map.goo.ne.jp/s_gootransit/staticmap.php?MAP=E140.59.50.800N43.11.40.600&ZM=8&SZ=672,120","address":"小樽市稲穂","postcode":"0470032","trangit":"\n函館本線\n"},{"aria":"北海道","line":"JR函館本線","name":"南小樽","name_k":"みなみおたる","previous_next":"\n小樽\t小樽築港\t","latitude_longitude":"https://map.goo.ne.jp/s_gootransit/staticmap.php?MAP=E141.0.41.400N43.11.3.500&ZM=8&SZ=672,120","address":"小樽市住吉町","postcode":"0470015","trangit":"\n函館本線\n"},{"aria":"北海道","line":"JR函館本線","name":"小樽築港","name_k":"おたるちっこう","previous_next":"\n南小樽\t朝里\t","latitude_longitude":"https://map.goo.ne.jp/s_gootransit/staticmap.php?MAP=E141.1.56.900N43.10.41.500&ZM=8&SZ=672,120","address":"小樽市築港","postcode":"0470008","trangit":"\n函館本線\n"},{"aria":"北海道","line":"JR函館本線","name":"朝里","name_k":"あさり","previous_next":"\n小樽築港\t銭函\t","latitude_longitude":"https://map.goo.ne.jp/s_gootransit/staticmap.php?MAP=E141.4.2.900N43.10.28.700&ZM=8&SZ=672,120","address":"小樽市朝里","postcode":"0470151","trangit":"\n函館本線\n"},{"aria":"北海道","line":"JR函館本線","name":"銭函","name_k":"ぜにばこ","previous_next":"\n朝里\tほしみ\t","latitude_longitude":"https://map.goo.ne.jp/s_gootransit/staticmap.php?MAP=E141.9.48.900N43.8.27.700&ZM=8&SZ=672,120","address":"小樽市銭函","postcode":"0470261","trangit":"\n函館本線\n"},{"aria":"北海道","line":"JR函館本線","name":"ほしみ","name_k":"ほしみ","previous_next":"\n銭函\t星置\t","latitude_longitude":"https://map.goo.ne.jp/s_gootransit/staticmap.php?MAP=E141.11.43.800N43.7.52.100&ZM=8&SZ=672,120","address":"札幌市手稲区星置一条","postcode":"0060851","trangit":"\n函館本線\n"},{"aria":"北海道","line":"JR函館本線","name":"星置","name_k":"ほしおき","previous_next":"\nほしみ\t稲穂\t","latitude_longitude":"https://map.goo.ne.jp/s_gootransit/staticmap.php?MAP=E141.12.52.600N43.7.47.700&ZM=8&SZ=672,120","address":"札幌市手稲区星置一条","postcode":"0060851","trangit":"\n函館本線\n"},{"aria":"北海道","line":"JR函館本線","name":"稲穂","name_k":"いなほ","previous_next":"\n星置\t手稲\t","latitude_longitude":"https://map.goo.ne.jp/s_gootransit/staticmap.php?MAP=E141.13.33.900N43.7.33.700&ZM=8&SZ=672,120","address":"札幌市手稲区曙一条","postcode":"0060831","trangit":"\n函館本線\n"},{"aria":"北海道","line":"JR函館本線","name":"手稲","name_k":"ていね","previous_next":"\n稲穂\t稲積公園\t","latitude_longitude":"https://map.goo.ne.jp/s_gootransit/staticmap.php?MAP=E141.14.50.500N43.7.3.200&ZM=8&SZ=672,120","address":"札幌市手稲区手稲本町一条","postcode":"0060021","trangit":"\n函館本線\n"},{"aria":"北海道","line":"JR函館本線","name":"稲積公園","name_k":"いなづみこうえん","previous_next":"\n手稲\t発寒\t","latitude_longitude":"https://map.goo.ne.jp/s_gootransit/staticmap.php?MAP=E141.15.37.200N43.6.35.600&ZM=8&SZ=672,120","address":"札幌市手稲区富丘一条","postcode":"0060011","trangit":"\n函館本線\n"},{"aria":"北海道","line":"JR函館本線","name":"発寒","name_k":"はっさむ","previous_next":"\n稲積公園\t発寒中央\t","latitude_longitude":"https://map.goo.ne.jp/s_gootransit/staticmap.php?MAP=E141.16.48.500N43.5.51.900&ZM=8&SZ=672,120","address":"札幌市西区発寒九条","postcode":"0630829","trangit":"\n函館本線\n"},{"aria":"北海道","line":"JR函館本線","name":"発寒中央","name_k":"はっさむちゅうおう","previous_next":"\n発寒\t琴似（ＪＲ）\t","latitude_longitude":"https://map.goo.ne.jp/s_gootransit/staticmap.php?MAP=E141.17.53.600N43.5.12.600&ZM=8&SZ=672,120","address":"札幌市西区発寒十条","postcode":"0630830","trangit":"\n函館本線\n"},{"aria":"北海道","line":"JR函館本線","name":"琴似（ＪＲ）","name_k":"ことに","previous_next":"\n発寒中央\t桑園\t","latitude_longitude":"https://map.goo.ne.jp/s_gootransit/staticmap.php?MAP=E141.18.40.900N43.4.44.300&ZM=8&SZ=672,120","address":"札幌市西区琴似二条","postcode":"0630812","trangit":"\n函館本線\n"},{"aria":"北海道","line":"JR函館本線","name":"桑園","name_k":"そうえん","previous_next":"\n琴似（ＪＲ）\t札幌\t","latitude_longitude":"https://map.goo.ne.jp/s_gootransit/staticmap.php?MAP=E141.20.8.200N43.4.6.200&ZM=8&SZ=672,120","address":"札幌市中央区北十一条西","postcode":"0600011","trangit":"\n函館本線\n学園都市線\n"},{"aria":"北海道","line":"JR函館本線","name":"札幌","name_k":"さっぽろ","previous_next":"\n桑園\t苗穂\t","latitude_longitude":"https://map.goo.ne.jp/s_gootransit/staticmap.php?MAP=E141.21.16.700N43.3.58.200&ZM=8&SZ=672,120","address":"札幌市北区北六条西","postcode":"0600806","trangit":"\n函館本線\n千歳線\n学園都市線\n"},{"aria":"北海道","line":"JR函館本線","name":"苗穂","name_k":"なえぼ","previous_next":"\n札幌\t白石（北海道・ＪＲ）\t","latitude_longitude":"https://map.goo.ne.jp/s_gootransit/staticmap.php?MAP=E141.22.37.000N43.3.58.300&ZM=8&SZ=672,120","address":"札幌市中央区北三条東","postcode":"0600033","trangit":"\n函館本線\n千歳線\n"},{"aria":"北海道","line":"JR函館本線","name":"白石（北海道・ＪＲ）","name_k":"しろいし","previous_next":"\n苗穂\t厚別\t","latitude_longitude":"https://map.goo.ne.jp/s_gootransit/staticmap.php?MAP=E141.25.3.500N43.3.8.300&ZM=8&SZ=672,120","address":"札幌市白石区平和通","postcode":"0030029","trangit":"\n函館本線\n千歳線\n"},{"aria":"北海道","line":"JR函館本線","name":"厚別","name_k":"あつべつ","previous_next":"\n白石（北海道・ＪＲ）\t森林公園（北海道）\t","latitude_longitude":"https://map.goo.ne.jp/s_gootransit/staticmap.php?MAP=E141.28.0.700N43.2.33.100&ZM=8&SZ=672,120","address":"札幌市厚別区厚別中央五条","postcode":"0040055","trangit":"\n函館本線\n"},{"aria":"北海道","line":"JR函館本線","name":"森林公園（北海道）","name_k":"しんりんこうえん","previous_next":"\n厚別\t大麻\t","latitude_longitude":"https://map.goo.ne.jp/s_gootransit/staticmap.php?MAP=E141.29.7.400N43.3.13.600&ZM=8&SZ=672,120","address":"札幌市厚別区厚別北一条","postcode":"0040071","trangit":"\n函館本線\n"},{"aria":"北海道","line":"JR函館本線","name":"大麻","name_k":"おおあさ","previous_next":"\n森林公園（北海道）\t野幌\t","latitude_longitude":"https://map.goo.ne.jp/s_gootransit/staticmap.php?MAP=E141.30.2.100N43.4.10.400&ZM=8&SZ=672,120","address":"江別市大麻中町","postcode":"0690854","trangit":"\n函館本線\n"},{"aria":"北海道","line":"JR函館本線","name":"野幌","name_k":"のっぽろ","previous_next":"\n大麻\t高砂（北海道）\t","latitude_longitude":"https://map.goo.ne.jp/s_gootransit/staticmap.php?MAP=E141.31.59.200N43.5.23.000&ZM=8&SZ=672,120","address":"江別市野幌町","postcode":"0690813","trangit":"\n函館本線\n"},{"aria":"北海道","line":"JR函館本線","name":"高砂（北海道）","name_k":"たかさご","previous_next":"\n野幌\t江別\t","latitude_longitude":"https://map.goo.ne.jp/s_gootransit/staticmap.php?MAP=E141.32.40.200N43.5.51.900&ZM=8&SZ=672,120","address":"江別市高砂町","postcode":"0670074","trangit":"\n函館本線\n"},{"aria":"北海道","line":"JR函館本線","name":"江別","name_k":"えべつ","previous_next":"\n高砂（北海道）\t豊幌\t","latitude_longitude":"https://map.goo.ne.jp/s_gootransit/staticmap.php?MAP=E141.33.38.200N43.6.28.100&ZM=8&SZ=672,120","address":"江別市萩ケ岡","postcode":"0670071","trangit":"\n函館本線\n"},{"aria":"北海道","line":"JR函館本線","name":"豊幌","name_k":"とよほろ","previous_next":"\n江別\t幌向\t","latitude_longitude":"https://map.goo.ne.jp/s_gootransit/staticmap.php?MAP=E141.37.42.200N43.8.2.400&ZM=8&SZ=672,120","address":"江別市豊幌","postcode":"0670021","trangit":"\n函館本線\n"},{"aria":"北海道","line":"JR函館本線","name":"幌向","name_k":"ほろむい","previous_next":"\n豊幌\t上幌向\t","latitude_longitude":"https://map.goo.ne.jp/s_gootransit/staticmap.php?MAP=E141.39.33.700N43.8.57.000&ZM=8&SZ=672,120","address":"岩見沢市幌向南一条","postcode":"0690371","trangit":"\n函館本線\n"},{"aria":"北海道","line":"JR函館本線","name":"上幌向","name_k":"かみほろむい","previous_next":"\n幌向\t岩見沢\t","latitude_longitude":"https://map.goo.ne.jp/s_gootransit/staticmap.php?MAP=E141.43.8.600N43.10.45.800&ZM=8&SZ=672,120","address":"岩見沢市上幌向南一条","postcode":"0690362","trangit":"\n函館本線\n"},{"aria":"北海道","line":"JR函館本線","name":"岩見沢","name_k":"いわみざわ","previous_next":"\n上幌向\t峰延\t","latitude_longitude":"https://map.goo.ne.jp/s_gootransit/staticmap.php?MAP=E141.45.48.100N43.12.6.600&ZM=8&SZ=672,120","address":"岩見沢市有明町南","postcode":"0680034","trangit":"\n函館本線\n室蘭本線\n"},{"aria":"北海道","line":"JR函館本線","name":"峰延","name_k":"みねのぶ","previous_next":"\n岩見沢\t光珠内\t","latitude_longitude":"https://map.goo.ne.jp/s_gootransit/staticmap.php?MAP=E141.49.6.200N43.15.44.400&ZM=8&SZ=672,120","address":"美唄市峰延町本町","postcode":"0790174","trangit":"\n函館本線\n"},{"aria":"北海道","line":"JR函館本線","name":"光珠内","name_k":"こうしゅない","previous_next":"\n峰延\t美唄\t","latitude_longitude":"https://map.goo.ne.jp/s_gootransit/staticmap.php?MAP=E141.50.54.500N43.17.25.100&ZM=8&SZ=672,120","address":"美唄市光珠内北","postcode":"0790162","trangit":"\n函館本線\n"},{"aria":"北海道","line":"JR函館本線","name":"美唄","name_k":"びばい","previous_next":"\n光珠内\t茶志内\t","latitude_longitude":"https://map.goo.ne.jp/s_gootransit/staticmap.php?MAP=E141.51.57.300N43.19.41.400&ZM=8&SZ=672,120","address":"美唄市東一条南","postcode":"0720012","trangit":"\n函館本線\n"},{"aria":"北海道","line":"JR函館本線","name":"茶志内","name_k":"ちゃしない","previous_next":"\n美唄\t奈井江\t","latitude_longitude":"https://map.goo.ne.jp/s_gootransit/staticmap.php?MAP=E141.52.37.600N43.22.2.600&ZM=8&SZ=672,120","address":"美唄市茶志内町","postcode":"0790261","trangit":"\n函館本線\n"},{"aria":"北海道","line":"JR函館本線","name":"奈井江","name_k":"ないえ","previous_next":"\n茶志内\t豊沼\t","latitude_longitude":"https://map.goo.ne.jp/s_gootransit/staticmap.php?MAP=E141.53.35.100N43.25.18.000&ZM=8&SZ=672,120","address":"空知郡奈井江町本町","postcode":"0790313","trangit":"\n函館本線\n"},{"aria":"北海道","line":"JR函館本線","name":"豊沼","name_k":"とよぬま","previous_next":"\n奈井江\t砂川\t","latitude_longitude":"https://map.goo.ne.jp/s_gootransit/staticmap.php?MAP=E141.54.17.500N43.27.43.200&ZM=8&SZ=672,120","address":"砂川市豊沼町","postcode":"0730138","trangit":"\n函館本線\n"},{"aria":"北海道","line":"JR函館本線","name":"砂川","name_k":"すながわ","previous_next":"\n豊沼\t滝川\t","latitude_longitude":"https://map.goo.ne.jp/s_gootransit/staticmap.php?MAP=E141.54.48.600N43.29.28.800&ZM=8&SZ=672,120","address":"砂川市東二条北","postcode":"0730152","trangit":"\n函館本線\n"},{"aria":"北海道","line":"JR函館本線","name":"滝川","name_k":"たきかわ","previous_next":"\n砂川\t江部乙\t","latitude_longitude":"https://map.goo.ne.jp/s_gootransit/staticmap.php?MAP=E141.54.16.200N43.33.10.300&ZM=8&SZ=672,120","address":"滝川市栄町","postcode":"0730031","trangit":"\n函館本線\n根室本線\n"},{"aria":"北海道","line":"JR函館本線","name":"江部乙","name_k":"えべおつ","previous_next":"\n滝川\t妹背牛\t","latitude_longitude":"https://map.goo.ne.jp/s_gootransit/staticmap.php?MAP=E141.56.23.500N43.37.31.200&ZM=8&SZ=672,120","address":"滝川市江部乙町西","postcode":"0790462","trangit":"\n函館本線\n"},{"aria":"北海道","line":"JR函館本線","name":"妹背牛","name_k":"もせうし","previous_next":"\n江部乙\t深川\t","latitude_longitude":"https://map.goo.ne.jp/s_gootransit/staticmap.php?MAP=E141.58.13.600N43.41.19.300&ZM=8&SZ=672,120","address":"雨竜郡妹背牛町妹背牛","postcode":"0790501","trangit":"\n函館本線\n"},{"aria":"北海道","line":"JR函館本線","name":"深川","name_k":"ふかがわ","previous_next":"\n妹背牛\t納内\t","latitude_longitude":"https://map.goo.ne.jp/s_gootransit/staticmap.php?MAP=E142.2.43.800N43.43.8.300&ZM=8&SZ=672,120","address":"深川市一条","postcode":"0740001","trangit":"\n函館本線\n留萌本線\n"},{"aria":"北海道","line":"JR函館本線","name":"納内","name_k":"おさむない","previous_next":"\n深川\t近文\t","latitude_longitude":"https://map.goo.ne.jp/s_gootransit/staticmap.php?MAP=E142.8.1.500N43.43.48.500&ZM=8&SZ=672,120","address":"深川市納内町","postcode":"0780151","trangit":"\n函館本線\n"},{"aria":"北海道","line":"JR函館本線","name":"近文","name_k":"ちかぶみ","previous_next":"\n納内\t旭川\t","latitude_longitude":"https://map.goo.ne.jp/s_gootransit/staticmap.php?MAP=E142.19.44.900N43.47.13.100&ZM=8&SZ=672,120","address":"旭川市近文町","postcode":"0700821","trangit":"\n函館本線\n"},{"aria":"北海道","line":"JR函館本線","name":"旭川","name_k":"あさひかわ","previous_next":"\n近文\t\t","latitude_longitude":"https://map.goo.ne.jp/s_gootransit/staticmap.php?MAP=E142.21.42.700N43.45.39.500&ZM=8&SZ=672,120","address":"旭川市宮下通","postcode":"0700030","trangit":"\n函館本線\n宗谷本線\n富良野線\n石北本線\n"},{"aria":"北海道","line":"JR千歳線","name":"沼ノ端","name_k":"ぬまのはた","previous_next":"\n\t植苗\t","latitude_longitude":"https://map.goo.ne.jp/s_gootransit/staticmap.php?MAP=E141.41.48.200N42.40.10.200&ZM=8&SZ=672,120","address":"苫小牧市沼ノ端","postcode":"0591364","trangit":"\n千歳線\n室蘭本線\n"},{"aria":"北海道","line":"JR千歳線","name":"植苗","name_k":"うえなえ","previous_next":"\n沼ノ端\t新千歳空港\t","latitude_longitude":"https://map.goo.ne.jp/s_gootransit/staticmap.php?MAP=E141.44.20.400N42.42.40.100&ZM=8&SZ=672,120","address":"苫小牧市植苗","postcode":"0591365","trangit":"\n千歳線\n"},{"aria":"北海道","line":"JR千歳線","name":"新千歳空港","name_k":"しんちとせくうこう","previous_next":"\n植苗\t南千歳\t","latitude_longitude":"https://map.goo.ne.jp/s_gootransit/staticmap.php?MAP=E141.41.4.000N42.47.5.000&ZM=8&SZ=672,120","address":"千歳市美々","postcode":"0660012","trangit":"\n千歳線\n"},{"aria":"北海道","line":"JR千歳線","name":"南千歳","name_k":"みなみちとせ","previous_next":"\n新千歳空港\t千歳（北海道）\t","latitude_longitude":"https://map.goo.ne.jp/s_gootransit/staticmap.php?MAP=E141.40.43.900N42.48.20.500&ZM=8&SZ=672,120","address":"千歳市平和","postcode":"0660044","trangit":"\n千歳線\n石勝線\n"},{"aria":"北海道","line":"JR千歳線","name":"千歳（北海道）","name_k":"ちとせ","previous_next":"\n南千歳\t長都\t","latitude_longitude":"https://map.goo.ne.jp/s_gootransit/staticmap.php?MAP=E141.39.21.900N42.49.32.300&ZM=8&SZ=672,120","address":"千歳市千代田町","postcode":"0660062","trangit":"\n千歳線\n"},{"aria":"北海道","line":"JR千歳線","name":"長都","name_k":"おさつ","previous_next":"\n千歳（北海道）\tサッポロビール庭園\t","latitude_longitude":"https://map.goo.ne.jp/s_gootransit/staticmap.php?MAP=E141.37.36.700N42.50.58.800&ZM=8&SZ=672,120","address":"千歳市上長都","postcode":"0660077","trangit":"\n千歳線\n"},{"aria":"北海道","line":"JR千歳線","name":"サッポロビール庭園","name_k":"さっぽろびーるていえん","previous_next":"\n長都\t恵庭\t","latitude_longitude":"https://map.goo.ne.jp/s_gootransit/staticmap.php?MAP=E141.36.32.800N42.51.52.100&ZM=8&SZ=672,120","address":"恵庭市戸磯","postcode":"0611405","trangit":"\n千歳線\n"},{"aria":"北海道","line":"JR千歳線","name":"恵庭","name_k":"えにわ","previous_next":"\nサッポロビール庭園\t恵み野\t","latitude_longitude":"https://map.goo.ne.jp/s_gootransit/staticmap.php?MAP=E141.35.23.600N42.52.50.200&ZM=8&SZ=672,120","address":"恵庭市相生町","postcode":"0611448","trangit":"\n千歳線\n"},{"aria":"北海道","line":"JR千歳線","name":"恵み野","name_k":"めぐみの","previous_next":"\n恵庭\t島松\t","latitude_longitude":"https://map.goo.ne.jp/s_gootransit/staticmap.php?MAP=E141.34.41.400N42.54.0.500&ZM=8&SZ=672,120","address":"恵庭市恵み野西","postcode":"0611373","trangit":"\n千歳線\n"},{"aria":"北海道","line":"JR千歳線","name":"島松","name_k":"しままつ","previous_next":"\n恵み野\t北広島\t","latitude_longitude":"https://map.goo.ne.jp/s_gootransit/staticmap.php?MAP=E141.34.37.000N42.55.6.600&ZM=8&SZ=672,120","address":"恵庭市島松本町","postcode":"0611353","trangit":"\n千歳線\n"},{"aria":"北海道","line":"JR千歳線","name":"北広島","name_k":"きたひろしま","previous_next":"\n島松\t上野幌\t","latitude_longitude":"https://map.goo.ne.jp/s_gootransit/staticmap.php?MAP=E141.34.0.700N42.58.36.800&ZM=8&SZ=672,120","address":"北広島市中央","postcode":"0611121","trangit":"\n千歳線\n"},{"aria":"北海道","line":"JR千歳線","name":"上野幌","name_k":"かみのっぽろ","previous_next":"\n北広島\t新札幌\t","latitude_longitude":"https://map.goo.ne.jp/s_gootransit/staticmap.php?MAP=E141.29.26.900N43.0.49.600&ZM=8&SZ=672,120","address":"札幌市厚別区厚別町上野幌","postcode":"0040039","trangit":"\n千歳線\n"},{"aria":"北海道","line":"JR千歳線","name":"新札幌","name_k":"しんさっぽろ","previous_next":"\n上野幌\t平和\t","latitude_longitude":"https://map.goo.ne.jp/s_gootransit/staticmap.php?MAP=E141.28.35.600N43.2.9.100&ZM=8&SZ=672,120","address":"札幌市厚別区厚別中央二条","postcode":"0040052","trangit":"\n千歳線\n"},{"aria":"北海道","line":"JR千歳線","name":"平和","name_k":"へいわ","previous_next":"\n新札幌\t白石（北海道・ＪＲ）\t","latitude_longitude":"https://map.goo.ne.jp/s_gootransit/staticmap.php?MAP=E141.26.30.100N43.2.40.200&ZM=8&SZ=672,120","address":"札幌市白石区平和通","postcode":"0030029","trangit":"\n千歳線\n"},{"aria":"北海道","line":"JR千歳線","name":"白石（北海道・ＪＲ）","name_k":"しろいし","previous_next":"\n平和\t\t","latitude_longitude":"https://map.goo.ne.jp/s_gootransit/staticmap.php?MAP=E141.25.3.500N43.3.8.300&ZM=8&SZ=672,120","address":"札幌市白石区平和通","postcode":"0030029","trangit":"\n函館本線\n千歳線\n"},{"aria":"北海道","line":"JR室蘭本線","name":"長万部","name_k":"おしゃまんべ","previous_next":"\n\t静狩\t","latitude_longitude":"https://map.goo.ne.jp/s_gootransit/staticmap.php?MAP=E140.22.43.400N42.30.37.200&ZM=8&SZ=672,120","address":"山越郡長万部町長万部","postcode":"0493521","trangit":"\n函館本線\n室蘭本線\n"},{"aria":"北海道","line":"JR室蘭本線","name":"静狩","name_k":"しずかり","previous_next":"\n長万部\t小幌\t","latitude_longitude":"https://map.goo.ne.jp/s_gootransit/staticmap.php?MAP=E140.27.49.500N42.34.54.000&ZM=8&SZ=672,120","address":"山越郡長万部町静狩","postcode":"0495141","trangit":"\n室蘭本線\n"},{"aria":"北海道","line":"JR室蘭本線","name":"小幌","name_k":"こぼろ","previous_next":"\n静狩\t礼文\t","latitude_longitude":"https://map.goo.ne.jp/s_gootransit/staticmap.php?MAP=E140.32.27.400N42.35.14.400&ZM=8&SZ=672,120","address":"虻田郡豊浦町礼文華","postcode":"0495333","trangit":"\n室蘭本線\n"},{"aria":"北海道","line":"JR室蘭本線","name":"礼文","name_k":"れぶん","previous_next":"\n小幌\t大岸\t","latitude_longitude":"https://map.goo.ne.jp/s_gootransit/staticmap.php?MAP=E140.35.55.500N42.34.41.200&ZM=8&SZ=672,120","address":"虻田郡豊浦町礼文華","postcode":"0495333","trangit":"\n室蘭本線\n"},{"aria":"北海道","line":"JR室蘭本線","name":"大岸","name_k":"おおきし","previous_next":"\n礼文\t豊浦\t","latitude_longitude":"https://map.goo.ne.jp/s_gootransit/staticmap.php?MAP=E140.38.34.600N42.35.0.700&ZM=8&SZ=672,120","address":"虻田郡豊浦町大岸","postcode":"0495332","trangit":"\n室蘭本線\n"},{"aria":"北海道","line":"JR室蘭本線","name":"豊浦","name_k":"とようら","previous_next":"\n大岸\t洞爺\t","latitude_longitude":"https://map.goo.ne.jp/s_gootransit/staticmap.php?MAP=E140.43.9.300N42.34.39.500&ZM=8&SZ=672,120","address":"虻田郡豊浦町旭町","postcode":"0495412","trangit":"\n室蘭本線\n"},{"aria":"北海道","line":"JR室蘭本線","name":"洞爺","name_k":"とうや","previous_next":"\n豊浦\t有珠\t","latitude_longitude":"https://map.goo.ne.jp/s_gootransit/staticmap.php?MAP=E140.46.2.400N42.32.53.900&ZM=8&SZ=672,120","address":"虻田郡洞爺湖町旭町","postcode":"0495611","trangit":"\n室蘭本線\n"},{"aria":"北海道","line":"JR室蘭本線","name":"有珠","name_k":"うす","previous_next":"\n洞爺\t長和\t","latitude_longitude":"https://map.goo.ne.jp/s_gootransit/staticmap.php?MAP=E140.47.51.200N42.30.39.000&ZM=8&SZ=672,120","address":"伊達市有珠町","postcode":"0590151","trangit":"\n室蘭本線\n"},{"aria":"北海道","line":"JR室蘭本線","name":"長和","name_k":"ながわ","previous_next":"\n有珠\t伊達紋別\t","latitude_longitude":"https://map.goo.ne.jp/s_gootransit/staticmap.php?MAP=E140.50.14.600N42.29.8.600&ZM=8&SZ=672,120","address":"伊達市長和町","postcode":"0520035","trangit":"\n室蘭本線\n"},{"aria":"北海道","line":"JR室蘭本線","name":"伊達紋別","name_k":"だてもんべつ","previous_next":"\n長和\t北舟岡\t","latitude_longitude":"https://map.goo.ne.jp/s_gootransit/staticmap.php?MAP=E140.51.32.400N42.28.1.100&ZM=8&SZ=672,120","address":"伊達市山下町","postcode":"0520032","trangit":"\n室蘭本線\n"},{"aria":"北海道","line":"JR室蘭本線","name":"北舟岡","name_k":"きたふなおか","previous_next":"\n伊達紋別\t稀府\t","latitude_longitude":"https://map.goo.ne.jp/s_gootransit/staticmap.php?MAP=E140.53.1.900N42.26.52.800&ZM=8&SZ=672,120","address":"伊達市舟岡町","postcode":"0520014","trangit":"\n室蘭本線\n"},{"aria":"北海道","line":"JR室蘭本線","name":"稀府","name_k":"まれっぷ","previous_next":"\n北舟岡\t黄金（北海道）\t","latitude_longitude":"https://map.goo.ne.jp/s_gootransit/staticmap.php?MAP=E140.54.8.900N42.25.23.100&ZM=8&SZ=672,120","address":"伊達市南稀府町","postcode":"0590273","trangit":"\n室蘭本線\n"},{"aria":"北海道","line":"JR室蘭本線","name":"黄金（北海道）","name_k":"こがね","previous_next":"\n稀府\t崎守\t","latitude_longitude":"https://map.goo.ne.jp/s_gootransit/staticmap.php?MAP=E140.54.41.200N42.23.2.700&ZM=8&SZ=672,120","address":"伊達市南黄金町","postcode":"0590271","trangit":"\n室蘭本線\n"},{"aria":"北海道","line":"JR室蘭本線","name":"崎守","name_k":"さきもり","previous_next":"\n黄金（北海道）\t本輪西\t","latitude_longitude":"https://map.goo.ne.jp/s_gootransit/staticmap.php?MAP=E140.55.51.500N42.22.17.300&ZM=8&SZ=672,120","address":"室蘭市崎守町","postcode":"0500055","trangit":"\n室蘭本線\n"},{"aria":"北海道","line":"JR室蘭本線","name":"本輪西","name_k":"もとわにし","previous_next":"\n崎守\t室蘭\t","latitude_longitude":"https://map.goo.ne.jp/s_gootransit/staticmap.php?MAP=E140.58.52.900N42.21.22.400&ZM=8&SZ=672,120","address":"室蘭市本輪西町","postcode":"0500065","trangit":"\n室蘭本線\n"},{"aria":"北海道","line":"JR室蘭本線","name":"室蘭","name_k":"むろらん","previous_next":"\n本輪西\t母恋\t","latitude_longitude":"https://map.goo.ne.jp/s_gootransit/staticmap.php?MAP=E140.58.45.800N42.18.55.500&ZM=8&SZ=672,120","address":"室蘭市入江町","postcode":"0510023","trangit":"\n室蘭本線\n"},{"aria":"北海道","line":"JR室蘭本線","name":"母恋","name_k":"ぼこい","previous_next":"\n室蘭\t御崎\t","latitude_longitude":"https://map.goo.ne.jp/s_gootransit/staticmap.php?MAP=E140.59.35.500N42.18.52.800&ZM=8&SZ=672,120","address":"室蘭市母恋北町","postcode":"0510004","trangit":"\n室蘭本線\n"},{"aria":"北海道","line":"JR室蘭本線","name":"御崎","name_k":"みさき","previous_next":"\n母恋\t輪西\t","latitude_longitude":"https://map.goo.ne.jp/s_gootransit/staticmap.php?MAP=E140.59.50.700N42.19.35.300&ZM=8&SZ=672,120","address":"室蘭市御崎町","postcode":"0510001","trangit":"\n室蘭本線\n"},{"aria":"北海道","line":"JR室蘭本線","name":"輪西","name_k":"わにし","previous_next":"\n御崎\t東室蘭\t","latitude_longitude":"https://map.goo.ne.jp/s_gootransit/staticmap.php?MAP=E141.0.33.700N42.19.52.500&ZM=8&SZ=672,120","address":"室蘭市仲町","postcode":"0500087","trangit":"\n室蘭本線\n"},{"aria":"北海道","line":"JR室蘭本線","name":"東室蘭","name_k":"ひがしむろらん","previous_next":"\n輪西\t鷲別\t","latitude_longitude":"https://map.goo.ne.jp/s_gootransit/staticmap.php?MAP=E141.1.46.200N42.20.47.500&ZM=8&SZ=672,120","address":"室蘭市東町","postcode":"0500083","trangit":"\n室蘭本線\n"},{"aria":"北海道","line":"JR室蘭本線","name":"鷲別","name_k":"わしべつ","previous_next":"\n東室蘭\t幌別\t","latitude_longitude":"https://map.goo.ne.jp/s_gootransit/staticmap.php?MAP=E141.2.50.900N42.21.27.000&ZM=8&SZ=672,120","address":"登別市鷲別町","postcode":"0590034","trangit":"\n室蘭本線\n"},{"aria":"北海道","line":"JR室蘭本線","name":"幌別","name_k":"ほろべつ","previous_next":"\n鷲別\t富浦（北海道）\t","latitude_longitude":"https://map.goo.ne.jp/s_gootransit/staticmap.php?MAP=E141.6.37.100N42.24.23.900&ZM=8&SZ=672,120","address":"登別市幌別町","postcode":"0590013","trangit":"\n室蘭本線\n"},{"aria":"北海道","line":"JR室蘭本線","name":"富浦（北海道）","name_k":"とみうら","previous_next":"\n幌別\t登別\t","latitude_longitude":"https://map.goo.ne.jp/s_gootransit/staticmap.php?MAP=E141.9.36.800N42.26.21.700&ZM=8&SZ=672,120","address":"登別市富浦町","postcode":"0590462","trangit":"\n室蘭本線\n"},{"aria":"北海道","line":"JR室蘭本線","name":"登別","name_k":"のぼりべつ","previous_next":"\n富浦（北海道）\t虎杖浜\t","latitude_longitude":"https://map.goo.ne.jp/s_gootransit/staticmap.php?MAP=E141.11.4.500N42.26.58.400&ZM=8&SZ=672,120","address":"登別市登別港町","postcode":"0590466","trangit":"\n室蘭本線\n"},{"aria":"北海道","line":"JR室蘭本線","name":"虎杖浜","name_k":"こじょうはま","previous_next":"\n登別\t竹浦\t","latitude_longitude":"https://map.goo.ne.jp/s_gootransit/staticmap.php?MAP=E141.13.7.800N42.27.44.700&ZM=8&SZ=672,120","address":"白老郡白老町虎杖浜","postcode":"0590641","trangit":"\n室蘭本線\n"},{"aria":"北海道","line":"JR室蘭本線","name":"竹浦","name_k":"たけうら","previous_next":"\n虎杖浜\t北吉原\t","latitude_longitude":"https://map.goo.ne.jp/s_gootransit/staticmap.php?MAP=E141.15.51.300N42.29.25.500&ZM=8&SZ=672,120","address":"白老郡白老町竹浦","postcode":"0590642","trangit":"\n室蘭本線\n"},{"aria":"北海道","line":"JR室蘭本線","name":"北吉原","name_k":"きたよしはら","previous_next":"\n竹浦\t萩野\t","latitude_longitude":"https://map.goo.ne.jp/s_gootransit/staticmap.php?MAP=E141.17.22.200N42.30.22.500&ZM=8&SZ=672,120","address":"白老郡白老町北吉原","postcode":"0590923","trangit":"\n室蘭本線\n"},{"aria":"北海道","line":"JR室蘭本線","name":"萩野","name_k":"はぎの","previous_next":"\n北吉原\t白老\t","latitude_longitude":"https://map.goo.ne.jp/s_gootransit/staticmap.php?MAP=E141.18.35.400N42.31.8.500&ZM=8&SZ=672,120","address":"白老郡白老町萩野","postcode":"0590922","trangit":"\n室蘭本線\n"},{"aria":"北海道","line":"JR室蘭本線","name":"白老","name_k":"しらおい","previous_next":"\n萩野\t社台\t","latitude_longitude":"https://map.goo.ne.jp/s_gootransit/staticmap.php?MAP=E141.21.49.100N42.33.8.200&ZM=8&SZ=672,120","address":"白老郡白老町東町","postcode":"0590904","trangit":"\n室蘭本線\n"},{"aria":"北海道","line":"JR室蘭本線","name":"社台","name_k":"しゃだい","previous_next":"\n白老\t錦岡\t","latitude_longitude":"https://map.goo.ne.jp/s_gootransit/staticmap.php?MAP=E141.25.17.200N42.34.35.600&ZM=8&SZ=672,120","address":"白老郡白老町社台","postcode":"0590901","trangit":"\n室蘭本線\n"},{"aria":"北海道","line":"JR室蘭本線","name":"錦岡","name_k":"にしきおか","previous_next":"\n社台\t糸井\t","latitude_longitude":"https://map.goo.ne.jp/s_gootransit/staticmap.php?MAP=E141.29.27.300N42.36.0.500&ZM=8&SZ=672,120","address":"苫小牧市錦岡","postcode":"0591275","trangit":"\n室蘭本線\n"},{"aria":"北海道","line":"JR室蘭本線","name":"糸井","name_k":"いとい","previous_next":"\n錦岡\t青葉\t","latitude_longitude":"https://map.goo.ne.jp/s_gootransit/staticmap.php?MAP=E141.33.0.300N42.37.12.300&ZM=8&SZ=672,120","address":"苫小牧市日吉町","postcode":"0530816","trangit":"\n室蘭本線\n"},{"aria":"北海道","line":"JR室蘭本線","name":"青葉","name_k":"あおば","previous_next":"\n糸井\t苫小牧\t","latitude_longitude":"https://map.goo.ne.jp/s_gootransit/staticmap.php?MAP=E141.34.30.600N42.37.43.700&ZM=8&SZ=672,120","address":"苫小牧市青葉町","postcode":"0530807","trangit":"\n室蘭本線\n"},{"aria":"北海道","line":"JR室蘭本線","name":"苫小牧","name_k":"とまこまい","previous_next":"\n青葉\t沼ノ端\t","latitude_longitude":"https://map.goo.ne.jp/s_gootransit/staticmap.php?MAP=E141.35.57.700N42.38.12.800&ZM=8&SZ=672,120","address":"苫小牧市表町","postcode":"0530022","trangit":"\n千歳線\n室蘭本線\n日高本線\n"},{"aria":"北海道","line":"JR室蘭本線","name":"沼ノ端","name_k":"ぬまのはた","previous_next":"\n苫小牧\t遠浅\t","latitude_longitude":"https://map.goo.ne.jp/s_gootransit/staticmap.php?MAP=E141.41.48.200N42.40.10.200&ZM=8&SZ=672,120","address":"苫小牧市沼ノ端","postcode":"0591364","trangit":"\n千歳線\n室蘭本線\n"},{"aria":"北海道","line":"JR室蘭本線","name":"遠浅","name_k":"とあさ","previous_next":"\n沼ノ端\t早来\t","latitude_longitude":"https://map.goo.ne.jp/s_gootransit/staticmap.php?MAP=E141.46.22.300N42.43.36.800&ZM=8&SZ=672,120","address":"勇払郡安平町遠浅","postcode":"0591433","trangit":"\n室蘭本線\n"},{"aria":"北海道","line":"JR室蘭本線","name":"早来","name_k":"はやきた","previous_next":"\n遠浅\t安平\t","latitude_longitude":"https://map.goo.ne.jp/s_gootransit/staticmap.php?MAP=E141.49.4.200N42.45.45.600&ZM=8&SZ=672,120","address":"勇払郡安平町早来栄町","postcode":"0591505","trangit":"\n室蘭本線\n"},{"aria":"北海道","line":"JR室蘭本線","name":"安平","name_k":"あびら","previous_next":"\n早来\t追分（北海道）\t","latitude_longitude":"https://map.goo.ne.jp/s_gootransit/staticmap.php?MAP=E141.49.43.500N42.48.41.900&ZM=8&SZ=672,120","address":"勇払郡安平町安平","postcode":"0591511","trangit":"\n室蘭本線\n"},{"aria":"北海道","line":"JR室蘭本線","name":"追分（北海道）","name_k":"おいわけ","previous_next":"\n安平\t三川（北海道）\t","latitude_longitude":"https://map.goo.ne.jp/s_gootransit/staticmap.php?MAP=E141.48.51.400N42.52.14.400&ZM=8&SZ=672,120","address":"勇払郡安平町追分中央","postcode":"0591931","trangit":"\n室蘭本線\n石勝線\n"},{"aria":"北海道","line":"JR室蘭本線","name":"三川（北海道）","name_k":"みかわ","previous_next":"\n追分（北海道）\t古山\t","latitude_longitude":"https://map.goo.ne.jp/s_gootransit/staticmap.php?MAP=E141.48.16.300N42.56.33.000&ZM=8&SZ=672,120","address":"夕張郡由仁町三川旭町","postcode":"0691133","trangit":"\n室蘭本線\n"},{"aria":"北海道","line":"JR室蘭本線","name":"古山","name_k":"ふるさん","previous_next":"\n三川（北海道）\t由仁\t","latitude_longitude":"https://map.goo.ne.jp/s_gootransit/staticmap.php?MAP=E141.47.52.200N42.58.21.300&ZM=8&SZ=672,120","address":"夕張郡由仁町古山","postcode":"0691216","trangit":"\n室蘭本線\n"},{"aria":"北海道","line":"JR室蘭本線","name":"由仁","name_k":"ゆに","previous_next":"\n古山\t栗山\t","latitude_longitude":"https://map.goo.ne.jp/s_gootransit/staticmap.php?MAP=E141.47.22.900N43.0.35.400&ZM=8&SZ=672,120","address":"夕張郡由仁町古山","postcode":"0691216","trangit":"\n室蘭本線\n"},{"aria":"北海道","line":"JR室蘭本線","name":"栗山","name_k":"くりやま","previous_next":"\n由仁\t栗丘\t","latitude_longitude":"https://map.goo.ne.jp/s_gootransit/staticmap.php?MAP=E141.46.46.500N43.3.19.400&ZM=8&SZ=672,120","address":"夕張郡栗山町中央","postcode":"0691511","trangit":"\n室蘭本線\n"},{"aria":"北海道","line":"JR室蘭本線","name":"栗丘","name_k":"くりおか","previous_next":"\n栗山\t栗沢\t","latitude_longitude":"https://map.goo.ne.jp/s_gootransit/staticmap.php?MAP=E141.44.53.500N43.4.58.400&ZM=8&SZ=672,120","address":"岩見沢市栗沢町栗丘","postcode":"0680134","trangit":"\n室蘭本線\n"},{"aria":"北海道","line":"JR室蘭本線","name":"栗沢","name_k":"くりさわ","previous_next":"\n栗丘\t志文\t","latitude_longitude":"https://map.goo.ne.jp/s_gootransit/staticmap.php?MAP=E141.44.36.300N43.7.4.800&ZM=8&SZ=672,120","address":"岩見沢市栗沢町本町","postcode":"0680127","trangit":"\n室蘭本線\n"},{"aria":"北海道","line":"JR室蘭本線","name":"志文","name_k":"しぶん","previous_next":"\n栗沢\t岩見沢\t","latitude_longitude":"https://map.goo.ne.jp/s_gootransit/staticmap.php?MAP=E141.44.53.500N43.9.23.100&ZM=8&SZ=672,120","address":"岩見沢市志文本町一条","postcode":"0680841","trangit":"\n室蘭本線\n"},{"aria":"北海道","line":"JR室蘭本線","name":"岩見沢","name_k":"いわみざわ","previous_next":"\n志文\t\t","latitude_longitude":"https://map.goo.ne.jp/s_gootransit/staticmap.php?MAP=E141.45.48.100N43.12.6.600&ZM=8&SZ=672,120","address":"岩見沢市有明町南","postcode":"0680034","trangit":"\n函館本線\n室蘭本線\n"},{"aria":"北海道","line":"JR石北本線","name":"新旭川","name_k":"しんあさひかわ","previous_next":"\n\t南永山\t","latitude_longitude":"https://map.goo.ne.jp/s_gootransit/staticmap.php?MAP=E142.23.18.900N43.46.40.100&ZM=8&SZ=672,120","address":"旭川市東八条","postcode":"0700028","trangit":"\n宗谷本線\n石北本線\n"},{"aria":"北海道","line":"JR石北本線","name":"南永山","name_k":"みなみながやま","previous_next":"\n新旭川\t東旭川\t","latitude_longitude":"https://map.goo.ne.jp/s_gootransit/staticmap.php?MAP=E142.24.44.400N43.46.41.500&ZM=8&SZ=672,120","address":"旭川市永山十条","postcode":"0798420","trangit":"\n石北本線\n"},{"aria":"北海道","line":"JR石北本線","name":"東旭川","name_k":"ひがしあさひかわ","previous_next":"\n南永山\t桜岡\t","latitude_longitude":"https://map.goo.ne.jp/s_gootransit/staticmap.php?MAP=E142.26.42.900N43.46.27.100&ZM=8&SZ=672,120","address":"旭川市東旭川北三条","postcode":"0788253","trangit":"\n石北本線\n"},{"aria":"北海道","line":"JR石北本線","name":"桜岡","name_k":"さくらおか","previous_next":"\n東旭川\t当麻\t","latitude_longitude":"https://map.goo.ne.jp/s_gootransit/staticmap.php?MAP=E142.29.26.500N43.47.57.800&ZM=8&SZ=672,120","address":"旭川市東旭川町桜岡","postcode":"0788204","trangit":"\n石北本線\n"},{"aria":"北海道","line":"JR石北本線","name":"当麻","name_k":"とうま","previous_next":"\n桜岡\t伊香牛\t","latitude_longitude":"https://map.goo.ne.jp/s_gootransit/staticmap.php?MAP=E142.31.14.400N43.49.23.100&ZM=8&SZ=672,120","address":"上川郡当麻町四条東","postcode":"0781314","trangit":"\n石北本線\n"},{"aria":"北海道","line":"JR石北本線","name":"伊香牛","name_k":"いかうし","previous_next":"\n当麻\t愛別\t","latitude_longitude":"https://map.goo.ne.jp/s_gootransit/staticmap.php?MAP=E142.31.45.300N43.52.25.200&ZM=8&SZ=672,120","address":"上川郡当麻町伊香牛","postcode":"0781333","trangit":"\n石北本線\n"},{"aria":"北海道","line":"JR石北本線","name":"愛別","name_k":"あいべつ","previous_next":"\n伊香牛\t中愛別\t","latitude_longitude":"https://map.goo.ne.jp/s_gootransit/staticmap.php?MAP=E142.35.9.700N43.53.46.300&ZM=8&SZ=672,120","address":"上川郡愛別町愛別","postcode":"0781401","trangit":"\n石北本線\n"},{"aria":"北海道","line":"JR石北本線","name":"中愛別","name_k":"なかあいべつ","previous_next":"\n愛別\t愛山\t","latitude_longitude":"https://map.goo.ne.jp/s_gootransit/staticmap.php?MAP=E142.39.33.400N43.53.37.700&ZM=8&SZ=672,120","address":"上川郡愛別町中央","postcode":"0781652","trangit":"\n石北本線\n"},{"aria":"北海道","line":"JR石北本線","name":"愛山","name_k":"あいざん","previous_next":"\n中愛別\t安足間\t","latitude_longitude":"https://map.goo.ne.jp/s_gootransit/staticmap.php?MAP=E142.41.4.500N43.51.50.600&ZM=8&SZ=672,120","address":"上川郡愛別町愛別","postcode":"0781401","trangit":"\n石北本線\n"},{"aria":"北海道","line":"JR石北本線","name":"安足間","name_k":"あんたろま","previous_next":"\n愛山\t上川\t","latitude_longitude":"https://map.goo.ne.jp/s_gootransit/staticmap.php?MAP=E142.41.51.500N43.50.58.600&ZM=8&SZ=672,120","address":"上川郡愛別町愛山","postcode":"0781653","trangit":"\n石北本線\n"},{"aria":"北海道","line":"JR石北本線","name":"上川","name_k":"かみかわ","previous_next":"\n安足間\t白滝\t","latitude_longitude":"https://map.goo.ne.jp/s_gootransit/staticmap.php?MAP=E142.46.13.600N43.50.46.900&ZM=8&SZ=672,120","address":"上川郡上川町中央町","postcode":"0781741","trangit":"\n石北本線\n"},{"aria":"北海道","line":"JR石北本線","name":"白滝","name_k":"しらたき","previous_next":"\n上川\t丸瀬布\t","latitude_longitude":"https://map.goo.ne.jp/s_gootransit/staticmap.php?MAP=E143.11.8.200N43.52.57.300&ZM=8&SZ=672,120","address":"紋別郡遠軽町白滝","postcode":"0990111","trangit":"\n石北本線\n"},{"aria":"北海道","line":"JR石北本線","name":"丸瀬布","name_k":"まるせっぷ","previous_next":"\n白滝\t瀬戸瀬\t","latitude_longitude":"https://map.goo.ne.jp/s_gootransit/staticmap.php?MAP=E143.20.22.400N44.0.14.500&ZM=8&SZ=672,120","address":"紋別郡遠軽町丸瀬布水谷町","postcode":"0990206","trangit":"\n石北本線\n"},{"aria":"北海道","line":"JR石北本線","name":"瀬戸瀬","name_k":"せとせ","previous_next":"\n丸瀬布\t遠軽\t","latitude_longitude":"https://map.goo.ne.jp/s_gootransit/staticmap.php?MAP=E143.25.29.700N44.0.22.700&ZM=8&SZ=672,120","address":"紋別郡遠軽町瀬戸瀬西町","postcode":"0990342","trangit":"\n石北本線\n"},{"aria":"北海道","line":"JR石北本線","name":"遠軽","name_k":"えんがる","previous_next":"\n瀬戸瀬\t安国\t","latitude_longitude":"https://map.goo.ne.jp/s_gootransit/staticmap.php?MAP=E143.31.27.200N44.3.27.600&ZM=8&SZ=672,120","address":"紋別郡遠軽町岩見通南","postcode":"0990415","trangit":"\n石北本線\n"},{"aria":"北海道","line":"JR石北本線","name":"安国","name_k":"やすくに","previous_next":"\n遠軽\t生田原\t","latitude_longitude":"https://map.goo.ne.jp/s_gootransit/staticmap.php?MAP=E143.32.22.400N43.59.27.400&ZM=8&SZ=672,120","address":"紋別郡遠軽町生田原安国","postcode":"0990622","trangit":"\n石北本線\n"},{"aria":"北海道","line":"JR石北本線","name":"生田原","name_k":"いくたはら","previous_next":"\n安国\t西留辺蘂\t","latitude_longitude":"https://map.goo.ne.jp/s_gootransit/staticmap.php?MAP=E143.32.19.900N43.55.14.700&ZM=8&SZ=672,120","address":"紋別郡遠軽町生田原","postcode":"0990701","trangit":"\n石北本線\n"},{"aria":"北海道","line":"JR石北本線","name":"西留辺蘂","name_k":"にしるべしべ","previous_next":"\n生田原\t留辺蘂\t","latitude_longitude":"https://map.goo.ne.jp/s_gootransit/staticmap.php?MAP=E143.36.18.200N43.46.57.000&ZM=8&SZ=672,120","address":"北見市留辺蘂町旭１区","postcode":"0910029","trangit":"\n石北本線\n"},{"aria":"北海道","line":"JR石北本線","name":"留辺蘂","name_k":"るべしべ","previous_next":"\n西留辺蘂\t相内\t","latitude_longitude":"https://map.goo.ne.jp/s_gootransit/staticmap.php?MAP=E143.37.33.300N43.46.58.200&ZM=8&SZ=672,120","address":"北見市留辺蘂町東町","postcode":"0910002","trangit":"\n石北本線\n"},{"aria":"北海道","line":"JR石北本線","name":"相内","name_k":"あいのない","previous_next":"\n留辺蘂\t東相内\t","latitude_longitude":"https://map.goo.ne.jp/s_gootransit/staticmap.php?MAP=E143.45.37.100N43.47.36.200&ZM=8&SZ=672,120","address":"北見市相内町","postcode":"0990871","trangit":"\n石北本線\n"},{"aria":"北海道","line":"JR石北本線","name":"東相内","name_k":"ひがしあいのない","previous_next":"\n相内\t西北見\t","latitude_longitude":"https://map.goo.ne.jp/s_gootransit/staticmap.php?MAP=E143.48.48.200N43.48.10.800&ZM=8&SZ=672,120","address":"北見市東相内町","postcode":"0990878","trangit":"\n石北本線\n"},{"aria":"北海道","line":"JR石北本線","name":"西北見","name_k":"にしきたみ","previous_next":"\n東相内\t北見\t","latitude_longitude":"https://map.goo.ne.jp/s_gootransit/staticmap.php?MAP=E143.50.42.900N43.48.2.500&ZM=8&SZ=672,120","address":"北見市緑町","postcode":"0900055","trangit":"\n石北本線\n"},{"aria":"北海道","line":"JR石北本線","name":"北見","name_k":"きたみ","previous_next":"\n西北見\t柏陽\t","latitude_longitude":"https://map.goo.ne.jp/s_gootransit/staticmap.php?MAP=E143.54.7.700N43.48.10.900&ZM=8&SZ=672,120","address":"北見市大通西","postcode":"0900040","trangit":"\n石北本線\n"},{"aria":"北海道","line":"JR石北本線","name":"柏陽","name_k":"はくよう","previous_next":"\n北見\t愛し野\t","latitude_longitude":"https://map.goo.ne.jp/s_gootransit/staticmap.php?MAP=E143.55.15.500N43.49.20.900&ZM=8&SZ=672,120","address":"北見市並木町","postcode":"0900012","trangit":"\n石北本線\n"},{"aria":"北海道","line":"JR石北本線","name":"愛し野","name_k":"いとしの","previous_next":"\n柏陽\t端野\t","latitude_longitude":"https://map.goo.ne.jp/s_gootransit/staticmap.php?MAP=E143.56.11.700N43.50.20.200&ZM=8&SZ=672,120","address":"北見市端野町三区","postcode":"0992103","trangit":"\n石北本線\n"},{"aria":"北海道","line":"JR石北本線","name":"端野","name_k":"たんの","previous_next":"\n愛し野\t緋牛内\t","latitude_longitude":"https://map.goo.ne.jp/s_gootransit/staticmap.php?MAP=E143.56.45.600N43.50.56.400&ZM=8&SZ=672,120","address":"北見市端野町端野","postcode":"0992104","trangit":"\n石北本線\n"},{"aria":"北海道","line":"JR石北本線","name":"緋牛内","name_k":"ひうしない","previous_next":"\n端野\t美幌\t","latitude_longitude":"https://map.goo.ne.jp/s_gootransit/staticmap.php?MAP=E144.0.11.200N43.52.40.800&ZM=8&SZ=672,120","address":"北見市端野町緋牛内","postcode":"0992231","trangit":"\n石北本線\n"},{"aria":"北海道","line":"JR石北本線","name":"美幌","name_k":"びほろ","previous_next":"\n緋牛内\t西女満別\t","latitude_longitude":"https://map.goo.ne.jp/s_gootransit/staticmap.php?MAP=E144.6.35.600N43.50.2.500&ZM=8&SZ=672,120","address":"網走郡美幌町新町","postcode":"0920015","trangit":"\n石北本線\n"},{"aria":"北海道","line":"JR石北本線","name":"西女満別","name_k":"にしめまんべつ","previous_next":"\n美幌\t女満別\t","latitude_longitude":"https://map.goo.ne.jp/s_gootransit/staticmap.php?MAP=E144.9.7.900N43.52.39.300&ZM=8&SZ=672,120","address":"網走郡大空町女満別本郷","postcode":"0992301","trangit":"\n石北本線\n"},{"aria":"北海道","line":"JR石北本線","name":"女満別","name_k":"めまんべつ","previous_next":"\n西女満別\t呼人\t","latitude_longitude":"https://map.goo.ne.jp/s_gootransit/staticmap.php?MAP=E144.10.29.300N43.54.48.800&ZM=8&SZ=672,120","address":"網走郡大空町女満別本通","postcode":"0992310","trangit":"\n石北本線\n"},{"aria":"北海道","line":"JR石北本線","name":"呼人","name_k":"よびと","previous_next":"\n女満別\t網走\t","latitude_longitude":"https://map.goo.ne.jp/s_gootransit/staticmap.php?MAP=E144.13.23.700N43.57.41.100&ZM=8&SZ=672,120","address":"網走市呼人","postcode":"0992421","trangit":"\n石北本線\n"},{"aria":"北海道","line":"JR石北本線","name":"網走","name_k":"あばしり","previous_next":"\n呼人\t\t","latitude_longitude":"https://map.goo.ne.jp/s_gootransit/staticmap.php?MAP=E144.15.30.400N44.1.3.300&ZM=8&SZ=672,120","address":"網走市新町","postcode":"0930046","trangit":"\n石北本線\n釧網本線\n"},{"aria":"北海道","line":"JR宗谷本線","name":"旭川","name_k":"あさひかわ","previous_next":"\n\t旭川四条\t","latitude_longitude":"https://map.goo.ne.jp/s_gootransit/staticmap.php?MAP=E142.21.42.700N43.45.39.500&ZM=8&SZ=672,120","address":"旭川市宮下通","postcode":"0700030","trangit":"\n函館本線\n宗谷本線\n富良野線\n石北本線\n"},{"aria":"北海道","line":"JR宗谷本線","name":"旭川四条","name_k":"あさひかわよじょう","previous_next":"\n旭川\t新旭川\t","latitude_longitude":"https://map.goo.ne.jp/s_gootransit/staticmap.php?MAP=E142.22.46.600N43.45.41.700&ZM=8&SZ=672,120","address":"旭川市四条通","postcode":"0788214","trangit":"\n宗谷本線\n石北本線\n"},{"aria":"北海道","line":"JR宗谷本線","name":"新旭川","name_k":"しんあさひかわ","previous_next":"\n旭川四条\t永山\t","latitude_longitude":"https://map.goo.ne.jp/s_gootransit/staticmap.php?MAP=E142.23.18.900N43.46.40.100&ZM=8&SZ=672,120","address":"旭川市東八条","postcode":"0700028","trangit":"\n宗谷本線\n石北本線\n"},{"aria":"北海道","line":"JR宗谷本線","name":"永山","name_k":"ながやま","previous_next":"\n新旭川\t北永山\t","latitude_longitude":"https://map.goo.ne.jp/s_gootransit/staticmap.php?MAP=E142.26.17.300N43.48.42.300&ZM=8&SZ=672,120","address":"旭川市永山一条","postcode":"0798411","trangit":"\n宗谷本線\n"},{"aria":"北海道","line":"JR宗谷本線","name":"北永山","name_k":"きたながやま","previous_next":"\n永山\t比布\t","latitude_longitude":"https://map.goo.ne.jp/s_gootransit/staticmap.php?MAP=E142.27.29.800N43.49.27.800&ZM=8&SZ=672,120","address":"旭川市永山町","postcode":"0798431","trangit":"\n宗谷本線\n"},{"aria":"北海道","line":"JR宗谷本線","name":"比布","name_k":"ぴっぷ","previous_next":"\n北永山\t蘭留\t","latitude_longitude":"https://map.goo.ne.jp/s_gootransit/staticmap.php?MAP=E142.28.30.400N43.52.19.800&ZM=8&SZ=672,120","address":"上川郡比布町北２線","postcode":"0780322","trangit":"\n宗谷本線\n"},{"aria":"北海道","line":"JR宗谷本線","name":"蘭留","name_k":"らんる","previous_next":"\n比布\t塩狩\t","latitude_longitude":"https://map.goo.ne.jp/s_gootransit/staticmap.php?MAP=E142.28.38.200N43.55.22.700&ZM=8&SZ=672,120","address":"上川郡比布町北９線","postcode":"0780329","trangit":"\n宗谷本線\n"},{"aria":"北海道","line":"JR宗谷本線","name":"塩狩","name_k":"しおかり","previous_next":"\n蘭留\t和寒\t","latitude_longitude":"https://map.goo.ne.jp/s_gootransit/staticmap.php?MAP=E142.27.31.900N43.57.56.300&ZM=8&SZ=672,120","address":"上川郡和寒町塩狩","postcode":"0980125","trangit":"\n宗谷本線\n"},{"aria":"北海道","line":"JR宗谷本線","name":"和寒","name_k":"わっさむ","previous_next":"\n塩狩\t剣淵\t","latitude_longitude":"https://map.goo.ne.jp/s_gootransit/staticmap.php?MAP=E142.25.9.200N44.1.29.400&ZM=8&SZ=672,120","address":"上川郡和寒町北町","postcode":"0980133","trangit":"\n宗谷本線\n"},{"aria":"北海道","line":"JR宗谷本線","name":"剣淵","name_k":"けんぶち","previous_next":"\n和寒\t士別\t","latitude_longitude":"https://map.goo.ne.jp/s_gootransit/staticmap.php?MAP=E142.22.7.100N44.5.38.700&ZM=8&SZ=672,120","address":"上川郡剣淵町仲町","postcode":"0980338","trangit":"\n宗谷本線\n"},{"aria":"北海道","line":"JR宗谷本線","name":"士別","name_k":"しべつ","previous_next":"\n剣淵\t多寄\t","latitude_longitude":"https://map.goo.ne.jp/s_gootransit/staticmap.php?MAP=E142.23.29.900N44.10.11.400&ZM=8&SZ=672,120","address":"士別市西三条","postcode":"0950023","trangit":"\n宗谷本線\n"},{"aria":"北海道","line":"JR宗谷本線","name":"多寄","name_k":"たよろ","previous_next":"\n士別\t瑞穂\t","latitude_longitude":"https://map.goo.ne.jp/s_gootransit/staticmap.php?MAP=E142.24.0.600N44.14.19.100&ZM=8&SZ=672,120","address":"士別市多寄町","postcode":"0980475","trangit":"\n宗谷本線\n"},{"aria":"北海道","line":"JR宗谷本線","name":"瑞穂","name_k":"みずほ","previous_next":"\n多寄\t風連\t","latitude_longitude":"https://map.goo.ne.jp/s_gootransit/staticmap.php?MAP=E142.24.0.500N44.15.50.700&ZM=8&SZ=672,120","address":"士別市多寄町","postcode":"0980475","trangit":"\n宗谷本線\n"},{"aria":"北海道","line":"JR宗谷本線","name":"風連","name_k":"ふうれん","previous_next":"\n瑞穂\t名寄高校\t","latitude_longitude":"https://map.goo.ne.jp/s_gootransit/staticmap.php?MAP=E142.25.31.500N44.17.23.800&ZM=8&SZ=672,120","address":"名寄市風連町本町","postcode":"0980504","trangit":"\n宗谷本線\n"},{"aria":"北海道","line":"JR宗谷本線","name":"名寄高校","name_k":"なよろこうこう","previous_next":"\n風連\t名寄\t","latitude_longitude":"https://map.goo.ne.jp/s_gootransit/staticmap.php?MAP=E142.28.0.900N44.18.52.100&ZM=8&SZ=672,120","address":"名寄市風連町東風連","postcode":"0980512","trangit":"\n宗谷本線\n"},{"aria":"北海道","line":"JR宗谷本線","name":"名寄","name_k":"なよろ","previous_next":"\n名寄高校\t日進（北海道）\t","latitude_longitude":"https://map.goo.ne.jp/s_gootransit/staticmap.php?MAP=E142.28.9.300N44.20.51.500&ZM=8&SZ=672,120","address":"名寄市東一条南","postcode":"0960001","trangit":"\n宗谷本線\n"},{"aria":"北海道","line":"JR宗谷本線","name":"日進（北海道）","name_k":"にっしん","previous_next":"\n名寄\t智恵文\t","latitude_longitude":"https://map.goo.ne.jp/s_gootransit/staticmap.php?MAP=E142.28.15.600N44.22.46.400&ZM=8&SZ=672,120","address":"名寄市日進","postcode":"0960066","trangit":"\n宗谷本線\n"},{"aria":"北海道","line":"JR宗谷本線","name":"智恵文","name_k":"ちえぶん","previous_next":"\n日進（北海道）\t智北\t","latitude_longitude":"https://map.goo.ne.jp/s_gootransit/staticmap.php?MAP=E142.25.7.300N44.27.11.300&ZM=8&SZ=672,120","address":"名寄市智恵文","postcode":"0982181","trangit":"\n宗谷本線\n"},{"aria":"北海道","line":"JR宗谷本線","name":"智北","name_k":"ちほく","previous_next":"\n智恵文\t美深\t","latitude_longitude":"https://map.goo.ne.jp/s_gootransit/staticmap.php?MAP=E142.23.52.500N44.27.31.500&ZM=8&SZ=672,120","address":"名寄市智恵文","postcode":"0982181","trangit":"\n宗谷本線\n"},{"aria":"北海道","line":"JR宗谷本線","name":"美深","name_k":"びふか","previous_next":"\n智北\t初野\t","latitude_longitude":"https://map.goo.ne.jp/s_gootransit/staticmap.php?MAP=E142.21.16.300N44.28.50.700&ZM=8&SZ=672,120","address":"中川郡美深町開運町","postcode":"0982238","trangit":"\n宗谷本線\n"},{"aria":"北海道","line":"JR宗谷本線","name":"美深","name_k":"びふか","previous_next":"\n智北\t初野\t","latitude_longitude":"https://map.goo.ne.jp/s_gootransit/staticmap.php?MAP=E142.21.16.300N44.28.50.700&ZM=8&SZ=672,120","address":"中川郡美深町開運町","postcode":"0982238","trangit":"\n宗谷本線\n"},{"aria":"北海道","line":"JR宗谷本線","name":"恩根内","name_k":"おんねない","previous_next":"\n初野\t天塩川温泉\t","latitude_longitude":"https://map.goo.ne.jp/s_gootransit/staticmap.php?MAP=E142.18.47.400N44.35.46.300&ZM=8&SZ=672,120","address":"中川郡美深町恩根内","postcode":"0982361","trangit":"\n宗谷本線\n"},{"aria":"北海道","line":"JR宗谷本線","name":"天塩川温泉","name_k":"てしおがわおんせん","previous_next":"\n恩根内\t咲来\t","latitude_longitude":"https://map.goo.ne.jp/s_gootransit/staticmap.php?MAP=E142.15.44.800N44.39.46.400&ZM=8&SZ=672,120","address":"中川郡音威子府村咲来","postcode":"0982502","trangit":"\n宗谷本線\n"},{"aria":"北海道","line":"JR宗谷本線","name":"咲来","name_k":"さっくる","previous_next":"\n天塩川温泉\t音威子府\t","latitude_longitude":"https://map.goo.ne.jp/s_gootransit/staticmap.php?MAP=E142.16.16.500N44.41.26.200&ZM=8&SZ=672,120","address":"中川郡音威子府村咲来","postcode":"0982502","trangit":"\n宗谷本線\n"},{"aria":"北海道","line":"JR宗谷本線","name":"音威子府","name_k":"おといねっぷ","previous_next":"\n咲来\t筬島\t","latitude_longitude":"https://map.goo.ne.jp/s_gootransit/staticmap.php?MAP=E142.15.50.200N44.43.37.300&ZM=8&SZ=672,120","address":"中川郡音威子府村音威子府","postcode":"0982501","trangit":"\n宗谷本線\n"},{"aria":"北海道","line":"JR宗谷本線","name":"筬島","name_k":"おさしま","previous_next":"\n音威子府\t佐久\t","latitude_longitude":"https://map.goo.ne.jp/s_gootransit/staticmap.php?MAP=E142.12.5.300N44.44.11.400&ZM=8&SZ=672,120","address":"中川郡音威子府村物満内筬島","postcode":"0982500","trangit":"\n宗谷本線\n"},{"aria":"北海道","line":"JR宗谷本線","name":"佐久","name_k":"さく","previous_next":"\n筬島\t天塩中川\t","latitude_longitude":"https://map.goo.ne.jp/s_gootransit/staticmap.php?MAP=E142.3.9.000N44.44.30.600&ZM=8&SZ=672,120","address":"中川郡中川町佐久","postcode":"0982622","trangit":"\n宗谷本線\n"},{"aria":"北海道","line":"JR宗谷本線","name":"天塩中川","name_k":"てしおなかがわ","previous_next":"\n佐久\t問寒別\t","latitude_longitude":"https://map.goo.ne.jp/s_gootransit/staticmap.php?MAP=E142.4.44.900N44.48.34.300&ZM=8&SZ=672,120","address":"中川郡中川町中川","postcode":"0982802","trangit":"\n宗谷本線\n"},{"aria":"北海道","line":"JR宗谷本線","name":"問寒別","name_k":"といかんべつ","previous_next":"\n天塩中川\t糠南\t","latitude_longitude":"https://map.goo.ne.jp/s_gootransit/staticmap.php?MAP=E142.1.45.500N44.54.35.600&ZM=8&SZ=672,120","address":"天塩郡幌延町問寒別","postcode":"0982943","trangit":"\n宗谷本線\n"},{"aria":"北海道","line":"JR宗谷本線","name":"糠南","name_k":"ぬかなん","previous_next":"\n問寒別\t雄信内\t","latitude_longitude":"https://map.goo.ne.jp/s_gootransit/staticmap.php?MAP=E142.0.19.900N44.55.6.400&ZM=8&SZ=672,120","address":"天塩郡幌延町問寒別","postcode":"0982943","trangit":"\n宗谷本線\n"},{"aria":"北海道","line":"JR宗谷本線","name":"雄信内","name_k":"おのっぷない","previous_next":"\n糠南\t南幌延\t","latitude_longitude":"https://map.goo.ne.jp/s_gootransit/staticmap.php?MAP=E141.56.23.400N44.54.33.500&ZM=8&SZ=672,120","address":"天塩郡幌延町雄興","postcode":"0983151","trangit":"\n宗谷本線\n"},{"aria":"北海道","line":"JR宗谷本線","name":"南幌延","name_k":"みなみほろのべ","previous_next":"\n雄信内\t幌延\t","latitude_longitude":"https://map.goo.ne.jp/s_gootransit/staticmap.php?MAP=E141.53.21.600N44.57.44.700&ZM=8&SZ=672,120","address":"天塩郡幌延町開進","postcode":"0983226","trangit":"\n宗谷本線\n"},{"aria":"北海道","line":"JR宗谷本線","name":"幌延","name_k":"ほろのべ","previous_next":"\n南幌延\t下沼\t","latitude_longitude":"https://map.goo.ne.jp/s_gootransit/staticmap.php?MAP=E141.50.59.700N45.0.43.200&ZM=8&SZ=672,120","address":"天塩郡幌延町一条南","postcode":"0983211","trangit":"\n宗谷本線\n"},{"aria":"北海道","line":"JR宗谷本線","name":"下沼","name_k":"しもぬま","previous_next":"\n幌延\t豊富\t","latitude_longitude":"https://map.goo.ne.jp/s_gootransit/staticmap.php?MAP=E141.45.43.200N45.2.5.700&ZM=8&SZ=672,120","address":"天塩郡幌延町下沼","postcode":"0983228","trangit":"\n宗谷本線\n"},{"aria":"北海道","line":"JR宗谷本線","name":"豊富","name_k":"とよとみ","previous_next":"\n下沼\t兜沼\t","latitude_longitude":"https://map.goo.ne.jp/s_gootransit/staticmap.php?MAP=E141.46.34.500N45.6.8.200&ZM=8&SZ=672,120","address":"天塩郡豊富町駅前通","postcode":"0984138","trangit":"\n宗谷本線\n"},{"aria":"北海道","line":"JR宗谷本線","name":"兜沼","name_k":"かぶとぬま","previous_next":"\n豊富\t勇知\t","latitude_longitude":"https://map.goo.ne.jp/s_gootransit/staticmap.php?MAP=E141.42.3.700N45.13.4.800&ZM=8&SZ=672,120","address":"天塩郡豊富町兜沼","postcode":"0984451","trangit":"\n宗谷本線\n"},{"aria":"北海道","line":"JR宗谷本線","name":"勇知","name_k":"ゆうち","previous_next":"\n兜沼\t抜海\t","latitude_longitude":"https://map.goo.ne.jp/s_gootransit/staticmap.php?MAP=E141.41.19.500N45.15.24.500&ZM=8&SZ=672,120","address":"稚内市抜海村","postcode":"0984581","trangit":"\n宗谷本線\n"},{"aria":"北海道","line":"JR宗谷本線","name":"抜海","name_k":"ばっかい","previous_next":"\n勇知\t南稚内\t","latitude_longitude":"https://map.goo.ne.jp/s_gootransit/staticmap.php?MAP=E141.38.54.500N45.18.52.500&ZM=8&SZ=672,120","address":"稚内市抜海村","postcode":"0970036","trangit":"\n宗谷本線\n"},{"aria":"北海道","line":"JR宗谷本線","name":"南稚内","name_k":"みなみわっかない","previous_next":"\n抜海\t稚内\t","latitude_longitude":"https://map.goo.ne.jp/s_gootransit/staticmap.php?MAP=E141.41.11.200N45.23.45.200&ZM=8&SZ=672,120","address":"稚内市大黒","postcode":"0970005","trangit":"\n宗谷本線\n"},{"aria":"北海道","line":"JR宗谷本線","name":"稚内","name_k":"わっかない","previous_next":"\n南稚内\t\t","latitude_longitude":"https://map.goo.ne.jp/s_gootransit/staticmap.php?MAP=E141.40.52.800N45.24.52.500&ZM=8&SZ=672,120","address":"稚内市中央","postcode":"0970022","trangit":"\n宗谷本線\n"},{"aria":"北海道","line":"JR日高本線","name":"苫小牧","name_k":"とまこまい","previous_next":"\n\t勇払\t","latitude_longitude":"https://map.goo.ne.jp/s_gootransit/staticmap.php?MAP=E141.35.57.700N42.38.12.800&ZM=8&SZ=672,120","address":"苫小牧市表町","postcode":"0530022","trangit":"\n千歳線\n室蘭本線\n日高本線\n"},{"aria":"北海道","line":"JR日高本線","name":"勇払","name_k":"ゆうふつ","previous_next":"\n苫小牧\t浜厚真\t","latitude_longitude":"https://map.goo.ne.jp/s_gootransit/staticmap.php?MAP=E141.43.52.900N42.37.48.900&ZM=8&SZ=672,120","address":"苫小牧市勇払","postcode":"0591372","trangit":"\n日高本線\n"},{"aria":"北海道","line":"JR日高本線","name":"浜厚真","name_k":"はまあつま","previous_next":"\n勇払\t浜田浦\t","latitude_longitude":"https://map.goo.ne.jp/s_gootransit/staticmap.php?MAP=E141.50.26.700N42.36.15.900&ZM=8&SZ=672,120","address":"勇払郡厚真町浜厚真","postcode":"0591742","trangit":"\n日高本線\n"},{"aria":"北海道","line":"JR日高本線","name":"浜田浦","name_k":"はまたうら","previous_next":"\n浜厚真\t鵡川\t","latitude_longitude":"https://map.goo.ne.jp/s_gootransit/staticmap.php?MAP=E141.53.14.500N42.35.18.200&ZM=8&SZ=672,120","address":"勇払郡むかわ町田浦","postcode":"0540004","trangit":"\n日高本線\n"},{"aria":"北海道","line":"JR日高本線","name":"鵡川","name_k":"むかわ","previous_next":"\n浜田浦\t\t","latitude_longitude":"https://map.goo.ne.jp/s_gootransit/staticmap.php?MAP=E141.55.39.400N42.34.35.100&ZM=8&SZ=672,120","address":"勇払郡むかわ町末広","postcode":"0540023","trangit":"\n日高本線\n"},{"aria":"北海道","line":"JR根室本線","name":"滝川","name_k":"たきかわ","previous_next":"\n\t東滝川\t","latitude_longitude":"https://map.goo.ne.jp/s_gootransit/staticmap.php?MAP=E141.54.16.200N43.33.10.300&ZM=8&SZ=672,120","address":"滝川市栄町","postcode":"0730031","trangit":"\n函館本線\n根室本線\n"},{"aria":"北海道","line":"JR根室本線","name":"東滝川","name_k":"ひがしたきかわ","previous_next":"\n滝川\t赤平\t","latitude_longitude":"https://map.goo.ne.jp/s_gootransit/staticmap.php?MAP=E141.59.2.600N43.34.17.400&ZM=8&SZ=672,120","address":"滝川市東滝川町","postcode":"0730027","trangit":"\n根室本線\n"},{"aria":"北海道","line":"JR根室本線","name":"赤平","name_k":"あかびら","previous_next":"\n東滝川\t茂尻\t","latitude_longitude":"https://map.goo.ne.jp/s_gootransit/staticmap.php?MAP=E142.3.8.500N43.33.8.700&ZM=8&SZ=672,120","address":"赤平市泉町","postcode":"0791134","trangit":"\n根室本線\n"},{"aria":"北海道","line":"JR根室本線","name":"茂尻","name_k":"もしり","previous_next":"\n赤平\t平岸（ＪＲ）\t","latitude_longitude":"https://map.goo.ne.jp/s_gootransit/staticmap.php?MAP=E142.5.8.900N43.32.4.800&ZM=8&SZ=672,120","address":"赤平市茂尻元町南","postcode":"0791267","trangit":"\n根室本線\n"},{"aria":"北海道","line":"JR根室本線","name":"平岸（ＪＲ）","name_k":"ひらぎし","previous_next":"\n茂尻\t芦別\t","latitude_longitude":"https://map.goo.ne.jp/s_gootransit/staticmap.php?MAP=E142.7.44.800N43.32.20.100&ZM=8&SZ=672,120","address":"赤平市平岸仲町","postcode":"0791282","trangit":"\n根室本線\n"},{"aria":"北海道","line":"JR根室本線","name":"芦別","name_k":"あしべつ","previous_next":"\n平岸（ＪＲ）\t上芦別\t","latitude_longitude":"https://map.goo.ne.jp/s_gootransit/staticmap.php?MAP=E142.11.17.200N43.30.50.800&ZM=8&SZ=672,120","address":"芦別市本町","postcode":"0750041","trangit":"\n根室本線\n"},{"aria":"北海道","line":"JR根室本線","name":"上芦別","name_k":"かみあしべつ","previous_next":"\n芦別\t野花南\t","latitude_longitude":"https://map.goo.ne.jp/s_gootransit/staticmap.php?MAP=E142.12.54.400N43.29.9.800&ZM=8&SZ=672,120","address":"芦別市上芦別町","postcode":"0791371","trangit":"\n根室本線\n"},{"aria":"北海道","line":"JR根室本線","name":"野花南","name_k":"のかなん","previous_next":"\n上芦別\t富良野\t","latitude_longitude":"https://map.goo.ne.jp/s_gootransit/staticmap.php?MAP=E142.15.55.800N43.28.19.300&ZM=8&SZ=672,120","address":"芦別市野花南町","postcode":"0791372","trangit":"\n根室本線\n"},{"aria":"北海道","line":"JR根室本線","name":"富良野","name_k":"ふらの","previous_next":"\n野花南\t布部\t","latitude_longitude":"https://map.goo.ne.jp/s_gootransit/staticmap.php?MAP=E142.23.42.400N43.20.40.800&ZM=8&SZ=672,120","address":"富良野市日の出町","postcode":"0760025","trangit":"\n富良野線\n根室本線\n"},{"aria":"北海道","line":"JR根室本線","name":"布部","name_k":"ぬのべ","previous_next":"\n富良野\t山部\t","latitude_longitude":"https://map.goo.ne.jp/s_gootransit/staticmap.php?MAP=E142.24.15.300N43.17.22.400&ZM=8&SZ=672,120","address":"富良野市布部市街地","postcode":"0760004","trangit":"\n根室本線\n"},{"aria":"北海道","line":"JR根室本線","name":"山部","name_k":"やまべ","previous_next":"\n布部\t下金山\t","latitude_longitude":"https://map.goo.ne.jp/s_gootransit/staticmap.php?MAP=E142.23.7.100N43.14.32.700&ZM=8&SZ=672,120","address":"富良野市山部市街地","postcode":"0791561","trangit":"\n根室本線\n"},{"aria":"北海道","line":"JR根室本線","name":"下金山","name_k":"しもかなやま","previous_next":"\n山部\t金山（北海道）\t","latitude_longitude":"https://map.goo.ne.jp/s_gootransit/staticmap.php?MAP=E142.25.8.800N43.11.40.800&ZM=8&SZ=672,120","address":"空知郡南富良野町下金山","postcode":"0792132","trangit":"\n根室本線\n"},{"aria":"北海道","line":"JR根室本線","name":"金山（北海道）","name_k":"かなやま","previous_next":"\n下金山\t東鹿越\t","latitude_longitude":"https://map.goo.ne.jp/s_gootransit/staticmap.php?MAP=E142.25.11.800N43.8.0.700&ZM=8&SZ=672,120","address":"空知郡南富良野町金山","postcode":"0792131","trangit":"\n根室本線\n"},{"aria":"北海道","line":"JR根室本線","name":"東鹿越","name_k":"ひがししかごえ","previous_next":"\n金山（北海道）\t幾寅\t","latitude_longitude":"https://map.goo.ne.jp/s_gootransit/staticmap.php?MAP=E142.31.38.400N43.9.40.800&ZM=8&SZ=672,120","address":"空知郡南富良野町東鹿越","postcode":"0792411","trangit":"\n根室本線\n"},{"aria":"北海道","line":"JR根室本線","name":"幾寅","name_k":"いくとら","previous_next":"\n東鹿越\t落合（北海道）\t","latitude_longitude":"https://map.goo.ne.jp/s_gootransit/staticmap.php?MAP=E142.34.23.500N43.9.32.800&ZM=8&SZ=672,120","address":"空知郡南富良野町幾寅","postcode":"0792401","trangit":"\n根室本線\n"},{"aria":"北海道","line":"JR根室本線","name":"落合（北海道）","name_k":"おちあい","previous_next":"\n幾寅\t新得\t","latitude_longitude":"https://map.goo.ne.jp/s_gootransit/staticmap.php?MAP=E142.40.23.300N43.7.20.700&ZM=8&SZ=672,120","address":"空知郡南富良野町落合","postcode":"0792551","trangit":"\n根室本線\n"},{"aria":"北海道","line":"JR根室本線","name":"新得","name_k":"しんとく","previous_next":"\n落合（北海道）\t十勝清水\t","latitude_longitude":"https://map.goo.ne.jp/s_gootransit/staticmap.php?MAP=E142.50.10.400N43.4.47.400&ZM=8&SZ=672,120","address":"上川郡新得町本通北","postcode":"0810005","trangit":"\n根室本線\n石勝線\n"},{"aria":"北海道","line":"JR根室本線","name":"十勝清水","name_k":"とかちしみず","previous_next":"\n新得\t御影（北海道）\t","latitude_longitude":"https://map.goo.ne.jp/s_gootransit/staticmap.php?MAP=E142.53.0.500N43.0.37.100&ZM=8&SZ=672,120","address":"上川郡清水町本通","postcode":"0890136","trangit":"\n根室本線\n"},{"aria":"北海道","line":"JR根室本線","name":"御影（北海道）","name_k":"みかげ","previous_next":"\n十勝清水\t芽室\t","latitude_longitude":"https://map.goo.ne.jp/s_gootransit/staticmap.php?MAP=E142.56.23.900N42.56.24.000&ZM=8&SZ=672,120","address":"上川郡清水町御影本通","postcode":"0890354","trangit":"\n根室本線\n"},{"aria":"北海道","line":"JR根室本線","name":"芽室","name_k":"めむろ","previous_next":"\n御影（北海道）\t大成（北海道）\t","latitude_longitude":"https://map.goo.ne.jp/s_gootransit/staticmap.php?MAP=E143.3.7.100N42.54.26.300&ZM=8&SZ=672,120","address":"河西郡芽室町本通","postcode":"0820030","trangit":"\n根室本線\n"},{"aria":"北海道","line":"JR根室本線","name":"大成（北海道）","name_k":"たいせい","previous_next":"\n芽室\t西帯広\t","latitude_longitude":"https://map.goo.ne.jp/s_gootransit/staticmap.php?MAP=E143.4.24.800N42.54.48.800&ZM=8&SZ=672,120","address":"河西郡芽室町東芽室南","postcode":"0820006","trangit":"\n根室本線\n"},{"aria":"北海道","line":"JR根室本線","name":"西帯広","name_k":"にしおびひろ","previous_next":"\n大成（北海道）\t柏林台\t","latitude_longitude":"https://map.goo.ne.jp/s_gootransit/staticmap.php?MAP=E143.7.48.400N42.55.17.100&ZM=8&SZ=672,120","address":"帯広市西二十三条南","postcode":"0802473","trangit":"\n根室本線\n"},{"aria":"北海道","line":"JR根室本線","name":"柏林台","name_k":"はくりんだい","previous_next":"\n西帯広\t帯広\t","latitude_longitude":"https://map.goo.ne.jp/s_gootransit/staticmap.php?MAP=E143.10.8.200N42.55.35.100&ZM=8&SZ=672,120","address":"帯広市西十七条南","postcode":"0800027","trangit":"\n根室本線\n"},{"aria":"北海道","line":"JR根室本線","name":"帯広","name_k":"おびひろ","previous_next":"\n柏林台\t札内\t","latitude_longitude":"https://map.goo.ne.jp/s_gootransit/staticmap.php?MAP=E143.12.23.800N42.54.55.500&ZM=8&SZ=672,120","address":"帯広市西二条南","postcode":"0800012","trangit":"\n根室本線\n"},{"aria":"北海道","line":"JR根室本線","name":"札内","name_k":"さつない","previous_next":"\n帯広\t幕別\t","latitude_longitude":"https://map.goo.ne.jp/s_gootransit/staticmap.php?MAP=E143.15.36.300N42.54.36.500&ZM=8&SZ=672,120","address":"中川郡幕別町札内中央町","postcode":"0890543","trangit":"\n根室本線\n"},{"aria":"北海道","line":"JR根室本線","name":"幕別","name_k":"まくべつ","previous_next":"\n札内\t利別\t","latitude_longitude":"https://map.goo.ne.jp/s_gootransit/staticmap.php?MAP=E143.21.48.400N42.54.19.700&ZM=8&SZ=672,120","address":"中川郡幕別町錦町","postcode":"0890604","trangit":"\n根室本線\n"},{"aria":"北海道","line":"JR根室本線","name":"利別","name_k":"としべつ","previous_next":"\n幕別\t池田（北海道）\t","latitude_longitude":"https://map.goo.ne.jp/s_gootransit/staticmap.php?MAP=E143.25.41.700N42.55.56.700&ZM=8&SZ=672,120","address":"中川郡池田町利別西町","postcode":"0830031","trangit":"\n根室本線\n"},{"aria":"北海道","line":"JR根室本線","name":"池田（北海道）","name_k":"いけだ","previous_next":"\n利別\t十弗\t","latitude_longitude":"https://map.goo.ne.jp/s_gootransit/staticmap.php?MAP=E143.27.24.800N42.55.10.700&ZM=8&SZ=672,120","address":"中川郡池田町東一条","postcode":"0830091","trangit":"\n根室本線\n"},{"aria":"北海道","line":"JR根室本線","name":"十弗","name_k":"とおふつ","previous_next":"\n池田（北海道）\t豊頃\t","latitude_longitude":"https://map.goo.ne.jp/s_gootransit/staticmap.php?MAP=E143.30.17.500N42.51.10.800&ZM=8&SZ=672,120","address":"中川郡豊頃町十弗宝町","postcode":"0895243","trangit":"\n根室本線\n"},{"aria":"北海道","line":"JR根室本線","name":"豊頃","name_k":"とよころ","previous_next":"\n十弗\t新吉野\t","latitude_longitude":"https://map.goo.ne.jp/s_gootransit/staticmap.php?MAP=E143.32.33.700N42.48.53.600&ZM=8&SZ=672,120","address":"中川郡豊頃町豊頃旭町","postcode":"0895232","trangit":"\n根室本線\n"},{"aria":"北海道","line":"JR根室本線","name":"新吉野","name_k":"しんよしの","previous_next":"\n豊頃\t浦幌\t","latitude_longitude":"https://map.goo.ne.jp/s_gootransit/staticmap.php?MAP=E143.36.44.900N42.46.32.100&ZM=8&SZ=672,120","address":"十勝郡浦幌町吉野","postcode":"0895541","trangit":"\n根室本線\n"},{"aria":"北海道","line":"JR根室本線","name":"浦幌","name_k":"うらほろ","previous_next":"\n新吉野\t厚内\t","latitude_longitude":"https://map.goo.ne.jp/s_gootransit/staticmap.php?MAP=E143.39.19.400N42.48.28.500&ZM=8&SZ=672,120","address":"十勝郡浦幌町本町","postcode":"0895603","trangit":"\n根室本線\n"},{"aria":"北海道","line":"JR根室本線","name":"厚内","name_k":"あつない","previous_next":"\n浦幌\t音別\t","latitude_longitude":"https://map.goo.ne.jp/s_gootransit/staticmap.php?MAP=E143.49.6.900N42.48.25.400&ZM=8&SZ=672,120","address":"十勝郡浦幌町厚内","postcode":"0895865","trangit":"\n根室本線\n"},{"aria":"北海道","line":"JR根室本線","name":"音別","name_k":"おんべつ","previous_next":"\n厚内\t白糠\t","latitude_longitude":"https://map.goo.ne.jp/s_gootransit/staticmap.php?MAP=E143.56.9.200N42.53.11.500&ZM=8&SZ=672,120","address":"釧路市音別町本町","postcode":"0880115","trangit":"\n根室本線\n"},{"aria":"北海道","line":"JR根室本線","name":"白糠","name_k":"しらぬか","previous_next":"\n音別\t西庶路\t","latitude_longitude":"https://map.goo.ne.jp/s_gootransit/staticmap.php?MAP=E144.4.50.700N42.57.12.900&ZM=8&SZ=672,120","address":"白糠郡白糠町東一条南","postcode":"0880301","trangit":"\n根室本線\n"},{"aria":"北海道","line":"JR根室本線","name":"西庶路","name_k":"にししょろ","previous_next":"\n白糠\t庶路\t","latitude_longitude":"https://map.goo.ne.jp/s_gootransit/staticmap.php?MAP=E144.8.1.100N42.58.24.600&ZM=8&SZ=672,120","address":"白糠郡白糠町西庶路西一条南","postcode":"0880572","trangit":"\n根室本線\n"},{"aria":"北海道","line":"JR根室本線","name":"庶路","name_k":"しょろ","previous_next":"\n西庶路\t大楽毛\t","latitude_longitude":"https://map.goo.ne.jp/s_gootransit/staticmap.php?MAP=E144.9.14.500N42.58.51.800&ZM=8&SZ=672,120","address":"白糠郡白糠町庶路甲区","postcode":"0880563","trangit":"\n根室本線\n"},{"aria":"北海道","line":"JR根室本線","name":"大楽毛","name_k":"おたのしけ","previous_next":"\n庶路\t新大楽毛\t","latitude_longitude":"https://map.goo.ne.jp/s_gootransit/staticmap.php?MAP=E144.16.40.300N43.0.23.600&ZM=8&SZ=672,120","address":"釧路市大楽毛","postcode":"0840917","trangit":"\n根室本線\n"},{"aria":"北海道","line":"JR根室本線","name":"新大楽毛","name_k":"しんおたのしけ","previous_next":"\n大楽毛\t新富士（北海道）\t","latitude_longitude":"https://map.goo.ne.jp/s_gootransit/staticmap.php?MAP=E144.17.54.800N43.0.24.600&ZM=8&SZ=672,120","address":"釧路市大楽毛","postcode":"0840917","trangit":"\n根室本線\n"},{"aria":"北海道","line":"JR根室本線","name":"新富士（北海道）","name_k":"しんふじ","previous_next":"\n新大楽毛\t釧路\t","latitude_longitude":"https://map.goo.ne.jp/s_gootransit/staticmap.php?MAP=E144.21.17.500N42.59.56.500&ZM=8&SZ=672,120","address":"釧路市新富士町","postcode":"0840904","trangit":"\n根室本線\n"},{"aria":"北海道","line":"JR根室本線","name":"釧路","name_k":"くしろ","previous_next":"\n新富士（北海道）\t東釧路\t","latitude_longitude":"https://map.goo.ne.jp/s_gootransit/staticmap.php?MAP=E144.23.8.200N42.59.17.800&ZM=8&SZ=672,120","address":"釧路市北大通","postcode":"0850015","trangit":"\n根室本線\n釧網本線\n"},{"aria":"北海道","line":"JR根室本線","name":"東釧路","name_k":"ひがしくしろ","previous_next":"\n釧路\t武佐（北海道）\t","latitude_longitude":"https://map.goo.ne.jp/s_gootransit/staticmap.php?MAP=E144.24.55.800N42.59.33.400&ZM=8&SZ=672,120","address":"釧路市貝塚","postcode":"0850816","trangit":"\n根室本線\n釧網本線\n"},{"aria":"北海道","line":"JR根室本線","name":"武佐（北海道）","name_k":"むさ","previous_next":"\n東釧路\t別保\t","latitude_longitude":"https://map.goo.ne.jp/s_gootransit/staticmap.php?MAP=E144.25.48.300N42.59.20.400&ZM=8&SZ=672,120","address":"釧路市武佐","postcode":"0850806","trangit":"\n根室本線\n"},{"aria":"北海道","line":"JR根室本線","name":"別保","name_k":"べっぽ","previous_next":"\n武佐（北海道）\t上尾幌\t","latitude_longitude":"https://map.goo.ne.jp/s_gootransit/staticmap.php?MAP=E144.28.21.100N42.59.30.600&ZM=8&SZ=672,120","address":"釧路郡釧路町別保","postcode":"0880604","trangit":"\n根室本線\n"},{"aria":"北海道","line":"JR根室本線","name":"上尾幌","name_k":"かみおぼろ","previous_next":"\n別保\t尾幌\t","latitude_longitude":"https://map.goo.ne.jp/s_gootransit/staticmap.php?MAP=E144.36.58.800N43.1.50.200&ZM=8&SZ=672,120","address":"厚岸郡厚岸町上尾幌","postcode":"0880771","trangit":"\n根室本線\n"},{"aria":"北海道","line":"JR根室本線","name":"尾幌","name_k":"おぼろ","previous_next":"\n上尾幌\t門静\t","latitude_longitude":"https://map.goo.ne.jp/s_gootransit/staticmap.php?MAP=E144.42.28.300N43.0.57.600&ZM=8&SZ=672,120","address":"厚岸郡厚岸町尾幌","postcode":"0880871","trangit":"\n根室本線\n"},{"aria":"北海道","line":"JR根室本線","name":"門静","name_k":"もんしず","previous_next":"\n尾幌\t厚岸\t","latitude_longitude":"https://map.goo.ne.jp/s_gootransit/staticmap.php?MAP=E144.47.12.200N43.3.17.900&ZM=8&SZ=672,120","address":"厚岸郡厚岸町門静","postcode":"0881126","trangit":"\n根室本線\n"},{"aria":"北海道","line":"JR根室本線","name":"厚岸","name_k":"あっけし","previous_next":"\n門静\t茶内\t","latitude_longitude":"https://map.goo.ne.jp/s_gootransit/staticmap.php?MAP=E144.50.42.800N43.3.13.100&ZM=8&SZ=672,120","address":"厚岸郡厚岸町宮園町","postcode":"0881124","trangit":"\n根室本線\n"},{"aria":"北海道","line":"JR根室本線","name":"茶内","name_k":"ちゃない","previous_next":"\n厚岸\t浜中\t","latitude_longitude":"https://map.goo.ne.jp/s_gootransit/staticmap.php?MAP=E145.1.55.200N43.7.36.500&ZM=8&SZ=672,120","address":"厚岸郡浜中町琵琶瀬","postcode":"0881532","trangit":"\n根室本線\n"},{"aria":"北海道","line":"JR根室本線","name":"浜中","name_k":"はまなか","previous_next":"\n茶内\t姉別\t","latitude_longitude":"https://map.goo.ne.jp/s_gootransit/staticmap.php?MAP=E145.6.13.400N43.9.18.500&ZM=8&SZ=672,120","address":"厚岸郡浜中町後静村","postcode":"0881412","trangit":"\n根室本線\n"},{"aria":"北海道","line":"JR根室本線","name":"姉別","name_k":"あねべつ","previous_next":"\n浜中\t厚床\t","latitude_longitude":"https://map.goo.ne.jp/s_gootransit/staticmap.php?MAP=E145.11.56.100N43.11.37.400&ZM=8&SZ=672,120","address":"厚岸郡浜中町姉別","postcode":"0881646","trangit":"\n根室本線\n"},{"aria":"北海道","line":"JR根室本線","name":"厚床","name_k":"あっとこ","previous_next":"\n姉別\t別当賀\t","latitude_longitude":"https://map.goo.ne.jp/s_gootransit/staticmap.php?MAP=E145.15.23.800N43.13.32.500&ZM=8&SZ=672,120","address":"根室市厚床","postcode":"0860064","trangit":"\n根室本線\n"},{"aria":"北海道","line":"JR根室本線","name":"別当賀","name_k":"べっとが","previous_next":"\n厚床\t落石\t","latitude_longitude":"https://map.goo.ne.jp/s_gootransit/staticmap.php?MAP=E145.25.40.200N43.12.57.200&ZM=8&SZ=672,120","address":"根室市別当賀","postcode":"0860075","trangit":"\n根室本線\n"},{"aria":"北海道","line":"JR根室本線","name":"落石","name_k":"おちいし","previous_next":"\n別当賀\t昆布盛\t","latitude_longitude":"https://map.goo.ne.jp/s_gootransit/staticmap.php?MAP=E145.31.24.800N43.11.44.300&ZM=8&SZ=672,120","address":"根室市落石東","postcode":"0881782","trangit":"\n根室本線\n"},{"aria":"北海道","line":"JR根室本線","name":"昆布盛","name_k":"こんぶもり","previous_next":"\n落石\t西和田\t","latitude_longitude":"https://map.goo.ne.jp/s_gootransit/staticmap.php?MAP=E145.32.47.200N43.13.33.800&ZM=8&SZ=672,120","address":"根室市昆布盛","postcode":"0881784","trangit":"\n根室本線\n"},{"aria":"北海道","line":"JR根室本線","name":"西和田","name_k":"にしわだ","previous_next":"\n昆布盛\t東根室\t","latitude_longitude":"https://map.goo.ne.jp/s_gootransit/staticmap.php?MAP=E145.32.46.900N43.15.55.700&ZM=8&SZ=672,120","address":"根室市西和田","postcode":"0870033","trangit":"\n根室本線\n"},{"aria":"北海道","line":"JR根室本線","name":"東根室","name_k":"ひがしねむろ","previous_next":"\n西和田\t根室\t","latitude_longitude":"https://map.goo.ne.jp/s_gootransit/staticmap.php?MAP=E145.36.4.400N43.19.15.200&ZM=8&SZ=672,120","address":"根室市光洋町","postcode":"0870004","trangit":"\n根室本線\n"},{"aria":"北海道","line":"JR根室本線","name":"根室","name_k":"ねむろ","previous_next":"\n東根室\t\t","latitude_longitude":"https://map.goo.ne.jp/s_gootransit/staticmap.php?MAP=E145.35.13.900N43.19.27.200&ZM=8&SZ=672,120","address":"根室市光和町","postcode":"0870027","trangit":"\n根室本線\n"},{"aria":"北海道","line":"JR富良野線","name":"旭川","name_k":"あさひかわ","previous_next":"\n\t神楽岡\t","latitude_longitude":"https://map.goo.ne.jp/s_gootransit/staticmap.php?MAP=E142.21.42.700N43.45.39.500&ZM=8&SZ=672,120","address":"旭川市宮下通","postcode":"0700030","trangit":"\n函館本線\n宗谷本線\n富良野線\n石北本線\n"},{"aria":"北海道","line":"JR富良野線","name":"神楽岡","name_k":"かぐらおか","previous_next":"\n旭川\t緑が丘（北海道）\t","latitude_longitude":"https://map.goo.ne.jp/s_gootransit/staticmap.php?MAP=E142.21.43.600N43.44.33.600&ZM=8&SZ=672,120","address":"旭川市神楽四条","postcode":"0708004","trangit":"\n富良野線\n"},{"aria":"北海道","line":"JR富良野線","name":"緑が丘（北海道）","name_k":"みどりがおか","previous_next":"\n神楽岡\t西御料\t","latitude_longitude":"https://map.goo.ne.jp/s_gootransit/staticmap.php?MAP=E142.22.10.000N43.43.43.100&ZM=8&SZ=672,120","address":"旭川市神楽岡十三条","postcode":"0788323","trangit":"\n富良野線\n"},{"aria":"北海道","line":"JR富良野線","name":"西御料","name_k":"にしごりょう","previous_next":"\n緑が丘（北海道）\t西瑞穂\t","latitude_longitude":"https://map.goo.ne.jp/s_gootransit/staticmap.php?MAP=E142.22.31.200N43.43.6.100&ZM=8&SZ=672,120","address":"旭川市西神楽一線","postcode":"0788381","trangit":"\n富良野線\n"},{"aria":"北海道","line":"JR富良野線","name":"西瑞穂","name_k":"にしみずほ","previous_next":"\n西御料\t西神楽\t","latitude_longitude":"https://map.goo.ne.jp/s_gootransit/staticmap.php?MAP=E142.23.9.300N43.42.0.200&ZM=8&SZ=672,120","address":"旭川市西神楽一線","postcode":"0788381","trangit":"\n富良野線\n"},{"aria":"北海道","line":"JR富良野線","name":"西神楽","name_k":"にしかぐら","previous_next":"\n西瑞穂\t西聖和\t","latitude_longitude":"https://map.goo.ne.jp/s_gootransit/staticmap.php?MAP=E142.23.50.700N43.40.47.400&ZM=8&SZ=672,120","address":"旭川市西神楽南一条","postcode":"0710171","trangit":"\n富良野線\n"},{"aria":"北海道","line":"JR富良野線","name":"西聖和","name_k":"にしせいわ","previous_next":"\n西神楽\t千代ヶ岡\t","latitude_longitude":"https://map.goo.ne.jp/s_gootransit/staticmap.php?MAP=E142.25.9.900N43.39.59.100&ZM=8&SZ=672,120","address":"旭川市西神楽二線","postcode":"0788382","trangit":"\n富良野線\n"},{"aria":"北海道","line":"JR富良野線","name":"千代ヶ岡","name_k":"ちよがおか","previous_next":"\n西聖和\t北美瑛\t","latitude_longitude":"https://map.goo.ne.jp/s_gootransit/staticmap.php?MAP=E142.27.17.500N43.38.28.900&ZM=8&SZ=672,120","address":"旭川市西神楽一線","postcode":"0788381","trangit":"\n富良野線\n"},{"aria":"北海道","line":"JR富良野線","name":"北美瑛","name_k":"きたびえい","previous_next":"\n千代ヶ岡\t美瑛\t","latitude_longitude":"https://map.goo.ne.jp/s_gootransit/staticmap.php?MAP=E142.29.0.300N43.36.55.600&ZM=8&SZ=672,120","address":"上川郡美瑛町下宇莫別","postcode":"0710226","trangit":"\n富良野線\n"},{"aria":"北海道","line":"JR富良野線","name":"美瑛","name_k":"びえい","previous_next":"\n北美瑛\t美馬牛\t","latitude_longitude":"https://map.goo.ne.jp/s_gootransit/staticmap.php?MAP=E142.27.55.300N43.35.19.800&ZM=8&SZ=672,120","address":"上川郡美瑛町本町","postcode":"0710208","trangit":"\n富良野線\n"},{"aria":"北海道","line":"JR富良野線","name":"美馬牛","name_k":"びばうし","previous_next":"\n美瑛\t上富良野\t","latitude_longitude":"https://map.goo.ne.jp/s_gootransit/staticmap.php?MAP=E142.27.3.400N43.32.6.100&ZM=8&SZ=672,120","address":"上川郡美瑛町美馬牛","postcode":"0710471","trangit":"\n富良野線\n"},{"aria":"北海道","line":"JR富良野線","name":"上富良野","name_k":"かみふらの","previous_next":"\n美馬牛\t西中\t","latitude_longitude":"https://map.goo.ne.jp/s_gootransit/staticmap.php?MAP=E142.28.23.500N43.27.41.600&ZM=8&SZ=672,120","address":"空知郡上富良野町中町","postcode":"0710543","trangit":"\n富良野線\n"},{"aria":"北海道","line":"JR富良野線","name":"西中","name_k":"にしなか","previous_next":"\n上富良野\tラベンダー畑\t","latitude_longitude":"https://map.goo.ne.jp/s_gootransit/staticmap.php?MAP=E142.26.45.100N43.25.38.400&ZM=8&SZ=672,120","address":"空知郡中富良野町基線北","postcode":"0710704","trangit":"\n富良野線\n"},{"aria":"北海道","line":"JR富良野線","name":"ラベンダー畑","name_k":"らべんだーばたけ","previous_next":"\n西中\t中富良野\t","latitude_longitude":"https://map.goo.ne.jp/s_gootransit/staticmap.php?MAP=E142.26.5.800N43.24.53.500&ZM=8&SZ=672,120","address":"空知郡中富良野町基線北","postcode":"0710704","trangit":"\n富良野線\n"},{"aria":"北海道","line":"JR富良野線","name":"中富良野","name_k":"なかふらの","previous_next":"\nラベンダー畑\t鹿討\t","latitude_longitude":"https://map.goo.ne.jp/s_gootransit/staticmap.php?MAP=E142.25.29.400N43.24.12.300&ZM=8&SZ=672,120","address":"空知郡中富良野町西町","postcode":"0710761","trangit":"\n富良野線\n"},{"aria":"北海道","line":"JR富良野線","name":"鹿討","name_k":"しかうち","previous_next":"\n中富良野\t学田\t","latitude_longitude":"https://map.goo.ne.jp/s_gootransit/staticmap.php?MAP=E142.24.32.200N43.23.7.300&ZM=8&SZ=672,120","address":"空知郡中富良野町中富良野","postcode":"0710700","trangit":"\n富良野線\n"},{"aria":"北海道","line":"JR富良野線","name":"学田","name_k":"がくでん","previous_next":"\n鹿討\t富良野\t","latitude_longitude":"https://map.goo.ne.jp/s_gootransit/staticmap.php?MAP=E142.23.25.300N43.21.51.500&ZM=8&SZ=672,120","address":"富良野市西学田二区","postcode":"0760047","trangit":"\n富良野線\n"},{"aria":"北海道","line":"JR富良野線","name":"富良野","name_k":"ふらの","previous_next":"\n学田\t\t","latitude_longitude":"https://map.goo.ne.jp/s_gootransit/staticmap.php?MAP=E142.23.42.400N43.20.40.800&ZM=8&SZ=672,120","address":"富良野市日の出町","postcode":"0760025","trangit":"\n富良野線\n根室本線\n"},{"aria":"北海道","line":"JR石勝線","name":"南千歳","name_k":"みなみちとせ","previous_next":"\n\t追分（北海道）\t","latitude_longitude":"https://map.goo.ne.jp/s_gootransit/staticmap.php?MAP=E141.40.43.900N42.48.20.500&ZM=8&SZ=672,120","address":"千歳市平和","postcode":"0660044","trangit":"\n千歳線\n石勝線\n"},{"aria":"北海道","line":"JR石勝線","name":"追分（北海道）","name_k":"おいわけ","previous_next":"\n南千歳\t川端\t","latitude_longitude":"https://map.goo.ne.jp/s_gootransit/staticmap.php?MAP=E141.48.51.400N42.52.14.400&ZM=8&SZ=672,120","address":"勇払郡安平町追分中央","postcode":"0591931","trangit":"\n室蘭本線\n石勝線\n"},{"aria":"北海道","line":"JR石勝線","name":"川端","name_k":"かわばた","previous_next":"\n追分（北海道）\t滝ノ上\t","latitude_longitude":"https://map.goo.ne.jp/s_gootransit/staticmap.php?MAP=E141.53.54.600N42.54.44.300&ZM=8&SZ=672,120","address":"夕張郡由仁町川端","postcode":"0691141","trangit":"\n石勝線\n"},{"aria":"北海道","line":"JR石勝線","name":"滝ノ上","name_k":"たきのうえ","previous_next":"\n川端\t新夕張\t","latitude_longitude":"https://map.goo.ne.jp/s_gootransit/staticmap.php?MAP=E141.58.45.800N42.54.28.100&ZM=8&SZ=672,120","address":"夕張市滝ノ上","postcode":"0680756","trangit":"\n石勝線\n"},{"aria":"北海道","line":"JR石勝線","name":"新夕張","name_k":"しんゆうばり","previous_next":"\n滝ノ上\t占冠\t","latitude_longitude":"https://map.goo.ne.jp/s_gootransit/staticmap.php?MAP=E142.2.22.700N42.56.2.100&ZM=8&SZ=672,120","address":"夕張市紅葉山","postcode":"0680755","trangit":"\n石勝線\n"},{"aria":"北海道","line":"JR石勝線","name":"占冠","name_k":"しむかっぷ","previous_next":"\n新夕張\tトマム\t","latitude_longitude":"https://map.goo.ne.jp/s_gootransit/staticmap.php?MAP=E142.24.13.900N42.59.26.200&ZM=8&SZ=672,120","address":"勇払郡占冠村占冠","postcode":"0792202","trangit":"\n石勝線\n"},{"aria":"北海道","line":"JR石勝線","name":"トマム","name_k":"とまむ","previous_next":"\n占冠\t新得\t","latitude_longitude":"https://map.goo.ne.jp/s_gootransit/staticmap.php?MAP=E142.36.52.900N43.3.12.900&ZM=8&SZ=672,120","address":"勇払郡占冠村中トマム","postcode":"0792204","trangit":"\n石勝線\n"},{"aria":"北海道","line":"JR石勝線","name":"新得","name_k":"しんとく","previous_next":"\nトマム\t\t","latitude_longitude":"https://map.goo.ne.jp/s_gootransit/staticmap.php?MAP=E142.50.10.400N43.4.47.400&ZM=8&SZ=672,120","address":"上川郡新得町本通北","postcode":"0810005","trangit":"\n根室本線\n石勝線\n"},{"aria":"北海道","line":"JR学園都市線","name":"桑園","name_k":"そうえん","previous_next":"\n\t八軒\t","latitude_longitude":"https://map.goo.ne.jp/s_gootransit/staticmap.php?MAP=E141.20.8.200N43.4.6.200&ZM=8&SZ=672,120","address":"札幌市中央区北十一条西","postcode":"0600011","trangit":"\n函館本線\n学園都市線\n"},{"aria":"北海道","line":"JR学園都市線","name":"八軒","name_k":"はちけん","previous_next":"\n桑園\t新川（北海道）\t","latitude_longitude":"https://map.goo.ne.jp/s_gootransit/staticmap.php?MAP=E141.19.22.800N43.5.2.800&ZM=8&SZ=672,120","address":"札幌市西区八軒六条東","postcode":"0630866","trangit":"\n学園都市線\n"},{"aria":"北海道","line":"JR学園都市線","name":"新川（北海道）","name_k":"しんかわ","previous_next":"\n八軒\t新琴似\t","latitude_longitude":"https://map.goo.ne.jp/s_gootransit/staticmap.php?MAP=E141.19.38.600N43.5.45.900&ZM=8&SZ=672,120","address":"札幌市北区新川四条","postcode":"0010924","trangit":"\n学園都市線\n"},{"aria":"北海道","line":"JR学園都市線","name":"新琴似","name_k":"しんことに","previous_next":"\n新川（北海道）\t太平\t","latitude_longitude":"https://map.goo.ne.jp/s_gootransit/staticmap.php?MAP=E141.20.19.700N43.6.38.100&ZM=8&SZ=672,120","address":"札幌市北区新琴似八条","postcode":"0010908","trangit":"\n学園都市線\n"},{"aria":"北海道","line":"JR学園都市線","name":"太平","name_k":"たいへい","previous_next":"\n新琴似\t百合が原\t","latitude_longitude":"https://map.goo.ne.jp/s_gootransit/staticmap.php?MAP=E141.21.9.400N43.7.16.900&ZM=8&SZ=672,120","address":"札幌市北区太平二条","postcode":"0028002","trangit":"\n学園都市線\n"},{"aria":"北海道","line":"JR学園都市線","name":"百合が原","name_k":"ゆりがはら","previous_next":"\n太平\t篠路\t","latitude_longitude":"https://map.goo.ne.jp/s_gootransit/staticmap.php?MAP=E141.21.51.700N43.7.44.200&ZM=8&SZ=672,120","address":"札幌市北区篠路町太平","postcode":"0028051","trangit":"\n学園都市線\n"},{"aria":"北海道","line":"JR学園都市線","name":"篠路","name_k":"しのろ","previous_next":"\n百合が原\t拓北\t","latitude_longitude":"https://map.goo.ne.jp/s_gootransit/staticmap.php?MAP=E141.22.4.500N43.8.33.200&ZM=8&SZ=672,120","address":"札幌市北区篠路四条","postcode":"0028024","trangit":"\n学園都市線\n"},{"aria":"北海道","line":"JR学園都市線","name":"拓北","name_k":"たくほく","previous_next":"\n篠路\tあいの里教育大\t","latitude_longitude":"https://map.goo.ne.jp/s_gootransit/staticmap.php?MAP=E141.23.5.100N43.9.11.400&ZM=8&SZ=672,120","address":"札幌市北区拓北六条","postcode":"0028066","trangit":"\n学園都市線\n"},{"aria":"北海道","line":"JR学園都市線","name":"あいの里教育大","name_k":"あいのさときょういくだい","previous_next":"\n拓北\tあいの里公園\t","latitude_longitude":"https://map.goo.ne.jp/s_gootransit/staticmap.php?MAP=E141.24.8.100N43.9.9.600&ZM=8&SZ=672,120","address":"札幌市北区あいの里一条","postcode":"0028071","trangit":"\n学園都市線\n"},{"aria":"北海道","line":"JR学園都市線","name":"あいの里公園","name_k":"あいのさとこうえん","previous_next":"\nあいの里教育大\tロイズタウン\t","latitude_longitude":"https://map.goo.ne.jp/s_gootransit/staticmap.php?MAP=E141.25.0.200N43.9.30.600&ZM=8&SZ=672,120","address":"札幌市北区あいの里二条","postcode":"0028072","trangit":"\n学園都市線\n"},{"aria":"北海道","line":"JR学園都市線","name":"ロイズタウン","name_k":"ろいずたうん","previous_next":"\nあいの里公園\t太美\t","latitude_longitude":"https://map.goo.ne.jp/s_gootransit/staticmap.php?MAP=E141.26.23.500N43.10.37.600&ZM=8&SZ=672,120","address":"石狩郡当別町当別太","postcode":"0613773","trangit":"\n学園都市線\n"},{"aria":"北海道","line":"JR学園都市線","name":"太美","name_k":"ふとみ","previous_next":"\nロイズタウン\t当別\t","latitude_longitude":"https://map.goo.ne.jp/s_gootransit/staticmap.php?MAP=E141.27.9.500N43.11.14.600&ZM=8&SZ=672,120","address":"石狩郡当別町太美町","postcode":"0613776","trangit":"\n学園都市線\n"},{"aria":"北海道","line":"JR学園都市線","name":"当別","name_k":"とうべつ","previous_next":"\n太美\t北海道医療大学\t","latitude_longitude":"https://map.goo.ne.jp/s_gootransit/staticmap.php?MAP=E141.31.2.800N43.13.10.800&ZM=8&SZ=672,120","address":"石狩郡当別町錦町","postcode":"0610226","trangit":"\n学園都市線\n"},{"aria":"北海道","line":"JR学園都市線","name":"北海道医療大学","name_k":"ほっかいどういりょうだいがく","previous_next":"\n当別\t\t","latitude_longitude":"https://map.goo.ne.jp/s_gootransit/staticmap.php?MAP=E141.33.13.800N43.13.43.200&ZM=8&SZ=672,120","address":"石狩郡当別町金沢","postcode":"0610212","trangit":"\n学園都市線\n"},{"aria":"北海道","line":"JR釧網本線","name":"東釧路","name_k":"ひがしくしろ","previous_next":"\n\t遠矢\t","latitude_longitude":"https://map.goo.ne.jp/s_gootransit/staticmap.php?MAP=E144.24.55.800N42.59.33.400&ZM=8&SZ=672,120","address":"釧路市貝塚","postcode":"0850816","trangit":"\n根室本線\n釧網本線\n"},{"aria":"北海道","line":"JR釧網本線","name":"遠矢","name_k":"とおや","previous_next":"\n東釧路\t釧路湿原\t","latitude_longitude":"https://map.goo.ne.jp/s_gootransit/staticmap.php?MAP=E144.27.43.800N43.2.41.800&ZM=8&SZ=672,120","address":"釧路郡釧路町遠矢","postcode":"0882145","trangit":"\n釧網本線\n"},{"aria":"北海道","line":"JR釧網本線","name":"釧路湿原","name_k":"くしろしつげん","previous_next":"\n遠矢\t細岡\t","latitude_longitude":"https://map.goo.ne.jp/s_gootransit/staticmap.php?MAP=E144.27.6.100N43.5.51.800&ZM=8&SZ=672,120","address":"釧路郡釧路町鳥通","postcode":"0882148","trangit":"\n釧網本線\n"},{"aria":"北海道","line":"JR釧網本線","name":"細岡","name_k":"ほそおか","previous_next":"\n釧路湿原\t塘路\t","latitude_longitude":"https://map.goo.ne.jp/s_gootransit/staticmap.php?MAP=E144.28.27.100N43.6.7.900&ZM=8&SZ=672,120","address":"釧路郡釧路町鳥通","postcode":"0882148","trangit":"\n釧網本線\n"},{"aria":"北海道","line":"JR釧網本線","name":"塘路","name_k":"とうろ","previous_next":"\n細岡\t茅沼\t","latitude_longitude":"https://map.goo.ne.jp/s_gootransit/staticmap.php?MAP=E144.30.2.700N43.8.57.600&ZM=8&SZ=672,120","address":"川上郡標茶町塘路","postcode":"0882261","trangit":"\n釧網本線\n"},{"aria":"北海道","line":"JR釧網本線","name":"茅沼","name_k":"かやぬま","previous_next":"\n塘路\t標茶\t","latitude_longitude":"https://map.goo.ne.jp/s_gootransit/staticmap.php?MAP=E144.30.27.100N43.11.58.700&ZM=8&SZ=672,120","address":"川上郡標茶町コッタロ原野","postcode":"0882266","trangit":"\n釧網本線\n"},{"aria":"北海道","line":"JR釧網本線","name":"標茶","name_k":"しべちゃ","previous_next":"\n茅沼\t磯分内\t","latitude_longitude":"https://map.goo.ne.jp/s_gootransit/staticmap.php?MAP=E144.36.45.900N43.17.44.600&ZM=8&SZ=672,120","address":"川上郡標茶町標茶","postcode":"0882314","trangit":"\n釧網本線\n"},{"aria":"北海道","line":"JR釧網本線","name":"磯分内","name_k":"いそぶんない","previous_next":"\n標茶\t摩周\t","latitude_longitude":"https://map.goo.ne.jp/s_gootransit/staticmap.php?MAP=E144.33.29.500N43.22.37.200&ZM=8&SZ=672,120","address":"川上郡標茶町熊牛原野","postcode":"0883145","trangit":"\n釧網本線\n"},{"aria":"北海道","line":"JR釧網本線","name":"摩周","name_k":"ましゅう","previous_next":"\n磯分内\t美留和\t","latitude_longitude":"https://map.goo.ne.jp/s_gootransit/staticmap.php?MAP=E144.28.4.100N43.29.6.200&ZM=8&SZ=672,120","address":"川上郡弟子屈町朝日","postcode":"0883204","trangit":"\n釧網本線\n"},{"aria":"北海道","line":"JR釧網本線","name":"美留和","name_k":"びるわ","previous_next":"\n摩周\t川湯温泉\t","latitude_longitude":"https://map.goo.ne.jp/s_gootransit/staticmap.php?MAP=E144.26.30.400N43.33.9.600&ZM=8&SZ=672,120","address":"川上郡弟子屈町美留和","postcode":"0883331","trangit":"\n釧網本線\n"},{"aria":"北海道","line":"JR釧網本線","name":"川湯温泉","name_k":"かわゆおんせん","previous_next":"\n美留和\t緑\t","latitude_longitude":"https://map.goo.ne.jp/s_gootransit/staticmap.php?MAP=E144.27.42.200N43.36.49.700&ZM=8&SZ=672,120","address":"川上郡弟子屈町川湯駅前","postcode":"0883462","trangit":"\n釧網本線\n"},{"aria":"北海道","line":"JR釧網本線","name":"緑","name_k":"みどり","previous_next":"\n川湯温泉\t札弦\t","latitude_longitude":"https://map.goo.ne.jp/s_gootransit/staticmap.php?MAP=E144.30.33.400N43.42.56.200&ZM=8&SZ=672,120","address":"斜里郡清里町緑町","postcode":"0994525","trangit":"\n釧網本線\n"},{"aria":"北海道","line":"JR釧網本線","name":"札弦","name_k":"さっつる","previous_next":"\n緑\t清里町\t","latitude_longitude":"https://map.goo.ne.jp/s_gootransit/staticmap.php?MAP=E144.32.7.700N43.47.3.100&ZM=8&SZ=672,120","address":"斜里郡清里町札弦町","postcode":"0994521","trangit":"\n釧網本線\n"},{"aria":"北海道","line":"JR釧網本線","name":"清里町","name_k":"きよさとちょう","previous_next":"\n札弦\t中斜里\t","latitude_longitude":"https://map.goo.ne.jp/s_gootransit/staticmap.php?MAP=E144.35.52.300N43.50.10.200&ZM=8&SZ=672,120","address":"斜里郡清里町水元町","postcode":"0994406","trangit":"\n釧網本線\n"},{"aria":"北海道","line":"JR釧網本線","name":"中斜里","name_k":"なかしゃり","previous_next":"\n清里町\t知床斜里\t","latitude_longitude":"https://map.goo.ne.jp/s_gootransit/staticmap.php?MAP=E144.39.46.200N43.52.19.200&ZM=8&SZ=672,120","address":"斜里郡斜里町中斜里","postcode":"0994142","trangit":"\n釧網本線\n"},{"aria":"北海道","line":"JR釧網本線","name":"知床斜里","name_k":"しれとこしゃり","previous_next":"\n中斜里\t止別\t","latitude_longitude":"https://map.goo.ne.jp/s_gootransit/staticmap.php?MAP=E144.39.56.900N43.54.30.100&ZM=8&SZ=672,120","address":"斜里郡斜里町港町","postcode":"0994112","trangit":"\n釧網本線\n"},{"aria":"北海道","line":"JR釧網本線","name":"止別","name_k":"やむべつ","previous_next":"\n知床斜里\t浜小清水\t","latitude_longitude":"https://map.goo.ne.jp/s_gootransit/staticmap.php?MAP=E144.31.28.600N43.55.8.800&ZM=8&SZ=672,120","address":"斜里郡小清水町止別","postcode":"0993454","trangit":"\n釧網本線\n"},{"aria":"北海道","line":"JR釧網本線","name":"浜小清水","name_k":"はまこしみず","previous_next":"\n止別\t原生花園\t","latitude_longitude":"https://map.goo.ne.jp/s_gootransit/staticmap.php?MAP=E144.27.26.500N43.55.53.600&ZM=8&SZ=672,120","address":"斜里郡小清水町浜小清水","postcode":"0993452","trangit":"\n釧網本線\n"},{"aria":"北海道","line":"JR釧網本線","name":"原生花園","name_k":"げんせいかえん","previous_next":"\n浜小清水\t北浜（北海道）\t","latitude_longitude":"https://map.goo.ne.jp/s_gootransit/staticmap.php?MAP=E144.25.6.600N43.56.19.400&ZM=8&SZ=672,120","address":"斜里郡小清水町浜小清水","postcode":"0993452","trangit":"\n釧網本線\n"},{"aria":"北海道","line":"JR釧網本線","name":"北浜（北海道）","name_k":"きたはま","previous_next":"\n原生花園\t藻琴\t","latitude_longitude":"https://map.goo.ne.jp/s_gootransit/staticmap.php?MAP=E144.21.23.200N43.57.22.100&ZM=8&SZ=672,120","address":"網走市北浜","postcode":"0993112","trangit":"\n釧網本線\n"},{"aria":"北海道","line":"JR釧網本線","name":"藻琴","name_k":"もこと","previous_next":"\n北浜（北海道）\t鱒浦\t","latitude_longitude":"https://map.goo.ne.jp/s_gootransit/staticmap.php?MAP=E144.19.26.100N43.57.57.600&ZM=8&SZ=672,120","address":"網走市藻琴","postcode":"0993111","trangit":"\n釧網本線\n"},{"aria":"北海道","line":"JR釧網本線","name":"鱒浦","name_k":"ますうら","previous_next":"\n藻琴\t桂台\t","latitude_longitude":"https://map.goo.ne.jp/s_gootransit/staticmap.php?MAP=E144.18.1.900N43.58.48.300&ZM=8&SZ=672,120","address":"網走市鱒浦","postcode":"0993119","trangit":"\n釧網本線\n"},{"aria":"北海道","line":"JR釧網本線","name":"桂台","name_k":"かつらだい","previous_next":"\n鱒浦\t網走\t","latitude_longitude":"https://map.goo.ne.jp/s_gootransit/staticmap.php?MAP=E144.16.37.100N44.0.52.200&ZM=8&SZ=672,120","address":"網走市南十条東","postcode":"0930010","trangit":"\n釧網本線\n"},{"aria":"北海道","line":"JR釧網本線","name":"網走","name_k":"あばしり","previous_next":"\n桂台\t\t","latitude_longitude":"https://map.goo.ne.jp/s_gootransit/staticmap.php?MAP=E144.15.30.400N44.1.3.300&ZM=8&SZ=672,120","address":"網走市新町","postcode":"0930046","trangit":"\n石北本線\n釧網本線\n"},{"aria":"北海道","line":"JR留萌本線","name":"深川","name_k":"ふかがわ","previous_next":"\n\t北一已\t","latitude_longitude":"https://map.goo.ne.jp/s_gootransit/staticmap.php?MAP=E142.2.43.800N43.43.8.300&ZM=8&SZ=672,120","address":"深川市一条","postcode":"0740001","trangit":"\n函館本線\n留萌本線\n"},{"aria":"北海道","line":"JR留萌本線","name":"北一已","name_k":"きたいちやん","previous_next":"\n深川\t秩父別\t","latitude_longitude":"https://map.goo.ne.jp/s_gootransit/staticmap.php?MAP=E142.1.6.500N43.44.22.900&ZM=8&SZ=672,120","address":"深川市一已町","postcode":"0740028","trangit":"\n留萌本線\n"},{"aria":"北海道","line":"JR留萌本線","name":"秩父別","name_k":"ちっぷべつ","previous_next":"\n北一已\t北秩父別\t","latitude_longitude":"https://map.goo.ne.jp/s_gootransit/staticmap.php?MAP=E141.58.17.300N43.45.59.700&ZM=8&SZ=672,120","address":"雨竜郡秩父別町２条","postcode":"0782102","trangit":"\n留萌本線\n"},{"aria":"北海道","line":"JR留萌本線","name":"北秩父別","name_k":"きたちっぷべつ","previous_next":"\n秩父別\t石狩沼田\t","latitude_longitude":"https://map.goo.ne.jp/s_gootransit/staticmap.php?MAP=E141.57.53.100N43.47.13.100&ZM=8&SZ=672,120","address":"雨竜郡秩父別町６条","postcode":"0782106","trangit":"\n留萌本線\n"},{"aria":"北海道","line":"JR留萌本線","name":"石狩沼田","name_k":"いしかりぬまた","previous_next":"\n北秩父別\t真布\t","latitude_longitude":"https://map.goo.ne.jp/s_gootransit/staticmap.php?MAP=E141.56.16.400N43.48.27.800&ZM=8&SZ=672,120","address":"雨竜郡沼田町北一条","postcode":"0782205","trangit":"\n留萌本線\n"},{"aria":"北海道","line":"JR留萌本線","name":"真布","name_k":"まっぷ","previous_next":"\n石狩沼田\t恵比島\t","latitude_longitude":"https://map.goo.ne.jp/s_gootransit/staticmap.php?MAP=E141.54.37.500N43.49.50.300&ZM=8&SZ=672,120","address":"雨竜郡沼田町沼田","postcode":"0782222","trangit":"\n留萌本線\n"},{"aria":"北海道","line":"JR留萌本線","name":"恵比島","name_k":"えびしま","previous_next":"\n真布\t峠下\t","latitude_longitude":"https://map.goo.ne.jp/s_gootransit/staticmap.php?MAP=E141.53.8.700N43.50.56.300&ZM=8&SZ=672,120","address":"雨竜郡沼田町恵比島","postcode":"0782224","trangit":"\n留萌本線\n"},{"aria":"北海道","line":"JR留萌本線","name":"峠下","name_k":"とうげした","previous_next":"\n恵比島\t幌糠\t","latitude_longitude":"https://map.goo.ne.jp/s_gootransit/staticmap.php?MAP=E141.49.21.100N43.50.55.800&ZM=8&SZ=672,120","address":"留萌市留萌村","postcode":"0783161","trangit":"\n留萌本線\n"},{"aria":"北海道","line":"JR留萌本線","name":"幌糠","name_k":"ほろぬか","previous_next":"\n峠下\t藤山\t","latitude_longitude":"https://map.goo.ne.jp/s_gootransit/staticmap.php?MAP=E141.45.42.700N43.51.11.300&ZM=8&SZ=672,120","address":"留萌市留萌村","postcode":"0783164","trangit":"\n留萌本線\n"},{"aria":"北海道","line":"JR留萌本線","name":"藤山","name_k":"ふじやま","previous_next":"\n幌糠\t大和田（北海道）\t","latitude_longitude":"https://map.goo.ne.jp/s_gootransit/staticmap.php?MAP=E141.43.26.700N43.53.5.100&ZM=8&SZ=672,120","address":"留萌市藤山町","postcode":"0783165","trangit":"\n留萌本線\n"},{"aria":"北海道","line":"JR留萌本線","name":"大和田（北海道）","name_k":"おおわだ","previous_next":"\n藤山\t留萌\t","latitude_longitude":"https://map.goo.ne.jp/s_gootransit/staticmap.php?MAP=E141.42.0.700N43.54.40.200&ZM=8&SZ=672,120","address":"留萌市大和田","postcode":"0770012","trangit":"\n留萌本線\n"},{"aria":"北海道","line":"JR留萌本線","name":"留萌","name_k":"るもい","previous_next":"\n大和田（北海道）\t\t","latitude_longitude":"https://map.goo.ne.jp/s_gootransit/staticmap.php?MAP=E141.39.21.600N43.56.25.700&ZM=8&SZ=672,120","address":"留萌市船場町","postcode":"0770005","trangit":"\n留萌本線\n"},{"aria":"北海道","line":"JR東北・北海道新幹線","name":"東京","name_k":"とうきょう","previous_next":"\n\t上野\t","latitude_longitude":"https://map.goo.ne.jp/s_gootransit/staticmap.php?MAP=E139.46.13.600N35.40.39.200&ZM=8&SZ=672,120","address":"千代田区丸の内","postcode":"1000005","trangit":"\n上越新幹線\n中央線\n京浜東北線\n京葉線\n北陸新幹線\n宇都宮線\n山手線\n東京メトロ丸ノ内線\n東北・北海道新幹線\n東海道・山陽新幹線\n東海道本線（東日本）\n横須賀線\n武蔵野線\n総武線快速\n総武線快速・横須賀線\n高崎線\n"},{"aria":"北海道","line":"JR東北・北海道新幹線","name":"上野","name_k":"うえの","previous_next":"\n東京\t大宮（埼玉）\t","latitude_longitude":"https://map.goo.ne.jp/s_gootransit/staticmap.php?MAP=E139.46.44.700N35.42.35.800&ZM=8&SZ=672,120","address":"台東区上野","postcode":"1100005","trangit":"\n上越新幹線\n京浜東北線\n北陸新幹線\n宇都宮線\n山手線\n常磐線\n東京メトロ日比谷線\n東京メトロ銀座線\n東北・北海道新幹線\n高崎線\n"},{"aria":"北海道","line":"JR東北・北海道新幹線","name":"大宮（埼玉）","name_k":"おおみや","previous_next":"\n上野\t小山\t","latitude_longitude":"https://map.goo.ne.jp/s_gootransit/staticmap.php?MAP=E139.37.37.600N35.54.11.300&ZM=8&SZ=672,120","address":"さいたま市大宮区錦町","postcode":"3300853","trangit":"\nニューシャトル\n上越新幹線\n京浜東北線\n北陸新幹線\n埼京線\n宇都宮線\n川越線\n東北・北海道新幹線\n東武アーバンパークライン\n武蔵野線\n湘南新宿ライン\n高崎線\n"},{"aria":"北海道","line":"JR東北・北海道新幹線","name":"小山","name_k":"おやま","previous_next":"\n大宮（埼玉）\t宇都宮\t","latitude_longitude":"https://map.goo.ne.jp/s_gootransit/staticmap.php?MAP=E139.48.34.300N36.18.35.500&ZM=8&SZ=672,120","address":"小山市城山町","postcode":"3230025","trangit":"\n両毛線\n宇都宮線\n東北・北海道新幹線\n水戸線\n湘南新宿ライン\n"},{"aria":"北海道","line":"JR東北・北海道新幹線","name":"宇都宮","name_k":"うつのみや","previous_next":"\n小山\t那須塩原\t","latitude_longitude":"https://map.goo.ne.jp/s_gootransit/staticmap.php?MAP=E139.54.5.200N36.33.19.100&ZM=8&SZ=672,120","address":"宇都宮市川向町","postcode":"3210965","trangit":"\n宇都宮線\n日光線\n東北・北海道新幹線\n湘南新宿ライン\n烏山線\n"},{"aria":"北海道","line":"JR東北・北海道新幹線","name":"那須塩原","name_k":"なすしおばら","previous_next":"\n宇都宮\t新白河\t","latitude_longitude":"https://map.goo.ne.jp/s_gootransit/staticmap.php?MAP=E140.1.28.200N36.55.43.200&ZM=8&SZ=672,120","address":"那須塩原市大原間","postcode":"3293153","trangit":"\n宇都宮線\n東北・北海道新幹線\n湘南新宿ライン\n"},{"aria":"北海道","line":"JR東北・北海道新幹線","name":"新白河","name_k":"しんしらかわ","previous_next":"\n那須塩原\t郡山（福島）\t","latitude_longitude":"https://map.goo.ne.jp/s_gootransit/staticmap.php?MAP=E140.11.32.500N37.7.12.800&ZM=8&SZ=672,120","address":"西白河郡西郷村小田倉","postcode":"9618061","trangit":"\n東北・北海道新幹線\n東北本線\n"},{"aria":"北海道","line":"JR東北・北海道新幹線","name":"郡山（福島）","name_k":"こおりやま","previous_next":"\n新白河\t福島（福島）\t","latitude_longitude":"https://map.goo.ne.jp/s_gootransit/staticmap.php?MAP=E140.23.32.600N37.23.42.700&ZM=8&SZ=672,120","address":"郡山市燧田","postcode":"9638003","trangit":"\n東北・北海道新幹線\n東北本線\n水郡線\n磐越東線\n磐越西線\n"},{"aria":"北海道","line":"JR東北・北海道新幹線","name":"福島（福島）","name_k":"ふくしま","previous_next":"\n郡山（福島）\t白石蔵王\t","latitude_longitude":"https://map.goo.ne.jp/s_gootransit/staticmap.php?MAP=E140.27.48.000N37.45.5.400&ZM=8&SZ=672,120","address":"福島市栄町","postcode":"9608031","trangit":"\n山形線\n東北・北海道新幹線\n東北本線\n福島交通飯坂線\n阿武隈急行\n"},{"aria":"北海道","line":"JR東北・北海道新幹線","name":"白石蔵王","name_k":"しろいしざおう","previous_next":"\n福島（福島）\t仙台\t","latitude_longitude":"https://map.goo.ne.jp/s_gootransit/staticmap.php?MAP=E140.38.10.400N37.59.31.100&ZM=8&SZ=672,120","address":"白石市大鷹沢三沢","postcode":"9890213","trangit":"\n東北・北海道新幹線\n"},{"aria":"北海道","line":"JR東北・北海道新幹線","name":"仙台","name_k":"せんだい","previous_next":"\n白石蔵王\t古川\t","latitude_longitude":"https://map.goo.ne.jp/s_gootransit/staticmap.php?MAP=E140.53.14.800N38.15.26.300&ZM=8&SZ=672,120","address":"仙台市青葉区中央","postcode":"9800021","trangit":"\n仙台地下鉄南北線\n仙台地下鉄東西線\n仙台空港アクセス線\n仙山線\n仙石線\n常磐線\n東北・北海道新幹線\n東北本線\n東北本線利府支線\n"},{"aria":"北海道","line":"JR東北・北海道新幹線","name":"古川","name_k":"ふるかわ","previous_next":"\n仙台\tくりこま高原\t","latitude_longitude":"https://map.goo.ne.jp/s_gootransit/staticmap.php?MAP=E140.58.16.300N38.34.3.600&ZM=8&SZ=672,120","address":"大崎市古川駅前大通","postcode":"9896162","trangit":"\n東北・北海道新幹線\n陸羽東線\n"},{"aria":"北海道","line":"JR東北・北海道新幹線","name":"くりこま高原","name_k":"くりこまこうげん","previous_next":"\n古川\t一ノ関\t","latitude_longitude":"https://map.goo.ne.jp/s_gootransit/staticmap.php?MAP=E141.4.30.300N38.44.45.600&ZM=8&SZ=672,120","address":"栗原市志波姫新熊谷","postcode":"9895612","trangit":"\n東北・北海道新幹線\n"},{"aria":"北海道","line":"JR東北・北海道新幹線","name":"一ノ関","name_k":"いちのせき","previous_next":"\nくりこま高原\t水沢江刺\t","latitude_longitude":"https://map.goo.ne.jp/s_gootransit/staticmap.php?MAP=E141.8.33.200N38.55.25.100&ZM=8&SZ=672,120","address":"一関市駅前","postcode":"0210867","trangit":"\n大船渡線\n東北・北海道新幹線\n東北本線\n"},{"aria":"北海道","line":"JR東北・北海道新幹線","name":"水沢江刺","name_k":"みずさわえさし","previous_next":"\n一ノ関\t北上\t","latitude_longitude":"https://map.goo.ne.jp/s_gootransit/staticmap.php?MAP=E141.11.31.700N39.8.32.400&ZM=8&SZ=672,120","address":"奥州市水沢区羽田町駅前","postcode":"0230104","trangit":"\n東北・北海道新幹線\n"},{"aria":"北海道","line":"JR東北・北海道新幹線","name":"北上","name_k":"きたかみ","previous_next":"\n水沢江刺\t新花巻\t","latitude_longitude":"https://map.goo.ne.jp/s_gootransit/staticmap.php?MAP=E141.7.32.200N39.16.43.700&ZM=8&SZ=672,120","address":"北上市大通り","postcode":"0240061","trangit":"\n北上線\n東北・北海道新幹線\n東北本線\n"},{"aria":"北海道","line":"JR東北・北海道新幹線","name":"新花巻","name_k":"しんはなまき","previous_next":"\n北上\t盛岡\t","latitude_longitude":"https://map.goo.ne.jp/s_gootransit/staticmap.php?MAP=E141.10.37.300N39.24.10.700&ZM=8&SZ=672,120","address":"花巻市矢沢","postcode":"0250011","trangit":"\n東北・北海道新幹線\n釜石線\n"},{"aria":"北海道","line":"JR東北・北海道新幹線","name":"盛岡","name_k":"もりおか","previous_next":"\n新花巻\tいわて沼宮内\t","latitude_longitude":"https://map.goo.ne.jp/s_gootransit/staticmap.php?MAP=E141.8.22.400N39.41.54.600&ZM=8&SZ=672,120","address":"盛岡市盛岡駅前通","postcode":"0200034","trangit":"\nいわて銀河鉄道\n山田線\n東北・北海道新幹線\n東北本線\n田沢湖線\n"},{"aria":"北海道","line":"JR東北・北海道新幹線","name":"いわて沼宮内","name_k":"いわてぬまくない","previous_next":"\n盛岡\t二戸\t","latitude_longitude":"https://map.goo.ne.jp/s_gootransit/staticmap.php?MAP=E141.13.15.200N39.57.27.200&ZM=8&SZ=672,120","address":"岩手郡岩手町江刈内","postcode":"0284303","trangit":"\nいわて銀河鉄道\n東北・北海道新幹線\n"},{"aria":"北海道","line":"JR東北・北海道新幹線","name":"二戸","name_k":"にのへ","previous_next":"\nいわて沼宮内\t八戸\t","latitude_longitude":"https://map.goo.ne.jp/s_gootransit/staticmap.php?MAP=E141.17.22.600N40.15.25.100&ZM=8&SZ=672,120","address":"二戸市石切所","postcode":"0286103","trangit":"\nいわて銀河鉄道\n東北・北海道新幹線\n"},{"aria":"北海道","line":"JR東北・北海道新幹線","name":"八戸","name_k":"はちのへ","previous_next":"\n二戸\t七戸十和田\t","latitude_longitude":"https://map.goo.ne.jp/s_gootransit/staticmap.php?MAP=E141.26.6.100N40.30.23.600&ZM=8&SZ=672,120","address":"八戸市尻内町","postcode":"0391101","trangit":"\n八戸線\n東北・北海道新幹線\n青い森鉄道\n"},{"aria":"北海道","line":"JR東北・北海道新幹線","name":"七戸十和田","name_k":"しちのへとわだ","previous_next":"\n八戸\t新青森\t","latitude_longitude":"https://map.goo.ne.jp/s_gootransit/staticmap.php?MAP=E141.9.26.600N40.43.2.400&ZM=8&SZ=672,120","address":"上北郡七戸町荒熊内","postcode":"0392501","trangit":"\n東北・北海道新幹線\n"},{"aria":"北海道","line":"JR東北・北海道新幹線","name":"新青森","name_k":"しんあおもり","previous_next":"\n七戸十和田\t奥津軽いまべつ\t","latitude_longitude":"https://map.goo.ne.jp/s_gootransit/staticmap.php?MAP=E140.41.49.300N40.49.29.600&ZM=8&SZ=672,120","address":"青森市石江","postcode":"0380003","trangit":"\n奥羽本線\n東北・北海道新幹線\n"},{"aria":"北海道","line":"JR東北・北海道新幹線","name":"奥津軽いまべつ","name_k":"おくつがるいまべつ","previous_next":"\n新青森\t木古内\t","latitude_longitude":"https://map.goo.ne.jp/s_gootransit/staticmap.php?MAP=E140.31.8.900N41.8.32.900&ZM=8&SZ=672,120","address":"東津軽郡今別町大川平","postcode":"0301505","trangit":"\n東北・北海道新幹線\n"},{"aria":"北海道","line":"JR東北・北海道新幹線","name":"木古内","name_k":"きこない","previous_next":"\n奥津軽いまべつ\t新函館北斗\t","latitude_longitude":"https://map.goo.ne.jp/s_gootransit/staticmap.php?MAP=E140.26.15.300N41.40.29.900&ZM=8&SZ=672,120","address":"上磯郡木古内町本町","postcode":"0490422","trangit":"\n東北・北海道新幹線\n津軽海峡線\n道南いさりび鉄道\n"},{"aria":"北海道","line":"JR東北・北海道新幹線","name":"新函館北斗","name_k":"しんはこだてほくと","previous_next":"\n木古内\t\t","latitude_longitude":"https://map.goo.ne.jp/s_gootransit/staticmap.php?MAP=E140.39.1.200N41.54.10.100&ZM=8&SZ=672,120","address":"北斗市市渡","postcode":"0411242","trangit":"\n函館本線\n東北・北海道新幹線\n"},{"aria":"北海道","line":"道南いさりび鉄道","name":"木古内","name_k":"きこない","previous_next":"\n\t札苅\t","latitude_longitude":"https://map.goo.ne.jp/s_gootransit/staticmap.php?MAP=E140.26.15.300N41.40.29.900&ZM=8&SZ=672,120","address":"上磯郡木古内町本町","postcode":"0490422","trangit":"\n東北・北海道新幹線\n津軽海峡線\n道南いさりび鉄道\n"},{"aria":"北海道","line":"道南いさりび鉄道","name":"札苅","name_k":"さつかり","previous_next":"\n木古内\t泉沢\t","latitude_longitude":"https://map.goo.ne.jp/s_gootransit/staticmap.php?MAP=E140.28.18.700N41.41.48.300&ZM=8&SZ=672,120","address":"上磯郡木古内町札苅","postcode":"0490411","trangit":"\n津軽海峡線\n道南いさりび鉄道\n"},{"aria":"北海道","line":"道南いさりび鉄道","name":"泉沢","name_k":"いずみさわ","previous_next":"\n札苅\t釜谷\t","latitude_longitude":"https://map.goo.ne.jp/s_gootransit/staticmap.php?MAP=E140.30.36.800N41.41.53.800&ZM=8&SZ=672,120","address":"上磯郡木古内町泉沢","postcode":"0490405","trangit":"\n津軽海峡線\n道南いさりび鉄道\n"},{"aria":"北海道","line":"道南いさりび鉄道","name":"釜谷","name_k":"かまや","previous_next":"\n泉沢\t渡島当別\t","latitude_longitude":"https://map.goo.ne.jp/s_gootransit/staticmap.php?MAP=E140.32.26.400N41.42.34.400&ZM=8&SZ=672,120","address":"上磯郡木古内町釜谷","postcode":"0490403","trangit":"\n津軽海峡線\n道南いさりび鉄道\n"},{"aria":"北海道","line":"道南いさりび鉄道","name":"渡島当別","name_k":"おしまとうべつ","previous_next":"\n釜谷\t茂辺地\t","latitude_longitude":"https://map.goo.ne.jp/s_gootransit/staticmap.php?MAP=E140.34.57.600N41.44.5.400&ZM=8&SZ=672,120","address":"北斗市当別","postcode":"0490282","trangit":"\n津軽海峡線\n道南いさりび鉄道\n"},{"aria":"北海道","line":"道南いさりび鉄道","name":"茂辺地","name_k":"もへじ","previous_next":"\n渡島当別\t上磯\t","latitude_longitude":"https://map.goo.ne.jp/s_gootransit/staticmap.php?MAP=E140.36.15.200N41.45.50.300&ZM=8&SZ=672,120","address":"北斗市茂辺地","postcode":"0490281","trangit":"\n津軽海峡線\n道南いさりび鉄道\n"},{"aria":"北海道","line":"道南いさりび鉄道","name":"上磯","name_k":"かみいそ","previous_next":"\n茂辺地\t清川口\t","latitude_longitude":"https://map.goo.ne.jp/s_gootransit/staticmap.php?MAP=E140.38.39.100N41.49.1.300&ZM=8&SZ=672,120","address":"北斗市飯生","postcode":"0490161","trangit":"\n津軽海峡線\n道南いさりび鉄道\n"},{"aria":"北海道","line":"道南いさりび鉄道","name":"清川口","name_k":"きよかわぐち","previous_next":"\n上磯\t久根別\t","latitude_longitude":"https://map.goo.ne.jp/s_gootransit/staticmap.php?MAP=E140.39.23.400N41.49.19.300&ZM=8&SZ=672,120","address":"北斗市中野通","postcode":"0490156","trangit":"\n津軽海峡線\n道南いさりび鉄道\n"},{"aria":"北海道","line":"道南いさりび鉄道","name":"久根別","name_k":"くねべつ","previous_next":"\n清川口\t東久根別\t","latitude_longitude":"https://map.goo.ne.jp/s_gootransit/staticmap.php?MAP=E140.40.12.900N41.49.26.600&ZM=8&SZ=672,120","address":"北斗市久根別","postcode":"0490121","trangit":"\n津軽海峡線\n道南いさりび鉄道\n"},{"aria":"北海道","line":"道南いさりび鉄道","name":"東久根別","name_k":"ひがしくねべつ","previous_next":"\n久根別\t七重浜\t","latitude_longitude":"https://map.goo.ne.jp/s_gootransit/staticmap.php?MAP=E140.41.0.100N41.49.24.500&ZM=8&SZ=672,120","address":"北斗市久根別","postcode":"0490121","trangit":"\n津軽海峡線\n道南いさりび鉄道\n"},{"aria":"北海道","line":"道南いさりび鉄道","name":"七重浜","name_k":"ななえはま","previous_next":"\n東久根別\t五稜郭\t","latitude_longitude":"https://map.goo.ne.jp/s_gootransit/staticmap.php?MAP=E140.42.45.600N41.48.53.000&ZM=8&SZ=672,120","address":"北斗市七重浜","postcode":"0490111","trangit":"\n津軽海峡線\n道南いさりび鉄道\n"},{"aria":"北海道","line":"道南いさりび鉄道","name":"五稜郭","name_k":"ごりょうかく","previous_next":"\n七重浜\t\t","latitude_longitude":"https://map.goo.ne.jp/s_gootransit/staticmap.php?MAP=E140.44.13.700N41.48.3.300&ZM=8&SZ=672,120","address":"函館市亀田本町","postcode":"0410813","trangit":"\n函館本線\n津軽海峡線\n道南いさりび鉄道\n"},{"aria":"北海道","line":"札幌市電（環状線）","name":"西４丁目","name_k":"にしよんちょうめ","previous_next":"\n\t西８丁目\t","latitude_longitude":"https://map.goo.ne.jp/s_gootransit/staticmap.php?MAP=E141.21.20.000N43.3.23.100&ZM=8&SZ=672,120","address":"札幌市中央区南一条西","postcode":"0600061","trangit":"\n札幌市電（環状線）\n"},{"aria":"北海道","line":"札幌市電（環状線）","name":"西８丁目","name_k":"にしはっちょうめ","previous_next":"\n西４丁目\t中央区役所前\t","latitude_longitude":"https://map.goo.ne.jp/s_gootransit/staticmap.php?MAP=E141.20.59.500N43.3.20.500&ZM=8&SZ=672,120","address":"札幌市中央区南一条西","postcode":"0600061","trangit":"\n札幌市電（環状線）\n"},{"aria":"北海道","line":"札幌市電（環状線）","name":"中央区役所前","name_k":"ちゅうおうくやくしょまえ","previous_next":"\n西８丁目\t西１５丁目\t","latitude_longitude":"https://map.goo.ne.jp/s_gootransit/staticmap.php?MAP=E141.20.40.500N43.3.17.800&ZM=8&SZ=672,120","address":"札幌市中央区南一条西","postcode":"0600061","trangit":"\n札幌市電（環状線）\n"},{"aria":"北海道","line":"札幌市電（環状線）","name":"西１５丁目","name_k":"にしじゅうごちょうめ","previous_next":"\n中央区役所前\t西線６条\t","latitude_longitude":"https://map.goo.ne.jp/s_gootransit/staticmap.php?MAP=E141.20.20.000N43.3.14.000&ZM=8&SZ=672,120","address":"札幌市中央区南一条西","postcode":"0600061","trangit":"\n札幌市電（環状線）\n"},{"aria":"北海道","line":"札幌市電（環状線）","name":"西線６条","name_k":"にしせんろくじょう","previous_next":"\n西１５丁目\t西線９条旭山公園通\t","latitude_longitude":"https://map.goo.ne.jp/s_gootransit/staticmap.php?MAP=E141.20.19.500N43.2.55.800&ZM=8&SZ=672,120","address":"札幌市中央区南六条西","postcode":"0640806","trangit":"\n札幌市電（環状線）\n"},{"aria":"北海道","line":"札幌市電（環状線）","name":"西線９条旭山公園通","name_k":"にしせんくじょうあさひやまこうえんどおり","previous_next":"\n西線６条\t西線１１条\t","latitude_longitude":"https://map.goo.ne.jp/s_gootransit/staticmap.php?MAP=E141.20.20.800N43.2.43.700&ZM=8&SZ=672,120","address":"札幌市中央区南八条西","postcode":"0640808","trangit":"\n札幌市電（環状線）\n"},{"aria":"北海道","line":"札幌市電（環状線）","name":"西線１１条","name_k":"にしせんじゅういちじょう","previous_next":"\n西線９条旭山公園通\t西線１４条\t","latitude_longitude":"https://map.goo.ne.jp/s_gootransit/staticmap.php?MAP=E141.20.22.500N43.2.31.800&ZM=8&SZ=672,120","address":"札幌市中央区南十一条西","postcode":"0640811","trangit":"\n札幌市電（環状線）\n"},{"aria":"北海道","line":"札幌市電（環状線）","name":"西線１４条","name_k":"にしせんじゅうよじょう","previous_next":"\n西線１１条\t西線１６条\t","latitude_longitude":"https://map.goo.ne.jp/s_gootransit/staticmap.php?MAP=E141.20.24.500N43.2.16.300&ZM=8&SZ=672,120","address":"札幌市中央区南十四条西","postcode":"0640914","trangit":"\n札幌市電（環状線）\n"},{"aria":"北海道","line":"札幌市電（環状線）","name":"西線１６条","name_k":"にしせんじゅうろくじょう","previous_next":"\n西線１４条\tロープウェイ入口\t","latitude_longitude":"https://map.goo.ne.jp/s_gootransit/staticmap.php?MAP=E141.20.26.000N43.2.4.200&ZM=8&SZ=672,120","address":"札幌市中央区南十六条西","postcode":"0640916","trangit":"\n札幌市電（環状線）\n"},{"aria":"北海道","line":"札幌市電（環状線）","name":"ロープウェイ入口","name_k":"ろーぷうぇいいりぐち","previous_next":"\n西線１６条\t電車事業所前\t","latitude_longitude":"https://map.goo.ne.jp/s_gootransit/staticmap.php?MAP=E141.20.27.600N43.1.52.100&ZM=8&SZ=672,120","address":"札幌市中央区南十九条西","postcode":"0640919","trangit":"\n札幌市電（環状線）\n"},{"aria":"北海道","line":"札幌市電（環状線）","name":"電車事業所前","name_k":"でんしゃじぎょうしょまえ","previous_next":"\nロープウェイ入口\t中央図書館前\t","latitude_longitude":"https://map.goo.ne.jp/s_gootransit/staticmap.php?MAP=E141.20.29.000N43.1.41.100&ZM=8&SZ=672,120","address":"札幌市中央区南二十一条西","postcode":"0640921","trangit":"\n札幌市電（環状線）\n"},{"aria":"北海道","line":"札幌市電（環状線）","name":"中央図書館前","name_k":"ちゅうおうとしょかんまえ","previous_next":"\n電車事業所前\t石山通\t","latitude_longitude":"https://map.goo.ne.jp/s_gootransit/staticmap.php?MAP=E141.20.40.200N43.1.41.000&ZM=8&SZ=672,120","address":"札幌市中央区南二十一条西","postcode":"0640921","trangit":"\n札幌市電（環状線）\n"},{"aria":"北海道","line":"札幌市電（環状線）","name":"石山通","name_k":"いしやまどおり","previous_next":"\n中央図書館前\t東屯田通\t","latitude_longitude":"https://map.goo.ne.jp/s_gootransit/staticmap.php?MAP=E141.20.52.800N43.1.41.700&ZM=8&SZ=672,120","address":"札幌市中央区南二十一条西","postcode":"0640921","trangit":"\n札幌市電（環状線）\n"},{"aria":"北海道","line":"札幌市電（環状線）","name":"東屯田通","name_k":"ひがしとんでんどおり","previous_next":"\n石山通\t幌南小学校前\t","latitude_longitude":"https://map.goo.ne.jp/s_gootransit/staticmap.php?MAP=E141.21.7.200N43.1.42.700&ZM=8&SZ=672,120","address":"札幌市中央区南二十一条西","postcode":"0640921","trangit":"\n札幌市電（環状線）\n"},{"aria":"北海道","line":"札幌市電（環状線）","name":"幌南小学校前","name_k":"こうなんしょうがっこうまえ","previous_next":"\n東屯田通\t山鼻１９条\t","latitude_longitude":"https://map.goo.ne.jp/s_gootransit/staticmap.php?MAP=E141.21.20.000N43.1.47.500&ZM=8&SZ=672,120","address":"札幌市中央区南二十一条西","postcode":"0640921","trangit":"\n札幌市電（環状線）\n"},{"aria":"北海道","line":"札幌市電（環状線）","name":"山鼻１９条","name_k":"やまはなじゅうくじょう","previous_next":"\n幌南小学校前\t静修学園前\t","latitude_longitude":"https://map.goo.ne.jp/s_gootransit/staticmap.php?MAP=E141.21.19.100N43.1.55.700&ZM=8&SZ=672,120","address":"札幌市中央区南十九条西","postcode":"0640919","trangit":"\n札幌市電（環状線）\n"},{"aria":"北海道","line":"札幌市電（環状線）","name":"静修学園前","name_k":"せいしゅうがくえんまえ","previous_next":"\n山鼻１９条\t行啓通\t","latitude_longitude":"https://map.goo.ne.jp/s_gootransit/staticmap.php?MAP=E141.21.17.100N43.2.9.100&ZM=8&SZ=672,120","address":"札幌市中央区南十六条西","postcode":"0640916","trangit":"\n札幌市電（環状線）\n"},{"aria":"北海道","line":"札幌市電（環状線）","name":"行啓通","name_k":"ぎょうけいどおり","previous_next":"\n静修学園前\t中島公園通\t","latitude_longitude":"https://map.goo.ne.jp/s_gootransit/staticmap.php?MAP=E141.21.16.000N43.2.20.300&ZM=8&SZ=672,120","address":"札幌市中央区南十四条西","postcode":"0640914","trangit":"\n札幌市電（環状線）\n"},{"aria":"北海道","line":"札幌市電（環状線）","name":"中島公園通","name_k":"なかじまこうえんどおり","previous_next":"\n行啓通\t山鼻９条\t","latitude_longitude":"https://map.goo.ne.jp/s_gootransit/staticmap.php?MAP=E141.21.13.700N43.2.35.200&ZM=8&SZ=672,120","address":"札幌市中央区南十一条西","postcode":"0640811","trangit":"\n札幌市電（環状線）\n"},{"aria":"北海道","line":"札幌市電（環状線）","name":"山鼻９条","name_k":"やまはなくじょう","previous_next":"\n中島公園通\t東本願寺前\t","latitude_longitude":"https://map.goo.ne.jp/s_gootransit/staticmap.php?MAP=E141.21.12.500N43.2.46.300&ZM=8&SZ=672,120","address":"札幌市中央区南九条西","postcode":"0640809","trangit":"\n札幌市電（環状線）\n"},{"aria":"北海道","line":"札幌市電（環状線）","name":"東本願寺前","name_k":"ひがしほんがんじまえ","previous_next":"\n山鼻９条\t資生館小学校前\t","latitude_longitude":"https://map.goo.ne.jp/s_gootransit/staticmap.php?MAP=E141.21.11.500N43.2.56.300&ZM=8&SZ=672,120","address":"札幌市中央区南七条西","postcode":"0640807","trangit":"\n札幌市電（環状線）\n"},{"aria":"北海道","line":"札幌市電（環状線）","name":"資生館小学校前","name_k":"しせいかんしょうがっこうまえ","previous_next":"\n東本願寺前\tすすきの\t","latitude_longitude":"https://map.goo.ne.jp/s_gootransit/staticmap.php?MAP=E141.21.9.800N43.3.9.500&ZM=8&SZ=672,120","address":"札幌市中央区南四条西","postcode":"0640804","trangit":"\n札幌市電（環状線）\n"},{"aria":"北海道","line":"札幌市電（環状線）","name":"すすきの","name_k":"すすきの","previous_next":"\n資生館小学校前\t狸小路\t","latitude_longitude":"https://map.goo.ne.jp/s_gootransit/staticmap.php?MAP=E141.21.25.400N43.3.10.900&ZM=8&SZ=672,120","address":"札幌市中央区南四条西","postcode":"0640804","trangit":"\n札幌地下鉄南北線\n札幌市電（環状線）\n"},{"aria":"北海道","line":"札幌市電（環状線）","name":"狸小路","name_k":"たぬきこうじ","previous_next":"\nすすきの\t\t","latitude_longitude":"https://map.goo.ne.jp/s_gootransit/staticmap.php?MAP=E141.21.23.500N43.3.17.300&ZM=8&SZ=672,120","address":"札幌市中央区南二条西","postcode":"0600062","trangit":"\n札幌市電（環状線）\n"},{"aria":"北海道","line":"函館市電２系統","name":"湯の川","name_k":"ゆのかわ","previous_next":"\n\t湯の川温泉\t","latitude_longitude":"https://map.goo.ne.jp/s_gootransit/staticmap.php?MAP=E140.47.37.000N41.46.42.500&ZM=8&SZ=672,120","address":"函館市湯川町","postcode":"0420932","trangit":"\n函館市電２系統\n函館市電５系統\n"},{"aria":"北海道","line":"函館市電２系統","name":"湯の川温泉","name_k":"ゆのかわおんせん","previous_next":"\n湯の川\t函館アリーナ前\t","latitude_longitude":"https://map.goo.ne.jp/s_gootransit/staticmap.php?MAP=E140.47.19.300N41.46.38.700&ZM=8&SZ=672,120","address":"函館市湯川町","postcode":"0420932","trangit":"\n函館市電２系統\n函館市電５系統\n"},{"aria":"北海道","line":"函館市電２系統","name":"函館アリーナ前","name_k":"はこだてありーなまえ","previous_next":"\n湯の川温泉\t駒場車庫前\t","latitude_longitude":"https://map.goo.ne.jp/s_gootransit/staticmap.php?MAP=E140.47.9.100N41.46.45.600&ZM=8&SZ=672,120","address":"函館市湯川町","postcode":"0420932","trangit":"\n函館市電２系統\n函館市電５系統\n"},{"aria":"北海道","line":"函館市電２系統","name":"駒場車庫前","name_k":"こまばしゃこまえ","previous_next":"\n函館アリーナ前\t競馬場前（北海道）\t","latitude_longitude":"https://map.goo.ne.jp/s_gootransit/staticmap.php?MAP=E140.46.57.500N41.46.50.700&ZM=8&SZ=672,120","address":"函館市深堀町","postcode":"0420941","trangit":"\n函館市電２系統\n函館市電５系統\n"},{"aria":"北海道","line":"函館市電２系統","name":"競馬場前（北海道）","name_k":"けいばじょうまえ","previous_next":"\n駒場車庫前\t深堀町\t","latitude_longitude":"https://map.goo.ne.jp/s_gootransit/staticmap.php?MAP=E140.46.48.200N41.46.53.800&ZM=8&SZ=672,120","address":"函館市深堀町","postcode":"0420941","trangit":"\n函館市電２系統\n函館市電５系統\n"},{"aria":"北海道","line":"函館市電２系統","name":"深堀町","name_k":"ふかぼりちょう","previous_next":"\n競馬場前（北海道）\t柏木町\t","latitude_longitude":"https://map.goo.ne.jp/s_gootransit/staticmap.php?MAP=E140.46.24.600N41.47.4.300&ZM=8&SZ=672,120","address":"函館市柏木町","postcode":"0420942","trangit":"\n函館市電２系統\n函館市電５系統\n"},{"aria":"北海道","line":"函館市電２系統","name":"柏木町","name_k":"かしわぎちょう","previous_next":"\n深堀町\t杉並町\t","latitude_longitude":"https://map.goo.ne.jp/s_gootransit/staticmap.php?MAP=E140.46.7.500N41.47.7.200&ZM=8&SZ=672,120","address":"函館市柏木町","postcode":"0420942","trangit":"\n函館市電２系統\n函館市電５系統\n"},{"aria":"北海道","line":"函館市電２系統","name":"杉並町","name_k":"すぎなみちょう","previous_next":"\n柏木町\t五稜郭公園前\t","latitude_longitude":"https://map.goo.ne.jp/s_gootransit/staticmap.php?MAP=E140.45.42.200N41.47.10.100&ZM=8&SZ=672,120","address":"函館市杉並町","postcode":"0400004","trangit":"\n函館市電２系統\n函館市電５系統\n"},{"aria":"北海道","line":"函館市電２系統","name":"五稜郭公園前","name_k":"ごりょうかくこうえんまえ","previous_next":"\n杉並町\t中央病院前\t","latitude_longitude":"https://map.goo.ne.jp/s_gootransit/staticmap.php?MAP=E140.45.20.500N41.47.11.800&ZM=8&SZ=672,120","address":"函館市本町","postcode":"0400011","trangit":"\n函館市電２系統\n函館市電５系統\n"},{"aria":"北海道","line":"函館市電２系統","name":"中央病院前","name_k":"ちゅうおうびょういんまえ","previous_next":"\n五稜郭公園前\t千代台\t","latitude_longitude":"https://map.goo.ne.jp/s_gootransit/staticmap.php?MAP=E140.45.16.000N41.47.2.200&ZM=8&SZ=672,120","address":"函館市本町","postcode":"0400011","trangit":"\n函館市電２系統\n函館市電５系統\n"},{"aria":"北海道","line":"函館市電２系統","name":"千代台","name_k":"ちよがだい","previous_next":"\n中央病院前\t堀川町\t","latitude_longitude":"https://map.goo.ne.jp/s_gootransit/staticmap.php?MAP=E140.45.8.200N41.46.54.000&ZM=8&SZ=672,120","address":"函館市千代台町","postcode":"0400013","trangit":"\n函館市電２系統\n函館市電５系統\n"},{"aria":"北海道","line":"函館市電２系統","name":"堀川町","name_k":"ほりかわちょう","previous_next":"\n千代台\t昭和橋\t","latitude_longitude":"https://map.goo.ne.jp/s_gootransit/staticmap.php?MAP=E140.44.52.500N41.46.41.200&ZM=8&SZ=672,120","address":"函館市千代台町","postcode":"0400013","trangit":"\n函館市電２系統\n函館市電５系統\n"},{"aria":"北海道","line":"函館市電２系統","name":"昭和橋","name_k":"しょうわばし","previous_next":"\n堀川町\t千歳町（北海道）\t","latitude_longitude":"https://map.goo.ne.jp/s_gootransit/staticmap.php?MAP=E140.44.39.600N41.46.31.100&ZM=8&SZ=672,120","address":"函館市堀川町","postcode":"0400025","trangit":"\n函館市電２系統\n函館市電５系統\n"},{"aria":"北海道","line":"函館市電２系統","name":"千歳町（北海道）","name_k":"ちとせちょう","previous_next":"\n昭和橋\t新川町（北海道）\t","latitude_longitude":"https://map.goo.ne.jp/s_gootransit/staticmap.php?MAP=E140.44.31.600N41.46.24.700&ZM=8&SZ=672,120","address":"函館市千歳町","postcode":"0400033","trangit":"\n函館市電２系統\n函館市電５系統\n"},{"aria":"北海道","line":"函館市電２系統","name":"新川町（北海道）","name_k":"しんかわちょう","previous_next":"\n千歳町（北海道）\t松風町\t","latitude_longitude":"https://map.goo.ne.jp/s_gootransit/staticmap.php?MAP=E140.44.22.300N41.46.17.300&ZM=8&SZ=672,120","address":"函館市千歳町","postcode":"0400033","trangit":"\n函館市電２系統\n函館市電５系統\n"},{"aria":"北海道","line":"函館市電２系統","name":"松風町","name_k":"まつかぜちょう","previous_next":"\n新川町（北海道）\t函館駅前\t","latitude_longitude":"https://map.goo.ne.jp/s_gootransit/staticmap.php?MAP=E140.44.12.000N41.46.8.000&ZM=8&SZ=672,120","address":"函館市松風町","postcode":"0400035","trangit":"\n函館市電２系統\n函館市電５系統\n"},{"aria":"北海道","line":"函館市電２系統","name":"函館駅前","name_k":"はこだてえきまえ","previous_next":"\n松風町\t市役所前（函館）\t","latitude_longitude":"https://map.goo.ne.jp/s_gootransit/staticmap.php?MAP=E140.43.52.600N41.46.10.500&ZM=8&SZ=672,120","address":"函館市若松町","postcode":"0400063","trangit":"\n函館市電２系統\n函館市電５系統\n"},{"aria":"北海道","line":"函館市電２系統","name":"市役所前（函館）","name_k":"しやくしょまえ","previous_next":"\n函館駅前\t魚市場通\t","latitude_longitude":"https://map.goo.ne.jp/s_gootransit/staticmap.php?MAP=E140.43.44.800N41.46.0.700&ZM=8&SZ=672,120","address":"函館市大手町","postcode":"0400064","trangit":"\n函館市電２系統\n函館市電５系統\n"},{"aria":"北海道","line":"函館市電２系統","name":"魚市場通","name_k":"うおいちばどおり","previous_next":"\n市役所前（函館）\t十字街\t","latitude_longitude":"https://map.goo.ne.jp/s_gootransit/staticmap.php?MAP=E140.43.35.300N41.45.51.000&ZM=8&SZ=672,120","address":"函館市豊川町","postcode":"0400065","trangit":"\n函館市電２系統\n函館市電５系統\n"},{"aria":"北海道","line":"函館市電２系統","name":"十字街","name_k":"じゅうじがい","previous_next":"\n魚市場通\t宝来町\t","latitude_longitude":"https://map.goo.ne.jp/s_gootransit/staticmap.php?MAP=E140.43.20.100N41.45.41.500&ZM=8&SZ=672,120","address":"函館市末広町","postcode":"0400053","trangit":"\n函館市電２系統\n函館市電５系統\n"},{"aria":"北海道","line":"函館市電２系統","name":"宝来町","name_k":"ほうらいちょう","previous_next":"\n十字街\t青柳町\t","latitude_longitude":"https://map.goo.ne.jp/s_gootransit/staticmap.php?MAP=E140.43.25.000N41.45.29.500&ZM=8&SZ=672,120","address":"函館市宝来町","postcode":"0400043","trangit":"\n函館市電２系統\n函館市電５系統\n"},{"aria":"北海道","line":"函館市電２系統","name":"青柳町","name_k":"あおやぎちょう","previous_next":"\n宝来町\t谷地頭\t","latitude_longitude":"https://map.goo.ne.jp/s_gootransit/staticmap.php?MAP=E140.43.19.200N41.45.14.100&ZM=8&SZ=672,120","address":"函館市青柳町","postcode":"0400044","trangit":"\n函館市電２系統\n函館市電５系統\n"},{"aria":"北海道","line":"函館市電２系統","name":"谷地頭","name_k":"やちがしら","previous_next":"\n青柳町\t\t","latitude_longitude":"https://map.goo.ne.jp/s_gootransit/staticmap.php?MAP=E140.43.11.700N41.45.2.500&ZM=8&SZ=672,120","address":"函館市谷地頭町","postcode":"0400046","trangit":"\n函館市電２系統\n函館市電５系統\n"},{"aria":"北海道","line":"函館市電５系統","name":"十字街","name_k":"じゅうじがい","previous_next":"\n\t末広町（北海道）\t","latitude_longitude":"https://map.goo.ne.jp/s_gootransit/staticmap.php?MAP=E140.43.20.100N41.45.41.500&ZM=8&SZ=672,120","address":"函館市末広町","postcode":"0400053","trangit":"\n函館市電２系統\n函館市電５系統\n"},{"aria":"北海道","line":"函館市電５系統","name":"末広町（北海道）","name_k":"すえひろちょう","previous_next":"\n十字街\t大町（北海道）\t","latitude_longitude":"https://map.goo.ne.jp/s_gootransit/staticmap.php?MAP=E140.42.56.600N41.45.51.000&ZM=8&SZ=672,120","address":"函館市末広町","postcode":"0400053","trangit":"\n函館市電５系統\n"},{"aria":"北海道","line":"函館市電５系統","name":"大町（北海道）","name_k":"おおまち","previous_next":"\n末広町（北海道）\t函館どつく前\t","latitude_longitude":"https://map.goo.ne.jp/s_gootransit/staticmap.php?MAP=E140.42.46.600N41.46.2.300&ZM=8&SZ=672,120","address":"函館市大町","postcode":"0400052","trangit":"\n函館市電５系統\n"},{"aria":"北海道","line":"函館市電５系統","name":"函館どつく前","name_k":"はこだてどっくまえ","previous_next":"\n大町（北海道）\t\t","latitude_longitude":"https://map.goo.ne.jp/s_gootransit/staticmap.php?MAP=E140.42.28.300N41.46.14.000&ZM=8&SZ=672,120","address":"函館市入舟町","postcode":"0400057","trangit":"\n函館市電５系統\n"},{"aria":"北海道","line":"函館山ロープウェイ","name":"山麓（函館山）","name_k":"さんろく","previous_next":"\n\t山頂（函館山）\t","latitude_longitude":"https://map.goo.ne.jp/s_gootransit/staticmap.php?MAP=E140.43.4.200N41.45.30.000&ZM=8&SZ=672,120","address":"函館市元町","postcode":"0400054","trangit":"\n函館山ロープウェイ\n"},{"aria":"北海道","line":"函館山ロープウェイ","name":"山頂（函館山）","name_k":"さんちょう","previous_next":"\n山麓（函館山）\t\t","latitude_longitude":"https://map.goo.ne.jp/s_gootransit/staticmap.php?MAP=E140.42.30.600N41.45.24.100&ZM=8&SZ=672,120","address":"函館市函館山","postcode":"0400054","trangit":"\n函館山ロープウェイ\n"},{"aria":"北海道","line":"札幌地下鉄東西線","name":"宮の沢","name_k":"みやのさわ","previous_next":"\n\t発寒南\t","latitude_longitude":"https://map.goo.ne.jp/s_gootransit/staticmap.php?MAP=E141.16.53.200N43.5.13.900&ZM=8&SZ=672,120","address":"札幌市西区宮の沢一条","postcode":"0630051","trangit":"\n札幌地下鉄東西線\n"},{"aria":"北海道","line":"札幌地下鉄東西線","name":"発寒南","name_k":"はっさむみなみ","previous_next":"\n宮の沢\t琴似（札幌市営）\t","latitude_longitude":"https://map.goo.ne.jp/s_gootransit/staticmap.php?MAP=E141.17.40.300N43.4.43.500&ZM=8&SZ=672,120","address":"札幌市西区西町北","postcode":"0630061","trangit":"\n札幌地下鉄東西線\n"},{"aria":"北海道","line":"札幌地下鉄東西線","name":"琴似（札幌市営）","name_k":"ことに","previous_next":"\n発寒南\t二十四軒\t","latitude_longitude":"https://map.goo.ne.jp/s_gootransit/staticmap.php?MAP=E141.18.29.100N43.4.22.700&ZM=8&SZ=672,120","address":"札幌市西区琴似一条","postcode":"0630811","trangit":"\n札幌地下鉄東西線\n"},{"aria":"北海道","line":"札幌地下鉄東西線","name":"二十四軒","name_k":"にじゅうよんけん","previous_next":"\n琴似（札幌市営）\t西２８丁目\t","latitude_longitude":"https://map.goo.ne.jp/s_gootransit/staticmap.php?MAP=E141.19.2.900N43.4.4.800&ZM=8&SZ=672,120","address":"札幌市西区二十四軒一条","postcode":"0630801","trangit":"\n札幌地下鉄東西線\n"},{"aria":"北海道","line":"札幌地下鉄東西線","name":"西２８丁目","name_k":"にしにじゅうはっちょうめ","previous_next":"\n二十四軒\t円山公園\t","latitude_longitude":"https://map.goo.ne.jp/s_gootransit/staticmap.php?MAP=E141.19.5.700N43.3.30.700&ZM=8&SZ=672,120","address":"札幌市中央区北四条西","postcode":"0640824","trangit":"\n札幌地下鉄東西線\n"},{"aria":"北海道","line":"札幌地下鉄東西線","name":"円山公園","name_k":"まるやまこうえん","previous_next":"\n西２８丁目\t西１８丁目\t","latitude_longitude":"https://map.goo.ne.jp/s_gootransit/staticmap.php?MAP=E141.19.23.800N43.3.11.700&ZM=8&SZ=672,120","address":"札幌市中央区北一条西","postcode":"0640821","trangit":"\n札幌地下鉄東西線\n"},{"aria":"北海道","line":"札幌地下鉄東西線","name":"西１８丁目","name_k":"にしじゅうはっちょうめ","previous_next":"\n円山公園\t西１１丁目\t","latitude_longitude":"https://map.goo.ne.jp/s_gootransit/staticmap.php?MAP=E141.20.2.800N43.3.16.800&ZM=8&SZ=672,120","address":"札幌市中央区大通西","postcode":"0600042","trangit":"\n札幌地下鉄東西線\n"},{"aria":"北海道","line":"札幌地下鉄東西線","name":"西１１丁目","name_k":"にしじゅういっちょうめ","previous_next":"\n西１８丁目\t大通\t","latitude_longitude":"https://map.goo.ne.jp/s_gootransit/staticmap.php?MAP=E141.20.42.500N43.3.22.100&ZM=8&SZ=672,120","address":"札幌市中央区大通西","postcode":"0600042","trangit":"\n札幌地下鉄東西線\n"},{"aria":"北海道","line":"札幌地下鉄東西線","name":"大通","name_k":"おおどおり","previous_next":"\n西１１丁目\tバスセンター前\t","latitude_longitude":"https://map.goo.ne.jp/s_gootransit/staticmap.php?MAP=E141.21.21.100N43.3.27.300&ZM=8&SZ=672,120","address":"札幌市中央区大通西","postcode":"0600042","trangit":"\n札幌地下鉄南北線\n札幌地下鉄東西線\n札幌地下鉄東豊線\n"},{"aria":"北海道","line":"札幌地下鉄東西線","name":"バスセンター前","name_k":"ばすせんたーまえ","previous_next":"\n大通\t菊水\t","latitude_longitude":"https://map.goo.ne.jp/s_gootransit/staticmap.php?MAP=E141.21.56.700N43.3.32.500&ZM=8&SZ=672,120","address":"札幌市中央区南一条東","postcode":"0600051","trangit":"\n札幌地下鉄東西線\n"},{"aria":"北海道","line":"札幌地下鉄東西線","name":"菊水","name_k":"きくすい","previous_next":"\nバスセンター前\t東札幌\t","latitude_longitude":"https://map.goo.ne.jp/s_gootransit/staticmap.php?MAP=E141.22.35.200N43.3.17.300&ZM=8&SZ=672,120","address":"札幌市白石区菊水二条","postcode":"0030802","trangit":"\n札幌地下鉄東西線\n"},{"aria":"北海道","line":"札幌地下鉄東西線","name":"東札幌","name_k":"ひがしさっぽろ","previous_next":"\n菊水\t白石（札幌市営）\t","latitude_longitude":"https://map.goo.ne.jp/s_gootransit/staticmap.php?MAP=E141.23.18.500N43.2.57.400&ZM=8&SZ=672,120","address":"札幌市白石区東札幌二条","postcode":"0030002","trangit":"\n札幌地下鉄東西線\n"},{"aria":"北海道","line":"札幌地下鉄東西線","name":"白石（札幌市営）","name_k":"しろいし","previous_next":"\n東札幌\t南郷７丁目\t","latitude_longitude":"https://map.goo.ne.jp/s_gootransit/staticmap.php?MAP=E141.23.57.300N43.2.38.100&ZM=8&SZ=672,120","address":"札幌市白石区東札幌二条","postcode":"0030002","trangit":"\n札幌地下鉄東西線\n"},{"aria":"北海道","line":"札幌地下鉄東西線","name":"南郷７丁目","name_k":"なんごうななちょうめ","previous_next":"\n白石（札幌市営）\t南郷１３丁目\t","latitude_longitude":"https://map.goo.ne.jp/s_gootransit/staticmap.php?MAP=E141.24.52.600N43.2.16.200&ZM=8&SZ=672,120","address":"札幌市白石区南郷通","postcode":"0030023","trangit":"\n札幌地下鉄東西線\n"},{"aria":"北海道","line":"札幌地下鉄東西線","name":"南郷１３丁目","name_k":"なんごうじゅうさんちょうめ","previous_next":"\n南郷７丁目\t南郷１８丁目\t","latitude_longitude":"https://map.goo.ne.jp/s_gootransit/staticmap.php?MAP=E141.25.35.500N43.1.59.800&ZM=8&SZ=672,120","address":"札幌市白石区南郷通","postcode":"0030023","trangit":"\n札幌地下鉄東西線\n"},{"aria":"北海道","line":"札幌地下鉄東西線","name":"南郷１８丁目","name_k":"なんごうじゅうはっちょうめ","previous_next":"\n南郷１３丁目\t大谷地\t","latitude_longitude":"https://map.goo.ne.jp/s_gootransit/staticmap.php?MAP=E141.26.19.500N43.1.40.300&ZM=8&SZ=672,120","address":"札幌市白石区南郷通","postcode":"0030023","trangit":"\n札幌地下鉄東西線\n"},{"aria":"北海道","line":"札幌地下鉄東西線","name":"大谷地","name_k":"おおやち","previous_next":"\n南郷１８丁目\tひばりが丘（北海道）\t","latitude_longitude":"https://map.goo.ne.jp/s_gootransit/staticmap.php?MAP=E141.27.24.600N43.1.31.800&ZM=8&SZ=672,120","address":"札幌市厚別区大谷地東","postcode":"0040041","trangit":"\n札幌地下鉄東西線\n"},{"aria":"北海道","line":"札幌地下鉄東西線","name":"ひばりが丘（北海道）","name_k":"ひばりがおか","previous_next":"\n大谷地\t新さっぽろ（札幌市営）\t","latitude_longitude":"https://map.goo.ne.jp/s_gootransit/staticmap.php?MAP=E141.28.5.700N43.1.47.400&ZM=8&SZ=672,120","address":"札幌市厚別区厚別南","postcode":"0040022","trangit":"\n札幌地下鉄東西線\n"},{"aria":"北海道","line":"札幌地下鉄東西線","name":"新さっぽろ（札幌市営）","name_k":"しんさっぽろ","previous_next":"\nひばりが丘（北海道）\t\t","latitude_longitude":"https://map.goo.ne.jp/s_gootransit/staticmap.php?MAP=E141.28.39.400N43.2.11.100&ZM=8&SZ=672,120","address":"札幌市厚別区厚別中央二条","postcode":"0040052","trangit":"\n札幌地下鉄東西線\n"},{"aria":"北海道","line":"札幌地下鉄南北線","name":"麻生","name_k":"あさぶ","previous_next":"\n\t北３４条\t","latitude_longitude":"https://map.goo.ne.jp/s_gootransit/staticmap.php?MAP=E141.20.31.500N43.6.21.200&ZM=8&SZ=672,120","address":"札幌市北区北四十条西","postcode":"0010040","trangit":"\n札幌地下鉄南北線\n"},{"aria":"北海道","line":"札幌地下鉄南北線","name":"北３４条","name_k":"きたさんじゅうよじょう","previous_next":"\n麻生\t北２４条\t","latitude_longitude":"https://map.goo.ne.jp/s_gootransit/staticmap.php?MAP=E141.20.44.800N43.5.51.600&ZM=8&SZ=672,120","address":"札幌市北区北三十三条西","postcode":"0010033","trangit":"\n札幌地下鉄南北線\n"},{"aria":"北海道","line":"札幌地下鉄南北線","name":"北２４条","name_k":"きたにじゅうよじょう","previous_next":"\n北３４条\t北１８条\t","latitude_longitude":"https://map.goo.ne.jp/s_gootransit/staticmap.php?MAP=E141.20.54.200N43.5.14.300&ZM=8&SZ=672,120","address":"札幌市北区北二十三条西","postcode":"0010023","trangit":"\n札幌地下鉄南北線\n"},{"aria":"北海道","line":"札幌地下鉄南北線","name":"北１８条","name_k":"きたじゅうはちじょう","previous_next":"\n北２４条\t北１２条\t","latitude_longitude":"https://map.goo.ne.jp/s_gootransit/staticmap.php?MAP=E141.21.1.600N43.4.45.000&ZM=8&SZ=672,120","address":"札幌市北区北十八条西","postcode":"0010018","trangit":"\n札幌地下鉄南北線\n"},{"aria":"北海道","line":"札幌地下鉄南北線","name":"北１２条","name_k":"きたじゅうにじょう","previous_next":"\n北１８条\tさっぽろ（札幌市営）\t","latitude_longitude":"https://map.goo.ne.jp/s_gootransit/staticmap.php?MAP=E141.21.7.900N43.4.20.100&ZM=8&SZ=672,120","address":"札幌市北区北十二条西","postcode":"0010012","trangit":"\n札幌地下鉄南北線\n"},{"aria":"北海道","line":"札幌地下鉄南北線","name":"さっぽろ（札幌市営）","name_k":"さっぽろ","previous_next":"\n北１２条\t大通\t","latitude_longitude":"https://map.goo.ne.jp/s_gootransit/staticmap.php?MAP=E141.21.15.900N43.3.48.200&ZM=8&SZ=672,120","address":"札幌市中央区北四条西","postcode":"0600004","trangit":"\n札幌地下鉄南北線\n札幌地下鉄東豊線\n"},{"aria":"北海道","line":"札幌地下鉄南北線","name":"大通","name_k":"おおどおり","previous_next":"\nさっぽろ（札幌市営）\tすすきの\t","latitude_longitude":"https://map.goo.ne.jp/s_gootransit/staticmap.php?MAP=E141.21.21.100N43.3.27.300&ZM=8&SZ=672,120","address":"札幌市中央区大通西","postcode":"0600042","trangit":"\n札幌地下鉄南北線\n札幌地下鉄東西線\n札幌地下鉄東豊線\n"},{"aria":"北海道","line":"札幌地下鉄南北線","name":"すすきの","name_k":"すすきの","previous_next":"\n大通\t中島公園\t","latitude_longitude":"https://map.goo.ne.jp/s_gootransit/staticmap.php?MAP=E141.21.25.400N43.3.10.900&ZM=8&SZ=672,120","address":"札幌市中央区南四条西","postcode":"0640804","trangit":"\n札幌地下鉄南北線\n札幌市電（環状線）\n"},{"aria":"北海道","line":"札幌地下鉄南北線","name":"中島公園","name_k":"なかじまこうえん","previous_next":"\nすすきの\t幌平橋\t","latitude_longitude":"https://map.goo.ne.jp/s_gootransit/staticmap.php?MAP=E141.21.31.600N43.2.45.700&ZM=8&SZ=672,120","address":"札幌市中央区南九条西","postcode":"0640809","trangit":"\n札幌地下鉄南北線\n"},{"aria":"北海道","line":"札幌地下鉄南北線","name":"幌平橋","name_k":"ほろひらばし","previous_next":"\n中島公園\t中の島（北海道）\t","latitude_longitude":"https://map.goo.ne.jp/s_gootransit/staticmap.php?MAP=E141.21.34.200N43.2.16.700&ZM=8&SZ=672,120","address":"札幌市中央区南十五条西","postcode":"0640915","trangit":"\n札幌地下鉄南北線\n"},{"aria":"北海道","line":"札幌地下鉄南北線","name":"中の島（北海道）","name_k":"なかのしま","previous_next":"\n幌平橋\t平岸（札幌市営）\t","latitude_longitude":"https://map.goo.ne.jp/s_gootransit/staticmap.php?MAP=E141.21.53.800N43.2.6.200&ZM=8&SZ=672,120","address":"札幌市豊平区中の島一条","postcode":"0620921","trangit":"\n札幌地下鉄南北線\n"},{"aria":"北海道","line":"札幌地下鉄南北線","name":"平岸（札幌市営）","name_k":"ひらぎし","previous_next":"\n中の島（北海道）\t南平岸\t","latitude_longitude":"https://map.goo.ne.jp/s_gootransit/staticmap.php?MAP=E141.22.19.400N43.1.55.600&ZM=8&SZ=672,120","address":"札幌市豊平区平岸二条","postcode":"0620932","trangit":"\n札幌地下鉄南北線\n"},{"aria":"北海道","line":"札幌地下鉄南北線","name":"南平岸","name_k":"みなみひらぎし","previous_next":"\n平岸（札幌市営）\t澄川\t","latitude_longitude":"https://map.goo.ne.jp/s_gootransit/staticmap.php?MAP=E141.22.30.100N43.1.27.700&ZM=8&SZ=672,120","address":"札幌市豊平区平岸四条","postcode":"0620934","trangit":"\n札幌地下鉄南北線\n"},{"aria":"北海道","line":"札幌地下鉄南北線","name":"澄川","name_k":"すみかわ","previous_next":"\n南平岸\t自衛隊前\t","latitude_longitude":"https://map.goo.ne.jp/s_gootransit/staticmap.php?MAP=E141.22.15.600N43.0.51.700&ZM=8&SZ=672,120","address":"札幌市南区澄川四条","postcode":"0050004","trangit":"\n札幌地下鉄南北線\n"},{"aria":"北海道","line":"札幌地下鉄南北線","name":"自衛隊前","name_k":"じえいたいまえ","previous_next":"\n澄川\t真駒内\t","latitude_longitude":"https://map.goo.ne.jp/s_gootransit/staticmap.php?MAP=E141.22.6.800N43.0.12.600&ZM=8&SZ=672,120","address":"札幌市南区澄川四条","postcode":"0050004","trangit":"\n札幌地下鉄南北線\n"},{"aria":"北海道","line":"札幌地下鉄南北線","name":"真駒内","name_k":"まこまない","previous_next":"\n自衛隊前\t\t","latitude_longitude":"https://map.goo.ne.jp/s_gootransit/staticmap.php?MAP=E141.21.43.800N42.59.19.700&ZM=8&SZ=672,120","address":"札幌市南区真駒内","postcode":"0050861","trangit":"\n札幌地下鉄南北線\n"},{"aria":"北海道","line":"札幌地下鉄東豊線","name":"栄町（北海道）","name_k":"さかえまち","previous_next":"\n\t新道東\t","latitude_longitude":"https://map.goo.ne.jp/s_gootransit/staticmap.php?MAP=E141.22.14.900N43.6.38.600&ZM=8&SZ=672,120","address":"札幌市東区北四十二条東","postcode":"0070842","trangit":"\n札幌地下鉄東豊線\n"},{"aria":"北海道","line":"札幌地下鉄東豊線","name":"新道東","name_k":"しんどうひがし","previous_next":"\n栄町（北海道）\t元町（北海道）\t","latitude_longitude":"https://map.goo.ne.jp/s_gootransit/staticmap.php?MAP=E141.22.22.200N43.6.8.600&ZM=8&SZ=672,120","address":"札幌市東区北三十四条東","postcode":"0070834","trangit":"\n札幌地下鉄東豊線\n"},{"aria":"北海道","line":"札幌地下鉄東豊線","name":"元町（北海道）","name_k":"もとまち","previous_next":"\n新道東\t環状通東\t","latitude_longitude":"https://map.goo.ne.jp/s_gootransit/staticmap.php?MAP=E141.22.31.500N43.5.29.100&ZM=8&SZ=672,120","address":"札幌市東区北二十四条東","postcode":"0650024","trangit":"\n札幌地下鉄東豊線\n"},{"aria":"北海道","line":"札幌地下鉄東豊線","name":"環状通東","name_k":"かんじょうどおりひがし","previous_next":"\n元町（北海道）\t東区役所前\t","latitude_longitude":"https://map.goo.ne.jp/s_gootransit/staticmap.php?MAP=E141.22.41.100N43.4.47.800&ZM=8&SZ=672,120","address":"札幌市東区北十五条東","postcode":"0650015","trangit":"\n札幌地下鉄東豊線\n"},{"aria":"北海道","line":"札幌地下鉄東豊線","name":"東区役所前","name_k":"ひがしくやくしょまえ","previous_next":"\n環状通東\t北１３条東\t","latitude_longitude":"https://map.goo.ne.jp/s_gootransit/staticmap.php?MAP=E141.22.7.400N43.4.32.700&ZM=8&SZ=672,120","address":"札幌市東区北十三条東","postcode":"0650013","trangit":"\n札幌地下鉄東豊線\n"},{"aria":"北海道","line":"札幌地下鉄東豊線","name":"北１３条東","name_k":"きたじゅうさんじょうひがし","previous_next":"\n東区役所前\tさっぽろ（札幌市営）\t","latitude_longitude":"https://map.goo.ne.jp/s_gootransit/staticmap.php?MAP=E141.21.31.900N43.4.28.100&ZM=8&SZ=672,120","address":"札幌市東区北十三条東","postcode":"0650013","trangit":"\n札幌地下鉄東豊線\n"},{"aria":"北海道","line":"札幌地下鉄東豊線","name":"さっぽろ（札幌市営）","name_k":"さっぽろ","previous_next":"\n北１３条東\t大通\t","latitude_longitude":"https://map.goo.ne.jp/s_gootransit/staticmap.php?MAP=E141.21.15.900N43.3.48.200&ZM=8&SZ=672,120","address":"札幌市中央区北四条西","postcode":"0600004","trangit":"\n札幌地下鉄南北線\n札幌地下鉄東豊線\n"},{"aria":"北海道","line":"札幌地下鉄東豊線","name":"大通","name_k":"おおどおり","previous_next":"\nさっぽろ（札幌市営）\t豊水すすきの\t","latitude_longitude":"https://map.goo.ne.jp/s_gootransit/staticmap.php?MAP=E141.21.21.100N43.3.27.300&ZM=8&SZ=672,120","address":"札幌市中央区大通西","postcode":"0600042","trangit":"\n札幌地下鉄南北線\n札幌地下鉄東西線\n札幌地下鉄東豊線\n"},{"aria":"北海道","line":"札幌地下鉄東豊線","name":"豊水すすきの","name_k":"ほうすいすすきの","previous_next":"\n大通\t学園前（北海道）\t","latitude_longitude":"https://map.goo.ne.jp/s_gootransit/staticmap.php?MAP=E141.21.38.300N43.3.5.800&ZM=8&SZ=672,120","address":"札幌市中央区南六条西","postcode":"0640806","trangit":"\n札幌地下鉄東豊線\n"},{"aria":"北海道","line":"札幌地下鉄東豊線","name":"学園前（北海道）","name_k":"がくえんまえ","previous_next":"\n豊水すすきの\t豊平公園\t","latitude_longitude":"https://map.goo.ne.jp/s_gootransit/staticmap.php?MAP=E141.22.21.100N43.2.43.700&ZM=8&SZ=672,120","address":"札幌市豊平区豊平六条","postcode":"0620906","trangit":"\n札幌地下鉄東豊線\n"},{"aria":"北海道","line":"札幌地下鉄東豊線","name":"豊平公園","name_k":"とよひらこうえん","previous_next":"\n学園前（北海道）\t美園\t","latitude_longitude":"https://map.goo.ne.jp/s_gootransit/staticmap.php?MAP=E141.22.46.600N43.2.23.300&ZM=8&SZ=672,120","address":"札幌市豊平区豊平五条","postcode":"0620905","trangit":"\n札幌地下鉄東豊線\n"},{"aria":"北海道","line":"札幌地下鉄東豊線","name":"美園","name_k":"みその","previous_next":"\n豊平公園\t月寒中央\t","latitude_longitude":"https://map.goo.ne.jp/s_gootransit/staticmap.php?MAP=E141.23.20.700N43.2.1.600&ZM=8&SZ=672,120","address":"札幌市豊平区美園七条","postcode":"0620007","trangit":"\n札幌地下鉄東豊線\n"},{"aria":"北海道","line":"札幌地下鉄東豊線","name":"月寒中央","name_k":"つきさむちゅうおう","previous_next":"\n美園\t福住\t","latitude_longitude":"https://map.goo.ne.jp/s_gootransit/staticmap.php?MAP=E141.24.1.300N43.1.39.700&ZM=8&SZ=672,120","address":"札幌市豊平区月寒中央通","postcode":"0620020","trangit":"\n札幌地下鉄東豊線\n"},{"aria":"北海道","line":"札幌地下鉄東豊線","name":"福住","name_k":"ふくずみ","previous_next":"\n月寒中央\t\t","latitude_longitude":"https://map.goo.ne.jp/s_gootransit/staticmap.php?MAP=E141.24.22.900N43.1.10.200&ZM=8&SZ=672,120","address":"札幌市豊平区月寒東一条","postcode":"0620051","trangit":"\n札幌地下鉄東豊線\n"}]