aria,line,name,name_k,previous_next,latitude_longitude,address,postcode,trangit
北海道,JR函館本線,函館,はこだて,"
	五稜郭	","https://map.goo.ne.jp/s_gootransit/staticmap.php?MAP=E140.43.48.300N41.46.16.400&ZM=8&SZ=672,120",函館市若松町,0400063,"
函館本線
津軽海峡線
道南いさりび鉄道
"
北海道,JR函館本線,五稜郭,ごりょうかく,"
函館	桔梗	","https://map.goo.ne.jp/s_gootransit/staticmap.php?MAP=E140.44.13.700N41.48.3.300&ZM=8&SZ=672,120",函館市亀田本町,0410813,"
函館本線
津軽海峡線
道南いさりび鉄道
"
北海道,JR函館本線,桔梗,ききょう,"
五稜郭	大中山	","https://map.goo.ne.jp/s_gootransit/staticmap.php?MAP=E140.43.35.500N41.50.37.600&ZM=8&SZ=672,120",函館市桔梗町,0410801,"
函館本線
"
北海道,JR函館本線,大中山,おおなかやま,"
桔梗	七飯	","https://map.goo.ne.jp/s_gootransit/staticmap.php?MAP=E140.43.1.400N41.51.43.900&ZM=8&SZ=672,120",亀田郡七飯町大中山,0411121,"
函館本線
"
北海道,JR函館本線,七飯,ななえ,"
大中山	新函館北斗	","https://map.goo.ne.jp/s_gootransit/staticmap.php?MAP=E140.41.32.900N41.53.3.800&ZM=8&SZ=672,120",亀田郡七飯町本町,0411111,"
函館本線
"
北海道,JR函館本線,新函館北斗,しんはこだてほくと,"
七飯	仁山	","https://map.goo.ne.jp/s_gootransit/staticmap.php?MAP=E140.39.1.200N41.54.10.100&ZM=8&SZ=672,120",北斗市市渡,0411242,"
函館本線
東北・北海道新幹線
"
北海道,JR函館本線,仁山,にやま,"
新函館北斗	大沼（北海道）	","https://map.goo.ne.jp/s_gootransit/staticmap.php?MAP=E140.38.19.600N41.55.38.700&ZM=8&SZ=672,120",亀田郡七飯町仁山,0411101,"
函館本線
"
北海道,JR函館本線,大沼（北海道）,おおぬま,"
仁山	大沼公園	","https://map.goo.ne.jp/s_gootransit/staticmap.php?MAP=E140.40.22.300N41.58.10.100&ZM=8&SZ=672,120",亀田郡七飯町大沼町,0411354,"
函館本線
"
北海道,JR函館本線,大沼公園,おおぬまこうえん,"
大沼（北海道）	赤井川	","https://map.goo.ne.jp/s_gootransit/staticmap.php?MAP=E140.40.24.100N41.58.42.600&ZM=8&SZ=672,120",亀田郡七飯町大沼町,0411354,"
函館本線
"
北海道,JR函館本線,赤井川,あかいがわ,"
大沼公園	駒ヶ岳	","https://map.goo.ne.jp/s_gootransit/staticmap.php?MAP=E140.38.46.100N42.0.2.400&ZM=8&SZ=672,120",茅部郡森町赤井川,0492142,"
函館本線
"
北海道,JR函館本線,駒ヶ岳,こまがたけ,"
赤井川	森（北海道）	","https://map.goo.ne.jp/s_gootransit/staticmap.php?MAP=E140.36.51.100N42.2.10.200&ZM=8&SZ=672,120",茅部郡森町駒ケ岳,0492141,"
函館本線
"
北海道,JR函館本線,森（北海道）,もり,"
駒ヶ岳	鹿部	","https://map.goo.ne.jp/s_gootransit/staticmap.php?MAP=E140.34.39.100N42.6.23.100&ZM=8&SZ=672,120",茅部郡森町本町,0492325,"
函館本線
"
北海道,JR函館本線,鹿部,しかべ,"
森（北海道）	渡島沼尻	","https://map.goo.ne.jp/s_gootransit/staticmap.php?MAP=E140.46.29.500N42.3.42.200&ZM=8&SZ=672,120",茅部郡鹿部町本別,0411404,"
函館本線
"
北海道,JR函館本線,渡島沼尻,おしまぬまじり,"
鹿部	渡島砂原	","https://map.goo.ne.jp/s_gootransit/staticmap.php?MAP=E140.45.4.800N42.6.15.400&ZM=8&SZ=672,120",茅部郡森町砂原東,0492223,"
函館本線
"
北海道,JR函館本線,渡島砂原,おしまさわら,"
渡島沼尻	掛澗	","https://map.goo.ne.jp/s_gootransit/staticmap.php?MAP=E140.41.35.200N42.7.9.000&ZM=8&SZ=672,120",茅部郡森町砂原,0492222,"
函館本線
"
北海道,JR函館本線,掛澗,かかりま,"
渡島砂原	尾白内	","https://map.goo.ne.jp/s_gootransit/staticmap.php?MAP=E140.38.59.300N42.7.0.100&ZM=8&SZ=672,120",茅部郡森町砂原西,0492221,"
函館本線
"
北海道,JR函館本線,尾白内,おしろない,"
掛澗	東森	","https://map.goo.ne.jp/s_gootransit/staticmap.php?MAP=E140.37.1.200N42.6.31.300&ZM=8&SZ=672,120",茅部郡森町尾白内町,0492301,"
函館本線
"
北海道,JR函館本線,東森,ひがしもり,"
尾白内	石倉	","https://map.goo.ne.jp/s_gootransit/staticmap.php?MAP=E140.35.49.900N42.6.15.400&ZM=8&SZ=672,120",茅部郡森町港町,0492302,"
函館本線
"
北海道,JR函館本線,石倉,いしくら,"
東森	落部	","https://map.goo.ne.jp/s_gootransit/staticmap.php?MAP=E140.27.42.600N42.10.12.800&ZM=8&SZ=672,120",茅部郡森町石倉町,0492463,"
函館本線
"
北海道,JR函館本線,落部,おとしべ,"
石倉	野田生	","https://map.goo.ne.jp/s_gootransit/staticmap.php?MAP=E140.25.28.400N42.11.6.500&ZM=8&SZ=672,120",二海郡八雲町落部,0492562,"
函館本線
"
北海道,JR函館本線,野田生,のだおい,"
落部	山越	","https://map.goo.ne.jp/s_gootransit/staticmap.php?MAP=E140.22.47.900N42.12.51.800&ZM=8&SZ=672,120",二海郡八雲町野田生,0492672,"
函館本線
"
北海道,JR函館本線,山越,やまこし,"
野田生	八雲	","https://map.goo.ne.jp/s_gootransit/staticmap.php?MAP=E140.19.48.900N42.13.42.500&ZM=8&SZ=672,120",二海郡八雲町山越,0492671,"
函館本線
"
北海道,JR函館本線,八雲,やくも,"
山越	山崎（北海道）	","https://map.goo.ne.jp/s_gootransit/staticmap.php?MAP=E140.16.35.700N42.15.3.600&ZM=8&SZ=672,120",二海郡八雲町本町,0493107,"
函館本線
"
北海道,JR函館本線,山崎（北海道）,やまさき,"
八雲	黒岩	","https://map.goo.ne.jp/s_gootransit/staticmap.php?MAP=E140.16.41.500N42.18.43.900&ZM=8&SZ=672,120",二海郡八雲町山崎,0493342,"
函館本線
"
北海道,JR函館本線,黒岩,くろいわ,"
山崎（北海道）	国縫	","https://map.goo.ne.jp/s_gootransit/staticmap.php?MAP=E140.17.30.200N42.21.57.100&ZM=8&SZ=672,120",二海郡八雲町黒岩,0493341,"
函館本線
"
北海道,JR函館本線,国縫,くんぬい,"
黒岩	中ノ沢	","https://map.goo.ne.jp/s_gootransit/staticmap.php?MAP=E140.19.28.600N42.26.12.400&ZM=8&SZ=672,120",山越郡長万部町国縫,0493462,"
函館本線
"
北海道,JR函館本線,中ノ沢,なかのさわ,"
国縫	長万部	","https://map.goo.ne.jp/s_gootransit/staticmap.php?MAP=E140.20.58.900N42.28.31.700&ZM=8&SZ=672,120",山越郡長万部町中の沢,0493512,"
函館本線
"
北海道,JR函館本線,長万部,おしゃまんべ,"
中ノ沢	二股	","https://map.goo.ne.jp/s_gootransit/staticmap.php?MAP=E140.22.43.400N42.30.37.200&ZM=8&SZ=672,120",山越郡長万部町長万部,0493521,"
函館本線
室蘭本線
"
北海道,JR函館本線,二股,ふたまた,"
長万部	黒松内	","https://map.goo.ne.jp/s_gootransit/staticmap.php?MAP=E140.19.27.600N42.34.24.300&ZM=8&SZ=672,120",山越郡長万部町双葉,0493501,"
函館本線
"
北海道,JR函館本線,黒松内,くろまつない,"
二股	熱郛	","https://map.goo.ne.jp/s_gootransit/staticmap.php?MAP=E140.18.33.200N42.40.2.500&ZM=8&SZ=672,120",寿都郡黒松内町黒松内,0480101,"
函館本線
"
北海道,JR函館本線,熱郛,ねっぷ,"
黒松内	目名	","https://map.goo.ne.jp/s_gootransit/staticmap.php?MAP=E140.22.44.400N42.40.23.600&ZM=8&SZ=672,120",寿都郡黒松内町白井川,0480134,"
函館本線
"
北海道,JR函館本線,目名,めな,"
熱郛	蘭越	","https://map.goo.ne.jp/s_gootransit/staticmap.php?MAP=E140.28.10.500N42.45.32.400&ZM=8&SZ=672,120",磯谷郡蘭越町目名町,0481261,"
函館本線
"
北海道,JR函館本線,蘭越,らんこし,"
目名	昆布	","https://map.goo.ne.jp/s_gootransit/staticmap.php?MAP=E140.31.57.400N42.48.7.600&ZM=8&SZ=672,120",磯谷郡蘭越町蘭越町,0481301,"
函館本線
"
北海道,JR函館本線,昆布,こんぶ,"
蘭越	ニセコ	","https://map.goo.ne.jp/s_gootransit/staticmap.php?MAP=E140.36.0.400N42.47.43.800&ZM=8&SZ=672,120",磯谷郡蘭越町昆布町,0481302,"
函館本線
"
北海道,JR函館本線,ニセコ,にせこ,"
昆布	比羅夫	","https://map.goo.ne.jp/s_gootransit/staticmap.php?MAP=E140.41.17.800N42.48.22.900&ZM=8&SZ=672,120",虻田郡ニセコ町中央通,0481512,"
函館本線
"
北海道,JR函館本線,比羅夫,ひらふ,"
ニセコ	倶知安	","https://map.goo.ne.jp/s_gootransit/staticmap.php?MAP=E140.43.35.700N42.50.47.300&ZM=8&SZ=672,120",虻田郡倶知安町比羅夫,0440077,"
函館本線
"
北海道,JR函館本線,倶知安,くっちゃん,"
比羅夫	小沢（北海道）	","https://map.goo.ne.jp/s_gootransit/staticmap.php?MAP=E140.44.56.800N42.53.57.200&ZM=8&SZ=672,120",虻田郡倶知安町北一条西,0440051,"
函館本線
"
北海道,JR函館本線,小沢（北海道）,こざわ,"
倶知安	銀山	","https://map.goo.ne.jp/s_gootransit/staticmap.php?MAP=E140.40.51.100N42.58.10.500&ZM=8&SZ=672,120",岩内郡共和町小沢,0482142,"
函館本線
"
北海道,JR函館本線,銀山,ぎんざん,"
小沢（北海道）	然別	","https://map.goo.ne.jp/s_gootransit/staticmap.php?MAP=E140.43.8.500N43.2.18.100&ZM=8&SZ=672,120",余市郡仁木町銀山,0482335,"
函館本線
"
北海道,JR函館本線,然別,しかりべつ,"
銀山	仁木	","https://map.goo.ne.jp/s_gootransit/staticmap.php?MAP=E140.44.25.600N43.7.22.800&ZM=8&SZ=672,120",余市郡仁木町然別,0482403,"
函館本線
"
北海道,JR函館本線,仁木,にき,"
然別	余市	","https://map.goo.ne.jp/s_gootransit/staticmap.php?MAP=E140.46.28.100N43.9.6.300&ZM=8&SZ=672,120",余市郡仁木町北町,0482405,"
函館本線
"
北海道,JR函館本線,余市,よいち,"
仁木	蘭島	","https://map.goo.ne.jp/s_gootransit/staticmap.php?MAP=E140.47.54.500N43.11.1.700&ZM=8&SZ=672,120",余市郡余市町黒川町,0460003,"
函館本線
"
北海道,JR函館本線,蘭島,らんしま,"
余市	塩谷	","https://map.goo.ne.jp/s_gootransit/staticmap.php?MAP=E140.51.29.100N43.11.38.400&ZM=8&SZ=672,120",小樽市蘭島,0482562,"
函館本線
"
北海道,JR函館本線,塩谷,しおや,"
蘭島	小樽	","https://map.goo.ne.jp/s_gootransit/staticmap.php?MAP=E140.55.41.700N43.12.0.500&ZM=8&SZ=672,120",小樽市塩谷,0482672,"
函館本線
"
北海道,JR函館本線,小樽,おたる,"
塩谷	南小樽	","https://map.goo.ne.jp/s_gootransit/staticmap.php?MAP=E140.59.50.800N43.11.40.600&ZM=8&SZ=672,120",小樽市稲穂,0470032,"
函館本線
"
北海道,JR函館本線,南小樽,みなみおたる,"
小樽	小樽築港	","https://map.goo.ne.jp/s_gootransit/staticmap.php?MAP=E141.0.41.400N43.11.3.500&ZM=8&SZ=672,120",小樽市住吉町,0470015,"
函館本線
"
北海道,JR函館本線,小樽築港,おたるちっこう,"
南小樽	朝里	","https://map.goo.ne.jp/s_gootransit/staticmap.php?MAP=E141.1.56.900N43.10.41.500&ZM=8&SZ=672,120",小樽市築港,0470008,"
函館本線
"
北海道,JR函館本線,朝里,あさり,"
小樽築港	銭函	","https://map.goo.ne.jp/s_gootransit/staticmap.php?MAP=E141.4.2.900N43.10.28.700&ZM=8&SZ=672,120",小樽市朝里,0470151,"
函館本線
"
北海道,JR函館本線,銭函,ぜにばこ,"
朝里	ほしみ	","https://map.goo.ne.jp/s_gootransit/staticmap.php?MAP=E141.9.48.900N43.8.27.700&ZM=8&SZ=672,120",小樽市銭函,0470261,"
函館本線
"
北海道,JR函館本線,ほしみ,ほしみ,"
銭函	星置	","https://map.goo.ne.jp/s_gootransit/staticmap.php?MAP=E141.11.43.800N43.7.52.100&ZM=8&SZ=672,120",札幌市手稲区星置一条,0060851,"
函館本線
"
北海道,JR函館本線,星置,ほしおき,"
ほしみ	稲穂	","https://map.goo.ne.jp/s_gootransit/staticmap.php?MAP=E141.12.52.600N43.7.47.700&ZM=8&SZ=672,120",札幌市手稲区星置一条,0060851,"
函館本線
"
北海道,JR函館本線,稲穂,いなほ,"
星置	手稲	","https://map.goo.ne.jp/s_gootransit/staticmap.php?MAP=E141.13.33.900N43.7.33.700&ZM=8&SZ=672,120",札幌市手稲区曙一条,0060831,"
函館本線
"
北海道,JR函館本線,手稲,ていね,"
稲穂	稲積公園	","https://map.goo.ne.jp/s_gootransit/staticmap.php?MAP=E141.14.50.500N43.7.3.200&ZM=8&SZ=672,120",札幌市手稲区手稲本町一条,0060021,"
函館本線
"
北海道,JR函館本線,稲積公園,いなづみこうえん,"
手稲	発寒	","https://map.goo.ne.jp/s_gootransit/staticmap.php?MAP=E141.15.37.200N43.6.35.600&ZM=8&SZ=672,120",札幌市手稲区富丘一条,0060011,"
函館本線
"
北海道,JR函館本線,発寒,はっさむ,"
稲積公園	発寒中央	","https://map.goo.ne.jp/s_gootransit/staticmap.php?MAP=E141.16.48.500N43.5.51.900&ZM=8&SZ=672,120",札幌市西区発寒九条,0630829,"
函館本線
"
北海道,JR函館本線,発寒中央,はっさむちゅうおう,"
発寒	琴似（ＪＲ）	","https://map.goo.ne.jp/s_gootransit/staticmap.php?MAP=E141.17.53.600N43.5.12.600&ZM=8&SZ=672,120",札幌市西区発寒十条,0630830,"
函館本線
"
北海道,JR函館本線,琴似（ＪＲ）,ことに,"
発寒中央	桑園	","https://map.goo.ne.jp/s_gootransit/staticmap.php?MAP=E141.18.40.900N43.4.44.300&ZM=8&SZ=672,120",札幌市西区琴似二条,0630812,"
函館本線
"
北海道,JR函館本線,桑園,そうえん,"
琴似（ＪＲ）	札幌	","https://map.goo.ne.jp/s_gootransit/staticmap.php?MAP=E141.20.8.200N43.4.6.200&ZM=8&SZ=672,120",札幌市中央区北十一条西,0600011,"
函館本線
学園都市線
"
北海道,JR函館本線,札幌,さっぽろ,"
桑園	苗穂	","https://map.goo.ne.jp/s_gootransit/staticmap.php?MAP=E141.21.16.700N43.3.58.200&ZM=8&SZ=672,120",札幌市北区北六条西,0600806,"
函館本線
千歳線
学園都市線
"
北海道,JR函館本線,苗穂,なえぼ,"
札幌	白石（北海道・ＪＲ）	","https://map.goo.ne.jp/s_gootransit/staticmap.php?MAP=E141.22.37.000N43.3.58.300&ZM=8&SZ=672,120",札幌市中央区北三条東,0600033,"
函館本線
千歳線
"
北海道,JR函館本線,白石（北海道・ＪＲ）,しろいし,"
苗穂	厚別	","https://map.goo.ne.jp/s_gootransit/staticmap.php?MAP=E141.25.3.500N43.3.8.300&ZM=8&SZ=672,120",札幌市白石区平和通,0030029,"
函館本線
千歳線
"
北海道,JR函館本線,厚別,あつべつ,"
白石（北海道・ＪＲ）	森林公園（北海道）	","https://map.goo.ne.jp/s_gootransit/staticmap.php?MAP=E141.28.0.700N43.2.33.100&ZM=8&SZ=672,120",札幌市厚別区厚別中央五条,0040055,"
函館本線
"
北海道,JR函館本線,森林公園（北海道）,しんりんこうえん,"
厚別	大麻	","https://map.goo.ne.jp/s_gootransit/staticmap.php?MAP=E141.29.7.400N43.3.13.600&ZM=8&SZ=672,120",札幌市厚別区厚別北一条,0040071,"
函館本線
"
北海道,JR函館本線,大麻,おおあさ,"
森林公園（北海道）	野幌	","https://map.goo.ne.jp/s_gootransit/staticmap.php?MAP=E141.30.2.100N43.4.10.400&ZM=8&SZ=672,120",江別市大麻中町,0690854,"
函館本線
"
北海道,JR函館本線,野幌,のっぽろ,"
大麻	高砂（北海道）	","https://map.goo.ne.jp/s_gootransit/staticmap.php?MAP=E141.31.59.200N43.5.23.000&ZM=8&SZ=672,120",江別市野幌町,0690813,"
函館本線
"
北海道,JR函館本線,高砂（北海道）,たかさご,"
野幌	江別	","https://map.goo.ne.jp/s_gootransit/staticmap.php?MAP=E141.32.40.200N43.5.51.900&ZM=8&SZ=672,120",江別市高砂町,0670074,"
函館本線
"
北海道,JR函館本線,江別,えべつ,"
高砂（北海道）	豊幌	","https://map.goo.ne.jp/s_gootransit/staticmap.php?MAP=E141.33.38.200N43.6.28.100&ZM=8&SZ=672,120",江別市萩ケ岡,0670071,"
函館本線
"
北海道,JR函館本線,豊幌,とよほろ,"
江別	幌向	","https://map.goo.ne.jp/s_gootransit/staticmap.php?MAP=E141.37.42.200N43.8.2.400&ZM=8&SZ=672,120",江別市豊幌,0670021,"
函館本線
"
北海道,JR函館本線,幌向,ほろむい,"
豊幌	上幌向	","https://map.goo.ne.jp/s_gootransit/staticmap.php?MAP=E141.39.33.700N43.8.57.000&ZM=8&SZ=672,120",岩見沢市幌向南一条,0690371,"
函館本線
"
北海道,JR函館本線,上幌向,かみほろむい,"
幌向	岩見沢	","https://map.goo.ne.jp/s_gootransit/staticmap.php?MAP=E141.43.8.600N43.10.45.800&ZM=8&SZ=672,120",岩見沢市上幌向南一条,0690362,"
函館本線
"
北海道,JR函館本線,岩見沢,いわみざわ,"
上幌向	峰延	","https://map.goo.ne.jp/s_gootransit/staticmap.php?MAP=E141.45.48.100N43.12.6.600&ZM=8&SZ=672,120",岩見沢市有明町南,0680034,"
函館本線
室蘭本線
"
北海道,JR函館本線,峰延,みねのぶ,"
岩見沢	光珠内	","https://map.goo.ne.jp/s_gootransit/staticmap.php?MAP=E141.49.6.200N43.15.44.400&ZM=8&SZ=672,120",美唄市峰延町本町,0790174,"
函館本線
"
北海道,JR函館本線,光珠内,こうしゅない,"
峰延	美唄	","https://map.goo.ne.jp/s_gootransit/staticmap.php?MAP=E141.50.54.500N43.17.25.100&ZM=8&SZ=672,120",美唄市光珠内北,0790162,"
函館本線
"
北海道,JR函館本線,美唄,びばい,"
光珠内	茶志内	","https://map.goo.ne.jp/s_gootransit/staticmap.php?MAP=E141.51.57.300N43.19.41.400&ZM=8&SZ=672,120",美唄市東一条南,0720012,"
函館本線
"
北海道,JR函館本線,茶志内,ちゃしない,"
美唄	奈井江	","https://map.goo.ne.jp/s_gootransit/staticmap.php?MAP=E141.52.37.600N43.22.2.600&ZM=8&SZ=672,120",美唄市茶志内町,0790261,"
函館本線
"
北海道,JR函館本線,奈井江,ないえ,"
茶志内	豊沼	","https://map.goo.ne.jp/s_gootransit/staticmap.php?MAP=E141.53.35.100N43.25.18.000&ZM=8&SZ=672,120",空知郡奈井江町本町,0790313,"
函館本線
"
北海道,JR函館本線,豊沼,とよぬま,"
奈井江	砂川	","https://map.goo.ne.jp/s_gootransit/staticmap.php?MAP=E141.54.17.500N43.27.43.200&ZM=8&SZ=672,120",砂川市豊沼町,0730138,"
函館本線
"
北海道,JR函館本線,砂川,すながわ,"
豊沼	滝川	","https://map.goo.ne.jp/s_gootransit/staticmap.php?MAP=E141.54.48.600N43.29.28.800&ZM=8&SZ=672,120",砂川市東二条北,0730152,"
函館本線
"
北海道,JR函館本線,滝川,たきかわ,"
砂川	江部乙	","https://map.goo.ne.jp/s_gootransit/staticmap.php?MAP=E141.54.16.200N43.33.10.300&ZM=8&SZ=672,120",滝川市栄町,0730031,"
函館本線
根室本線
"
北海道,JR函館本線,江部乙,えべおつ,"
滝川	妹背牛	","https://map.goo.ne.jp/s_gootransit/staticmap.php?MAP=E141.56.23.500N43.37.31.200&ZM=8&SZ=672,120",滝川市江部乙町西,0790462,"
函館本線
"
北海道,JR函館本線,妹背牛,もせうし,"
江部乙	深川	","https://map.goo.ne.jp/s_gootransit/staticmap.php?MAP=E141.58.13.600N43.41.19.300&ZM=8&SZ=672,120",雨竜郡妹背牛町妹背牛,0790501,"
函館本線
"
北海道,JR函館本線,深川,ふかがわ,"
妹背牛	納内	","https://map.goo.ne.jp/s_gootransit/staticmap.php?MAP=E142.2.43.800N43.43.8.300&ZM=8&SZ=672,120",深川市一条,0740001,"
函館本線
留萌本線
"
北海道,JR函館本線,納内,おさむない,"
深川	近文	","https://map.goo.ne.jp/s_gootransit/staticmap.php?MAP=E142.8.1.500N43.43.48.500&ZM=8&SZ=672,120",深川市納内町,0780151,"
函館本線
"
北海道,JR函館本線,近文,ちかぶみ,"
納内	旭川	","https://map.goo.ne.jp/s_gootransit/staticmap.php?MAP=E142.19.44.900N43.47.13.100&ZM=8&SZ=672,120",旭川市近文町,0700821,"
函館本線
"
北海道,JR函館本線,旭川,あさひかわ,"
近文		","https://map.goo.ne.jp/s_gootransit/staticmap.php?MAP=E142.21.42.700N43.45.39.500&ZM=8&SZ=672,120",旭川市宮下通,0700030,"
函館本線
宗谷本線
富良野線
石北本線
"
北海道,JR千歳線,沼ノ端,ぬまのはた,"
	植苗	","https://map.goo.ne.jp/s_gootransit/staticmap.php?MAP=E141.41.48.200N42.40.10.200&ZM=8&SZ=672,120",苫小牧市沼ノ端,0591364,"
千歳線
室蘭本線
"
北海道,JR千歳線,植苗,うえなえ,"
沼ノ端	新千歳空港	","https://map.goo.ne.jp/s_gootransit/staticmap.php?MAP=E141.44.20.400N42.42.40.100&ZM=8&SZ=672,120",苫小牧市植苗,0591365,"
千歳線
"
北海道,JR千歳線,新千歳空港,しんちとせくうこう,"
植苗	南千歳	","https://map.goo.ne.jp/s_gootransit/staticmap.php?MAP=E141.41.4.000N42.47.5.000&ZM=8&SZ=672,120",千歳市美々,0660012,"
千歳線
"
北海道,JR千歳線,南千歳,みなみちとせ,"
新千歳空港	千歳（北海道）	","https://map.goo.ne.jp/s_gootransit/staticmap.php?MAP=E141.40.43.900N42.48.20.500&ZM=8&SZ=672,120",千歳市平和,0660044,"
千歳線
石勝線
"
北海道,JR千歳線,千歳（北海道）,ちとせ,"
南千歳	長都	","https://map.goo.ne.jp/s_gootransit/staticmap.php?MAP=E141.39.21.900N42.49.32.300&ZM=8&SZ=672,120",千歳市千代田町,0660062,"
千歳線
"
北海道,JR千歳線,長都,おさつ,"
千歳（北海道）	サッポロビール庭園	","https://map.goo.ne.jp/s_gootransit/staticmap.php?MAP=E141.37.36.700N42.50.58.800&ZM=8&SZ=672,120",千歳市上長都,0660077,"
千歳線
"
北海道,JR千歳線,サッポロビール庭園,さっぽろびーるていえん,"
長都	恵庭	","https://map.goo.ne.jp/s_gootransit/staticmap.php?MAP=E141.36.32.800N42.51.52.100&ZM=8&SZ=672,120",恵庭市戸磯,0611405,"
千歳線
"
北海道,JR千歳線,恵庭,えにわ,"
サッポロビール庭園	恵み野	","https://map.goo.ne.jp/s_gootransit/staticmap.php?MAP=E141.35.23.600N42.52.50.200&ZM=8&SZ=672,120",恵庭市相生町,0611448,"
千歳線
"
北海道,JR千歳線,恵み野,めぐみの,"
恵庭	島松	","https://map.goo.ne.jp/s_gootransit/staticmap.php?MAP=E141.34.41.400N42.54.0.500&ZM=8&SZ=672,120",恵庭市恵み野西,0611373,"
千歳線
"
北海道,JR千歳線,島松,しままつ,"
恵み野	北広島	","https://map.goo.ne.jp/s_gootransit/staticmap.php?MAP=E141.34.37.000N42.55.6.600&ZM=8&SZ=672,120",恵庭市島松本町,0611353,"
千歳線
"
北海道,JR千歳線,北広島,きたひろしま,"
島松	上野幌	","https://map.goo.ne.jp/s_gootransit/staticmap.php?MAP=E141.34.0.700N42.58.36.800&ZM=8&SZ=672,120",北広島市中央,0611121,"
千歳線
"
北海道,JR千歳線,上野幌,かみのっぽろ,"
北広島	新札幌	","https://map.goo.ne.jp/s_gootransit/staticmap.php?MAP=E141.29.26.900N43.0.49.600&ZM=8&SZ=672,120",札幌市厚別区厚別町上野幌,0040039,"
千歳線
"
北海道,JR千歳線,新札幌,しんさっぽろ,"
上野幌	平和	","https://map.goo.ne.jp/s_gootransit/staticmap.php?MAP=E141.28.35.600N43.2.9.100&ZM=8&SZ=672,120",札幌市厚別区厚別中央二条,0040052,"
千歳線
"
北海道,JR千歳線,平和,へいわ,"
新札幌	白石（北海道・ＪＲ）	","https://map.goo.ne.jp/s_gootransit/staticmap.php?MAP=E141.26.30.100N43.2.40.200&ZM=8&SZ=672,120",札幌市白石区平和通,0030029,"
千歳線
"
北海道,JR千歳線,白石（北海道・ＪＲ）,しろいし,"
平和		","https://map.goo.ne.jp/s_gootransit/staticmap.php?MAP=E141.25.3.500N43.3.8.300&ZM=8&SZ=672,120",札幌市白石区平和通,0030029,"
函館本線
千歳線
"
北海道,JR室蘭本線,長万部,おしゃまんべ,"
	静狩	","https://map.goo.ne.jp/s_gootransit/staticmap.php?MAP=E140.22.43.400N42.30.37.200&ZM=8&SZ=672,120",山越郡長万部町長万部,0493521,"
函館本線
室蘭本線
"
北海道,JR室蘭本線,静狩,しずかり,"
長万部	小幌	","https://map.goo.ne.jp/s_gootransit/staticmap.php?MAP=E140.27.49.500N42.34.54.000&ZM=8&SZ=672,120",山越郡長万部町静狩,0495141,"
室蘭本線
"
北海道,JR室蘭本線,小幌,こぼろ,"
静狩	礼文	","https://map.goo.ne.jp/s_gootransit/staticmap.php?MAP=E140.32.27.400N42.35.14.400&ZM=8&SZ=672,120",虻田郡豊浦町礼文華,0495333,"
室蘭本線
"
北海道,JR室蘭本線,礼文,れぶん,"
小幌	大岸	","https://map.goo.ne.jp/s_gootransit/staticmap.php?MAP=E140.35.55.500N42.34.41.200&ZM=8&SZ=672,120",虻田郡豊浦町礼文華,0495333,"
室蘭本線
"
北海道,JR室蘭本線,大岸,おおきし,"
礼文	豊浦	","https://map.goo.ne.jp/s_gootransit/staticmap.php?MAP=E140.38.34.600N42.35.0.700&ZM=8&SZ=672,120",虻田郡豊浦町大岸,0495332,"
室蘭本線
"
北海道,JR室蘭本線,豊浦,とようら,"
大岸	洞爺	","https://map.goo.ne.jp/s_gootransit/staticmap.php?MAP=E140.43.9.300N42.34.39.500&ZM=8&SZ=672,120",虻田郡豊浦町旭町,0495412,"
室蘭本線
"
北海道,JR室蘭本線,洞爺,とうや,"
豊浦	有珠	","https://map.goo.ne.jp/s_gootransit/staticmap.php?MAP=E140.46.2.400N42.32.53.900&ZM=8&SZ=672,120",虻田郡洞爺湖町旭町,0495611,"
室蘭本線
"
北海道,JR室蘭本線,有珠,うす,"
洞爺	長和	","https://map.goo.ne.jp/s_gootransit/staticmap.php?MAP=E140.47.51.200N42.30.39.000&ZM=8&SZ=672,120",伊達市有珠町,0590151,"
室蘭本線
"
北海道,JR室蘭本線,長和,ながわ,"
有珠	伊達紋別	","https://map.goo.ne.jp/s_gootransit/staticmap.php?MAP=E140.50.14.600N42.29.8.600&ZM=8&SZ=672,120",伊達市長和町,0520035,"
室蘭本線
"
北海道,JR室蘭本線,伊達紋別,だてもんべつ,"
長和	北舟岡	","https://map.goo.ne.jp/s_gootransit/staticmap.php?MAP=E140.51.32.400N42.28.1.100&ZM=8&SZ=672,120",伊達市山下町,0520032,"
室蘭本線
"
北海道,JR室蘭本線,北舟岡,きたふなおか,"
伊達紋別	稀府	","https://map.goo.ne.jp/s_gootransit/staticmap.php?MAP=E140.53.1.900N42.26.52.800&ZM=8&SZ=672,120",伊達市舟岡町,0520014,"
室蘭本線
"
北海道,JR室蘭本線,稀府,まれっぷ,"
北舟岡	黄金（北海道）	","https://map.goo.ne.jp/s_gootransit/staticmap.php?MAP=E140.54.8.900N42.25.23.100&ZM=8&SZ=672,120",伊達市南稀府町,0590273,"
室蘭本線
"
北海道,JR室蘭本線,黄金（北海道）,こがね,"
稀府	崎守	","https://map.goo.ne.jp/s_gootransit/staticmap.php?MAP=E140.54.41.200N42.23.2.700&ZM=8&SZ=672,120",伊達市南黄金町,0590271,"
室蘭本線
"
北海道,JR室蘭本線,崎守,さきもり,"
黄金（北海道）	本輪西	","https://map.goo.ne.jp/s_gootransit/staticmap.php?MAP=E140.55.51.500N42.22.17.300&ZM=8&SZ=672,120",室蘭市崎守町,0500055,"
室蘭本線
"
北海道,JR室蘭本線,本輪西,もとわにし,"
崎守	室蘭	","https://map.goo.ne.jp/s_gootransit/staticmap.php?MAP=E140.58.52.900N42.21.22.400&ZM=8&SZ=672,120",室蘭市本輪西町,0500065,"
室蘭本線
"
北海道,JR室蘭本線,室蘭,むろらん,"
本輪西	母恋	","https://map.goo.ne.jp/s_gootransit/staticmap.php?MAP=E140.58.45.800N42.18.55.500&ZM=8&SZ=672,120",室蘭市入江町,0510023,"
室蘭本線
"
北海道,JR室蘭本線,母恋,ぼこい,"
室蘭	御崎	","https://map.goo.ne.jp/s_gootransit/staticmap.php?MAP=E140.59.35.500N42.18.52.800&ZM=8&SZ=672,120",室蘭市母恋北町,0510004,"
室蘭本線
"
北海道,JR室蘭本線,御崎,みさき,"
母恋	輪西	","https://map.goo.ne.jp/s_gootransit/staticmap.php?MAP=E140.59.50.700N42.19.35.300&ZM=8&SZ=672,120",室蘭市御崎町,0510001,"
室蘭本線
"
北海道,JR室蘭本線,輪西,わにし,"
御崎	東室蘭	","https://map.goo.ne.jp/s_gootransit/staticmap.php?MAP=E141.0.33.700N42.19.52.500&ZM=8&SZ=672,120",室蘭市仲町,0500087,"
室蘭本線
"
北海道,JR室蘭本線,東室蘭,ひがしむろらん,"
輪西	鷲別	","https://map.goo.ne.jp/s_gootransit/staticmap.php?MAP=E141.1.46.200N42.20.47.500&ZM=8&SZ=672,120",室蘭市東町,0500083,"
室蘭本線
"
北海道,JR室蘭本線,鷲別,わしべつ,"
東室蘭	幌別	","https://map.goo.ne.jp/s_gootransit/staticmap.php?MAP=E141.2.50.900N42.21.27.000&ZM=8&SZ=672,120",登別市鷲別町,0590034,"
室蘭本線
"
北海道,JR室蘭本線,幌別,ほろべつ,"
鷲別	富浦（北海道）	","https://map.goo.ne.jp/s_gootransit/staticmap.php?MAP=E141.6.37.100N42.24.23.900&ZM=8&SZ=672,120",登別市幌別町,0590013,"
室蘭本線
"
北海道,JR室蘭本線,富浦（北海道）,とみうら,"
幌別	登別	","https://map.goo.ne.jp/s_gootransit/staticmap.php?MAP=E141.9.36.800N42.26.21.700&ZM=8&SZ=672,120",登別市富浦町,0590462,"
室蘭本線
"
北海道,JR室蘭本線,登別,のぼりべつ,"
富浦（北海道）	虎杖浜	","https://map.goo.ne.jp/s_gootransit/staticmap.php?MAP=E141.11.4.500N42.26.58.400&ZM=8&SZ=672,120",登別市登別港町,0590466,"
室蘭本線
"
北海道,JR室蘭本線,虎杖浜,こじょうはま,"
登別	竹浦	","https://map.goo.ne.jp/s_gootransit/staticmap.php?MAP=E141.13.7.800N42.27.44.700&ZM=8&SZ=672,120",白老郡白老町虎杖浜,0590641,"
室蘭本線
"
北海道,JR室蘭本線,竹浦,たけうら,"
虎杖浜	北吉原	","https://map.goo.ne.jp/s_gootransit/staticmap.php?MAP=E141.15.51.300N42.29.25.500&ZM=8&SZ=672,120",白老郡白老町竹浦,0590642,"
室蘭本線
"
北海道,JR室蘭本線,北吉原,きたよしはら,"
竹浦	萩野	","https://map.goo.ne.jp/s_gootransit/staticmap.php?MAP=E141.17.22.200N42.30.22.500&ZM=8&SZ=672,120",白老郡白老町北吉原,0590923,"
室蘭本線
"
北海道,JR室蘭本線,萩野,はぎの,"
北吉原	白老	","https://map.goo.ne.jp/s_gootransit/staticmap.php?MAP=E141.18.35.400N42.31.8.500&ZM=8&SZ=672,120",白老郡白老町萩野,0590922,"
室蘭本線
"
北海道,JR室蘭本線,白老,しらおい,"
萩野	社台	","https://map.goo.ne.jp/s_gootransit/staticmap.php?MAP=E141.21.49.100N42.33.8.200&ZM=8&SZ=672,120",白老郡白老町東町,0590904,"
室蘭本線
"
北海道,JR室蘭本線,社台,しゃだい,"
白老	錦岡	","https://map.goo.ne.jp/s_gootransit/staticmap.php?MAP=E141.25.17.200N42.34.35.600&ZM=8&SZ=672,120",白老郡白老町社台,0590901,"
室蘭本線
"
北海道,JR室蘭本線,錦岡,にしきおか,"
社台	糸井	","https://map.goo.ne.jp/s_gootransit/staticmap.php?MAP=E141.29.27.300N42.36.0.500&ZM=8&SZ=672,120",苫小牧市錦岡,0591275,"
室蘭本線
"
北海道,JR室蘭本線,糸井,いとい,"
錦岡	青葉	","https://map.goo.ne.jp/s_gootransit/staticmap.php?MAP=E141.33.0.300N42.37.12.300&ZM=8&SZ=672,120",苫小牧市日吉町,0530816,"
室蘭本線
"
北海道,JR室蘭本線,青葉,あおば,"
糸井	苫小牧	","https://map.goo.ne.jp/s_gootransit/staticmap.php?MAP=E141.34.30.600N42.37.43.700&ZM=8&SZ=672,120",苫小牧市青葉町,0530807,"
室蘭本線
"
北海道,JR室蘭本線,苫小牧,とまこまい,"
青葉	沼ノ端	","https://map.goo.ne.jp/s_gootransit/staticmap.php?MAP=E141.35.57.700N42.38.12.800&ZM=8&SZ=672,120",苫小牧市表町,0530022,"
千歳線
室蘭本線
日高本線
"
北海道,JR室蘭本線,沼ノ端,ぬまのはた,"
苫小牧	遠浅	","https://map.goo.ne.jp/s_gootransit/staticmap.php?MAP=E141.41.48.200N42.40.10.200&ZM=8&SZ=672,120",苫小牧市沼ノ端,0591364,"
千歳線
室蘭本線
"
北海道,JR室蘭本線,遠浅,とあさ,"
沼ノ端	早来	","https://map.goo.ne.jp/s_gootransit/staticmap.php?MAP=E141.46.22.300N42.43.36.800&ZM=8&SZ=672,120",勇払郡安平町遠浅,0591433,"
室蘭本線
"
北海道,JR室蘭本線,早来,はやきた,"
遠浅	安平	","https://map.goo.ne.jp/s_gootransit/staticmap.php?MAP=E141.49.4.200N42.45.45.600&ZM=8&SZ=672,120",勇払郡安平町早来栄町,0591505,"
室蘭本線
"
北海道,JR室蘭本線,安平,あびら,"
早来	追分（北海道）	","https://map.goo.ne.jp/s_gootransit/staticmap.php?MAP=E141.49.43.500N42.48.41.900&ZM=8&SZ=672,120",勇払郡安平町安平,0591511,"
室蘭本線
"
北海道,JR室蘭本線,追分（北海道）,おいわけ,"
安平	三川（北海道）	","https://map.goo.ne.jp/s_gootransit/staticmap.php?MAP=E141.48.51.400N42.52.14.400&ZM=8&SZ=672,120",勇払郡安平町追分中央,0591931,"
室蘭本線
石勝線
"
北海道,JR室蘭本線,三川（北海道）,みかわ,"
追分（北海道）	古山	","https://map.goo.ne.jp/s_gootransit/staticmap.php?MAP=E141.48.16.300N42.56.33.000&ZM=8&SZ=672,120",夕張郡由仁町三川旭町,0691133,"
室蘭本線
"
北海道,JR室蘭本線,古山,ふるさん,"
三川（北海道）	由仁	","https://map.goo.ne.jp/s_gootransit/staticmap.php?MAP=E141.47.52.200N42.58.21.300&ZM=8&SZ=672,120",夕張郡由仁町古山,0691216,"
室蘭本線
"
北海道,JR室蘭本線,由仁,ゆに,"
古山	栗山	","https://map.goo.ne.jp/s_gootransit/staticmap.php?MAP=E141.47.22.900N43.0.35.400&ZM=8&SZ=672,120",夕張郡由仁町古山,0691216,"
室蘭本線
"
北海道,JR室蘭本線,栗山,くりやま,"
由仁	栗丘	","https://map.goo.ne.jp/s_gootransit/staticmap.php?MAP=E141.46.46.500N43.3.19.400&ZM=8&SZ=672,120",夕張郡栗山町中央,0691511,"
室蘭本線
"
北海道,JR室蘭本線,栗丘,くりおか,"
栗山	栗沢	","https://map.goo.ne.jp/s_gootransit/staticmap.php?MAP=E141.44.53.500N43.4.58.400&ZM=8&SZ=672,120",岩見沢市栗沢町栗丘,0680134,"
室蘭本線
"
北海道,JR室蘭本線,栗沢,くりさわ,"
栗丘	志文	","https://map.goo.ne.jp/s_gootransit/staticmap.php?MAP=E141.44.36.300N43.7.4.800&ZM=8&SZ=672,120",岩見沢市栗沢町本町,0680127,"
室蘭本線
"
北海道,JR室蘭本線,志文,しぶん,"
栗沢	岩見沢	","https://map.goo.ne.jp/s_gootransit/staticmap.php?MAP=E141.44.53.500N43.9.23.100&ZM=8&SZ=672,120",岩見沢市志文本町一条,0680841,"
室蘭本線
"
北海道,JR室蘭本線,岩見沢,いわみざわ,"
志文		","https://map.goo.ne.jp/s_gootransit/staticmap.php?MAP=E141.45.48.100N43.12.6.600&ZM=8&SZ=672,120",岩見沢市有明町南,0680034,"
函館本線
室蘭本線
"
北海道,JR石北本線,新旭川,しんあさひかわ,"
	南永山	","https://map.goo.ne.jp/s_gootransit/staticmap.php?MAP=E142.23.18.900N43.46.40.100&ZM=8&SZ=672,120",旭川市東八条,0700028,"
宗谷本線
石北本線
"
北海道,JR石北本線,南永山,みなみながやま,"
新旭川	東旭川	","https://map.goo.ne.jp/s_gootransit/staticmap.php?MAP=E142.24.44.400N43.46.41.500&ZM=8&SZ=672,120",旭川市永山十条,0798420,"
石北本線
"
北海道,JR石北本線,東旭川,ひがしあさひかわ,"
南永山	桜岡	","https://map.goo.ne.jp/s_gootransit/staticmap.php?MAP=E142.26.42.900N43.46.27.100&ZM=8&SZ=672,120",旭川市東旭川北三条,0788253,"
石北本線
"
北海道,JR石北本線,桜岡,さくらおか,"
東旭川	当麻	","https://map.goo.ne.jp/s_gootransit/staticmap.php?MAP=E142.29.26.500N43.47.57.800&ZM=8&SZ=672,120",旭川市東旭川町桜岡,0788204,"
石北本線
"
北海道,JR石北本線,当麻,とうま,"
桜岡	伊香牛	","https://map.goo.ne.jp/s_gootransit/staticmap.php?MAP=E142.31.14.400N43.49.23.100&ZM=8&SZ=672,120",上川郡当麻町四条東,0781314,"
石北本線
"
北海道,JR石北本線,伊香牛,いかうし,"
当麻	愛別	","https://map.goo.ne.jp/s_gootransit/staticmap.php?MAP=E142.31.45.300N43.52.25.200&ZM=8&SZ=672,120",上川郡当麻町伊香牛,0781333,"
石北本線
"
北海道,JR石北本線,愛別,あいべつ,"
伊香牛	中愛別	","https://map.goo.ne.jp/s_gootransit/staticmap.php?MAP=E142.35.9.700N43.53.46.300&ZM=8&SZ=672,120",上川郡愛別町愛別,0781401,"
石北本線
"
北海道,JR石北本線,中愛別,なかあいべつ,"
愛別	愛山	","https://map.goo.ne.jp/s_gootransit/staticmap.php?MAP=E142.39.33.400N43.53.37.700&ZM=8&SZ=672,120",上川郡愛別町中央,0781652,"
石北本線
"
北海道,JR石北本線,愛山,あいざん,"
中愛別	安足間	","https://map.goo.ne.jp/s_gootransit/staticmap.php?MAP=E142.41.4.500N43.51.50.600&ZM=8&SZ=672,120",上川郡愛別町愛別,0781401,"
石北本線
"
北海道,JR石北本線,安足間,あんたろま,"
愛山	上川	","https://map.goo.ne.jp/s_gootransit/staticmap.php?MAP=E142.41.51.500N43.50.58.600&ZM=8&SZ=672,120",上川郡愛別町愛山,0781653,"
石北本線
"
北海道,JR石北本線,上川,かみかわ,"
安足間	白滝	","https://map.goo.ne.jp/s_gootransit/staticmap.php?MAP=E142.46.13.600N43.50.46.900&ZM=8&SZ=672,120",上川郡上川町中央町,0781741,"
石北本線
"
北海道,JR石北本線,白滝,しらたき,"
上川	丸瀬布	","https://map.goo.ne.jp/s_gootransit/staticmap.php?MAP=E143.11.8.200N43.52.57.300&ZM=8&SZ=672,120",紋別郡遠軽町白滝,0990111,"
石北本線
"
北海道,JR石北本線,丸瀬布,まるせっぷ,"
白滝	瀬戸瀬	","https://map.goo.ne.jp/s_gootransit/staticmap.php?MAP=E143.20.22.400N44.0.14.500&ZM=8&SZ=672,120",紋別郡遠軽町丸瀬布水谷町,0990206,"
石北本線
"
北海道,JR石北本線,瀬戸瀬,せとせ,"
丸瀬布	遠軽	","https://map.goo.ne.jp/s_gootransit/staticmap.php?MAP=E143.25.29.700N44.0.22.700&ZM=8&SZ=672,120",紋別郡遠軽町瀬戸瀬西町,0990342,"
石北本線
"
北海道,JR石北本線,遠軽,えんがる,"
瀬戸瀬	安国	","https://map.goo.ne.jp/s_gootransit/staticmap.php?MAP=E143.31.27.200N44.3.27.600&ZM=8&SZ=672,120",紋別郡遠軽町岩見通南,0990415,"
石北本線
"
北海道,JR石北本線,安国,やすくに,"
遠軽	生田原	","https://map.goo.ne.jp/s_gootransit/staticmap.php?MAP=E143.32.22.400N43.59.27.400&ZM=8&SZ=672,120",紋別郡遠軽町生田原安国,0990622,"
石北本線
"
北海道,JR石北本線,生田原,いくたはら,"
安国	西留辺蘂	","https://map.goo.ne.jp/s_gootransit/staticmap.php?MAP=E143.32.19.900N43.55.14.700&ZM=8&SZ=672,120",紋別郡遠軽町生田原,0990701,"
石北本線
"
北海道,JR石北本線,西留辺蘂,にしるべしべ,"
生田原	留辺蘂	","https://map.goo.ne.jp/s_gootransit/staticmap.php?MAP=E143.36.18.200N43.46.57.000&ZM=8&SZ=672,120",北見市留辺蘂町旭１区,0910029,"
石北本線
"
北海道,JR石北本線,留辺蘂,るべしべ,"
西留辺蘂	相内	","https://map.goo.ne.jp/s_gootransit/staticmap.php?MAP=E143.37.33.300N43.46.58.200&ZM=8&SZ=672,120",北見市留辺蘂町東町,0910002,"
石北本線
"
北海道,JR石北本線,相内,あいのない,"
留辺蘂	東相内	","https://map.goo.ne.jp/s_gootransit/staticmap.php?MAP=E143.45.37.100N43.47.36.200&ZM=8&SZ=672,120",北見市相内町,0990871,"
石北本線
"
北海道,JR石北本線,東相内,ひがしあいのない,"
相内	西北見	","https://map.goo.ne.jp/s_gootransit/staticmap.php?MAP=E143.48.48.200N43.48.10.800&ZM=8&SZ=672,120",北見市東相内町,0990878,"
石北本線
"
北海道,JR石北本線,西北見,にしきたみ,"
東相内	北見	","https://map.goo.ne.jp/s_gootransit/staticmap.php?MAP=E143.50.42.900N43.48.2.500&ZM=8&SZ=672,120",北見市緑町,0900055,"
石北本線
"
北海道,JR石北本線,北見,きたみ,"
西北見	柏陽	","https://map.goo.ne.jp/s_gootransit/staticmap.php?MAP=E143.54.7.700N43.48.10.900&ZM=8&SZ=672,120",北見市大通西,0900040,"
石北本線
"
北海道,JR石北本線,柏陽,はくよう,"
北見	愛し野	","https://map.goo.ne.jp/s_gootransit/staticmap.php?MAP=E143.55.15.500N43.49.20.900&ZM=8&SZ=672,120",北見市並木町,0900012,"
石北本線
"
北海道,JR石北本線,愛し野,いとしの,"
柏陽	端野	","https://map.goo.ne.jp/s_gootransit/staticmap.php?MAP=E143.56.11.700N43.50.20.200&ZM=8&SZ=672,120",北見市端野町三区,0992103,"
石北本線
"
北海道,JR石北本線,端野,たんの,"
愛し野	緋牛内	","https://map.goo.ne.jp/s_gootransit/staticmap.php?MAP=E143.56.45.600N43.50.56.400&ZM=8&SZ=672,120",北見市端野町端野,0992104,"
石北本線
"
北海道,JR石北本線,緋牛内,ひうしない,"
端野	美幌	","https://map.goo.ne.jp/s_gootransit/staticmap.php?MAP=E144.0.11.200N43.52.40.800&ZM=8&SZ=672,120",北見市端野町緋牛内,0992231,"
石北本線
"
北海道,JR石北本線,美幌,びほろ,"
緋牛内	西女満別	","https://map.goo.ne.jp/s_gootransit/staticmap.php?MAP=E144.6.35.600N43.50.2.500&ZM=8&SZ=672,120",網走郡美幌町新町,0920015,"
石北本線
"
北海道,JR石北本線,西女満別,にしめまんべつ,"
美幌	女満別	","https://map.goo.ne.jp/s_gootransit/staticmap.php?MAP=E144.9.7.900N43.52.39.300&ZM=8&SZ=672,120",網走郡大空町女満別本郷,0992301,"
石北本線
"
北海道,JR石北本線,女満別,めまんべつ,"
西女満別	呼人	","https://map.goo.ne.jp/s_gootransit/staticmap.php?MAP=E144.10.29.300N43.54.48.800&ZM=8&SZ=672,120",網走郡大空町女満別本通,0992310,"
石北本線
"
北海道,JR石北本線,呼人,よびと,"
女満別	網走	","https://map.goo.ne.jp/s_gootransit/staticmap.php?MAP=E144.13.23.700N43.57.41.100&ZM=8&SZ=672,120",網走市呼人,0992421,"
石北本線
"
北海道,JR石北本線,網走,あばしり,"
呼人		","https://map.goo.ne.jp/s_gootransit/staticmap.php?MAP=E144.15.30.400N44.1.3.300&ZM=8&SZ=672,120",網走市新町,0930046,"
石北本線
釧網本線
"
北海道,JR宗谷本線,旭川,あさひかわ,"
	旭川四条	","https://map.goo.ne.jp/s_gootransit/staticmap.php?MAP=E142.21.42.700N43.45.39.500&ZM=8&SZ=672,120",旭川市宮下通,0700030,"
函館本線
宗谷本線
富良野線
石北本線
"
北海道,JR宗谷本線,旭川四条,あさひかわよじょう,"
旭川	新旭川	","https://map.goo.ne.jp/s_gootransit/staticmap.php?MAP=E142.22.46.600N43.45.41.700&ZM=8&SZ=672,120",旭川市四条通,0788214,"
宗谷本線
石北本線
"
北海道,JR宗谷本線,新旭川,しんあさひかわ,"
旭川四条	永山	","https://map.goo.ne.jp/s_gootransit/staticmap.php?MAP=E142.23.18.900N43.46.40.100&ZM=8&SZ=672,120",旭川市東八条,0700028,"
宗谷本線
石北本線
"
北海道,JR宗谷本線,永山,ながやま,"
新旭川	北永山	","https://map.goo.ne.jp/s_gootransit/staticmap.php?MAP=E142.26.17.300N43.48.42.300&ZM=8&SZ=672,120",旭川市永山一条,0798411,"
宗谷本線
"
北海道,JR宗谷本線,北永山,きたながやま,"
永山	比布	","https://map.goo.ne.jp/s_gootransit/staticmap.php?MAP=E142.27.29.800N43.49.27.800&ZM=8&SZ=672,120",旭川市永山町,0798431,"
宗谷本線
"
北海道,JR宗谷本線,比布,ぴっぷ,"
北永山	蘭留	","https://map.goo.ne.jp/s_gootransit/staticmap.php?MAP=E142.28.30.400N43.52.19.800&ZM=8&SZ=672,120",上川郡比布町北２線,0780322,"
宗谷本線
"
北海道,JR宗谷本線,蘭留,らんる,"
比布	塩狩	","https://map.goo.ne.jp/s_gootransit/staticmap.php?MAP=E142.28.38.200N43.55.22.700&ZM=8&SZ=672,120",上川郡比布町北９線,0780329,"
宗谷本線
"
北海道,JR宗谷本線,塩狩,しおかり,"
蘭留	和寒	","https://map.goo.ne.jp/s_gootransit/staticmap.php?MAP=E142.27.31.900N43.57.56.300&ZM=8&SZ=672,120",上川郡和寒町塩狩,0980125,"
宗谷本線
"
北海道,JR宗谷本線,和寒,わっさむ,"
塩狩	剣淵	","https://map.goo.ne.jp/s_gootransit/staticmap.php?MAP=E142.25.9.200N44.1.29.400&ZM=8&SZ=672,120",上川郡和寒町北町,0980133,"
宗谷本線
"
北海道,JR宗谷本線,剣淵,けんぶち,"
和寒	士別	","https://map.goo.ne.jp/s_gootransit/staticmap.php?MAP=E142.22.7.100N44.5.38.700&ZM=8&SZ=672,120",上川郡剣淵町仲町,0980338,"
宗谷本線
"
北海道,JR宗谷本線,士別,しべつ,"
剣淵	多寄	","https://map.goo.ne.jp/s_gootransit/staticmap.php?MAP=E142.23.29.900N44.10.11.400&ZM=8&SZ=672,120",士別市西三条,0950023,"
宗谷本線
"
北海道,JR宗谷本線,多寄,たよろ,"
士別	瑞穂	","https://map.goo.ne.jp/s_gootransit/staticmap.php?MAP=E142.24.0.600N44.14.19.100&ZM=8&SZ=672,120",士別市多寄町,0980475,"
宗谷本線
"
北海道,JR宗谷本線,瑞穂,みずほ,"
多寄	風連	","https://map.goo.ne.jp/s_gootransit/staticmap.php?MAP=E142.24.0.500N44.15.50.700&ZM=8&SZ=672,120",士別市多寄町,0980475,"
宗谷本線
"
北海道,JR宗谷本線,風連,ふうれん,"
瑞穂	名寄高校	","https://map.goo.ne.jp/s_gootransit/staticmap.php?MAP=E142.25.31.500N44.17.23.800&ZM=8&SZ=672,120",名寄市風連町本町,0980504,"
宗谷本線
"
北海道,JR宗谷本線,名寄高校,なよろこうこう,"
風連	名寄	","https://map.goo.ne.jp/s_gootransit/staticmap.php?MAP=E142.28.0.900N44.18.52.100&ZM=8&SZ=672,120",名寄市風連町東風連,0980512,"
宗谷本線
"
北海道,JR宗谷本線,名寄,なよろ,"
名寄高校	日進（北海道）	","https://map.goo.ne.jp/s_gootransit/staticmap.php?MAP=E142.28.9.300N44.20.51.500&ZM=8&SZ=672,120",名寄市東一条南,0960001,"
宗谷本線
"
北海道,JR宗谷本線,日進（北海道）,にっしん,"
名寄	智恵文	","https://map.goo.ne.jp/s_gootransit/staticmap.php?MAP=E142.28.15.600N44.22.46.400&ZM=8&SZ=672,120",名寄市日進,0960066,"
宗谷本線
"
北海道,JR宗谷本線,智恵文,ちえぶん,"
日進（北海道）	智北	","https://map.goo.ne.jp/s_gootransit/staticmap.php?MAP=E142.25.7.300N44.27.11.300&ZM=8&SZ=672,120",名寄市智恵文,0982181,"
宗谷本線
"
北海道,JR宗谷本線,智北,ちほく,"
智恵文	美深	","https://map.goo.ne.jp/s_gootransit/staticmap.php?MAP=E142.23.52.500N44.27.31.500&ZM=8&SZ=672,120",名寄市智恵文,0982181,"
宗谷本線
"
北海道,JR宗谷本線,美深,びふか,"
智北	初野	","https://map.goo.ne.jp/s_gootransit/staticmap.php?MAP=E142.21.16.300N44.28.50.700&ZM=8&SZ=672,120",中川郡美深町開運町,0982238,"
宗谷本線
"
北海道,JR宗谷本線,美深,びふか,"
智北	初野	","https://map.goo.ne.jp/s_gootransit/staticmap.php?MAP=E142.21.16.300N44.28.50.700&ZM=8&SZ=672,120",中川郡美深町開運町,0982238,"
宗谷本線
"
北海道,JR宗谷本線,恩根内,おんねない,"
初野	天塩川温泉	","https://map.goo.ne.jp/s_gootransit/staticmap.php?MAP=E142.18.47.400N44.35.46.300&ZM=8&SZ=672,120",中川郡美深町恩根内,0982361,"
宗谷本線
"
北海道,JR宗谷本線,天塩川温泉,てしおがわおんせん,"
恩根内	咲来	","https://map.goo.ne.jp/s_gootransit/staticmap.php?MAP=E142.15.44.800N44.39.46.400&ZM=8&SZ=672,120",中川郡音威子府村咲来,0982502,"
宗谷本線
"
北海道,JR宗谷本線,咲来,さっくる,"
天塩川温泉	音威子府	","https://map.goo.ne.jp/s_gootransit/staticmap.php?MAP=E142.16.16.500N44.41.26.200&ZM=8&SZ=672,120",中川郡音威子府村咲来,0982502,"
宗谷本線
"
北海道,JR宗谷本線,音威子府,おといねっぷ,"
咲来	筬島	","https://map.goo.ne.jp/s_gootransit/staticmap.php?MAP=E142.15.50.200N44.43.37.300&ZM=8&SZ=672,120",中川郡音威子府村音威子府,0982501,"
宗谷本線
"
北海道,JR宗谷本線,筬島,おさしま,"
音威子府	佐久	","https://map.goo.ne.jp/s_gootransit/staticmap.php?MAP=E142.12.5.300N44.44.11.400&ZM=8&SZ=672,120",中川郡音威子府村物満内筬島,0982500,"
宗谷本線
"
北海道,JR宗谷本線,佐久,さく,"
筬島	天塩中川	","https://map.goo.ne.jp/s_gootransit/staticmap.php?MAP=E142.3.9.000N44.44.30.600&ZM=8&SZ=672,120",中川郡中川町佐久,0982622,"
宗谷本線
"
北海道,JR宗谷本線,天塩中川,てしおなかがわ,"
佐久	問寒別	","https://map.goo.ne.jp/s_gootransit/staticmap.php?MAP=E142.4.44.900N44.48.34.300&ZM=8&SZ=672,120",中川郡中川町中川,0982802,"
宗谷本線
"
北海道,JR宗谷本線,問寒別,といかんべつ,"
天塩中川	糠南	","https://map.goo.ne.jp/s_gootransit/staticmap.php?MAP=E142.1.45.500N44.54.35.600&ZM=8&SZ=672,120",天塩郡幌延町問寒別,0982943,"
宗谷本線
"
北海道,JR宗谷本線,糠南,ぬかなん,"
問寒別	雄信内	","https://map.goo.ne.jp/s_gootransit/staticmap.php?MAP=E142.0.19.900N44.55.6.400&ZM=8&SZ=672,120",天塩郡幌延町問寒別,0982943,"
宗谷本線
"
北海道,JR宗谷本線,雄信内,おのっぷない,"
糠南	南幌延	","https://map.goo.ne.jp/s_gootransit/staticmap.php?MAP=E141.56.23.400N44.54.33.500&ZM=8&SZ=672,120",天塩郡幌延町雄興,0983151,"
宗谷本線
"
北海道,JR宗谷本線,南幌延,みなみほろのべ,"
雄信内	幌延	","https://map.goo.ne.jp/s_gootransit/staticmap.php?MAP=E141.53.21.600N44.57.44.700&ZM=8&SZ=672,120",天塩郡幌延町開進,0983226,"
宗谷本線
"
北海道,JR宗谷本線,幌延,ほろのべ,"
南幌延	下沼	","https://map.goo.ne.jp/s_gootransit/staticmap.php?MAP=E141.50.59.700N45.0.43.200&ZM=8&SZ=672,120",天塩郡幌延町一条南,0983211,"
宗谷本線
"
北海道,JR宗谷本線,下沼,しもぬま,"
幌延	豊富	","https://map.goo.ne.jp/s_gootransit/staticmap.php?MAP=E141.45.43.200N45.2.5.700&ZM=8&SZ=672,120",天塩郡幌延町下沼,0983228,"
宗谷本線
"
北海道,JR宗谷本線,豊富,とよとみ,"
下沼	兜沼	","https://map.goo.ne.jp/s_gootransit/staticmap.php?MAP=E141.46.34.500N45.6.8.200&ZM=8&SZ=672,120",天塩郡豊富町駅前通,0984138,"
宗谷本線
"
北海道,JR宗谷本線,兜沼,かぶとぬま,"
豊富	勇知	","https://map.goo.ne.jp/s_gootransit/staticmap.php?MAP=E141.42.3.700N45.13.4.800&ZM=8&SZ=672,120",天塩郡豊富町兜沼,0984451,"
宗谷本線
"
北海道,JR宗谷本線,勇知,ゆうち,"
兜沼	抜海	","https://map.goo.ne.jp/s_gootransit/staticmap.php?MAP=E141.41.19.500N45.15.24.500&ZM=8&SZ=672,120",稚内市抜海村,0984581,"
宗谷本線
"
北海道,JR宗谷本線,抜海,ばっかい,"
勇知	南稚内	","https://map.goo.ne.jp/s_gootransit/staticmap.php?MAP=E141.38.54.500N45.18.52.500&ZM=8&SZ=672,120",稚内市抜海村,0970036,"
宗谷本線
"
北海道,JR宗谷本線,南稚内,みなみわっかない,"
抜海	稚内	","https://map.goo.ne.jp/s_gootransit/staticmap.php?MAP=E141.41.11.200N45.23.45.200&ZM=8&SZ=672,120",稚内市大黒,0970005,"
宗谷本線
"
北海道,JR宗谷本線,稚内,わっかない,"
南稚内		","https://map.goo.ne.jp/s_gootransit/staticmap.php?MAP=E141.40.52.800N45.24.52.500&ZM=8&SZ=672,120",稚内市中央,0970022,"
宗谷本線
"
北海道,JR日高本線,苫小牧,とまこまい,"
	勇払	","https://map.goo.ne.jp/s_gootransit/staticmap.php?MAP=E141.35.57.700N42.38.12.800&ZM=8&SZ=672,120",苫小牧市表町,0530022,"
千歳線
室蘭本線
日高本線
"
北海道,JR日高本線,勇払,ゆうふつ,"
苫小牧	浜厚真	","https://map.goo.ne.jp/s_gootransit/staticmap.php?MAP=E141.43.52.900N42.37.48.900&ZM=8&SZ=672,120",苫小牧市勇払,0591372,"
日高本線
"
北海道,JR日高本線,浜厚真,はまあつま,"
勇払	浜田浦	","https://map.goo.ne.jp/s_gootransit/staticmap.php?MAP=E141.50.26.700N42.36.15.900&ZM=8&SZ=672,120",勇払郡厚真町浜厚真,0591742,"
日高本線
"
北海道,JR日高本線,浜田浦,はまたうら,"
浜厚真	鵡川	","https://map.goo.ne.jp/s_gootransit/staticmap.php?MAP=E141.53.14.500N42.35.18.200&ZM=8&SZ=672,120",勇払郡むかわ町田浦,0540004,"
日高本線
"
北海道,JR日高本線,鵡川,むかわ,"
浜田浦		","https://map.goo.ne.jp/s_gootransit/staticmap.php?MAP=E141.55.39.400N42.34.35.100&ZM=8&SZ=672,120",勇払郡むかわ町末広,0540023,"
日高本線
"
北海道,JR根室本線,滝川,たきかわ,"
	東滝川	","https://map.goo.ne.jp/s_gootransit/staticmap.php?MAP=E141.54.16.200N43.33.10.300&ZM=8&SZ=672,120",滝川市栄町,0730031,"
函館本線
根室本線
"
北海道,JR根室本線,東滝川,ひがしたきかわ,"
滝川	赤平	","https://map.goo.ne.jp/s_gootransit/staticmap.php?MAP=E141.59.2.600N43.34.17.400&ZM=8&SZ=672,120",滝川市東滝川町,0730027,"
根室本線
"
北海道,JR根室本線,赤平,あかびら,"
東滝川	茂尻	","https://map.goo.ne.jp/s_gootransit/staticmap.php?MAP=E142.3.8.500N43.33.8.700&ZM=8&SZ=672,120",赤平市泉町,0791134,"
根室本線
"
北海道,JR根室本線,茂尻,もしり,"
赤平	平岸（ＪＲ）	","https://map.goo.ne.jp/s_gootransit/staticmap.php?MAP=E142.5.8.900N43.32.4.800&ZM=8&SZ=672,120",赤平市茂尻元町南,0791267,"
根室本線
"
北海道,JR根室本線,平岸（ＪＲ）,ひらぎし,"
茂尻	芦別	","https://map.goo.ne.jp/s_gootransit/staticmap.php?MAP=E142.7.44.800N43.32.20.100&ZM=8&SZ=672,120",赤平市平岸仲町,0791282,"
根室本線
"
北海道,JR根室本線,芦別,あしべつ,"
平岸（ＪＲ）	上芦別	","https://map.goo.ne.jp/s_gootransit/staticmap.php?MAP=E142.11.17.200N43.30.50.800&ZM=8&SZ=672,120",芦別市本町,0750041,"
根室本線
"
北海道,JR根室本線,上芦別,かみあしべつ,"
芦別	野花南	","https://map.goo.ne.jp/s_gootransit/staticmap.php?MAP=E142.12.54.400N43.29.9.800&ZM=8&SZ=672,120",芦別市上芦別町,0791371,"
根室本線
"
北海道,JR根室本線,野花南,のかなん,"
上芦別	富良野	","https://map.goo.ne.jp/s_gootransit/staticmap.php?MAP=E142.15.55.800N43.28.19.300&ZM=8&SZ=672,120",芦別市野花南町,0791372,"
根室本線
"
北海道,JR根室本線,富良野,ふらの,"
野花南	布部	","https://map.goo.ne.jp/s_gootransit/staticmap.php?MAP=E142.23.42.400N43.20.40.800&ZM=8&SZ=672,120",富良野市日の出町,0760025,"
富良野線
根室本線
"
北海道,JR根室本線,布部,ぬのべ,"
富良野	山部	","https://map.goo.ne.jp/s_gootransit/staticmap.php?MAP=E142.24.15.300N43.17.22.400&ZM=8&SZ=672,120",富良野市布部市街地,0760004,"
根室本線
"
北海道,JR根室本線,山部,やまべ,"
布部	下金山	","https://map.goo.ne.jp/s_gootransit/staticmap.php?MAP=E142.23.7.100N43.14.32.700&ZM=8&SZ=672,120",富良野市山部市街地,0791561,"
根室本線
"
北海道,JR根室本線,下金山,しもかなやま,"
山部	金山（北海道）	","https://map.goo.ne.jp/s_gootransit/staticmap.php?MAP=E142.25.8.800N43.11.40.800&ZM=8&SZ=672,120",空知郡南富良野町下金山,0792132,"
根室本線
"
北海道,JR根室本線,金山（北海道）,かなやま,"
下金山	東鹿越	","https://map.goo.ne.jp/s_gootransit/staticmap.php?MAP=E142.25.11.800N43.8.0.700&ZM=8&SZ=672,120",空知郡南富良野町金山,0792131,"
根室本線
"
北海道,JR根室本線,東鹿越,ひがししかごえ,"
金山（北海道）	幾寅	","https://map.goo.ne.jp/s_gootransit/staticmap.php?MAP=E142.31.38.400N43.9.40.800&ZM=8&SZ=672,120",空知郡南富良野町東鹿越,0792411,"
根室本線
"
北海道,JR根室本線,幾寅,いくとら,"
東鹿越	落合（北海道）	","https://map.goo.ne.jp/s_gootransit/staticmap.php?MAP=E142.34.23.500N43.9.32.800&ZM=8&SZ=672,120",空知郡南富良野町幾寅,0792401,"
根室本線
"
北海道,JR根室本線,落合（北海道）,おちあい,"
幾寅	新得	","https://map.goo.ne.jp/s_gootransit/staticmap.php?MAP=E142.40.23.300N43.7.20.700&ZM=8&SZ=672,120",空知郡南富良野町落合,0792551,"
根室本線
"
北海道,JR根室本線,新得,しんとく,"
落合（北海道）	十勝清水	","https://map.goo.ne.jp/s_gootransit/staticmap.php?MAP=E142.50.10.400N43.4.47.400&ZM=8&SZ=672,120",上川郡新得町本通北,0810005,"
根室本線
石勝線
"
北海道,JR根室本線,十勝清水,とかちしみず,"
新得	御影（北海道）	","https://map.goo.ne.jp/s_gootransit/staticmap.php?MAP=E142.53.0.500N43.0.37.100&ZM=8&SZ=672,120",上川郡清水町本通,0890136,"
根室本線
"
北海道,JR根室本線,御影（北海道）,みかげ,"
十勝清水	芽室	","https://map.goo.ne.jp/s_gootransit/staticmap.php?MAP=E142.56.23.900N42.56.24.000&ZM=8&SZ=672,120",上川郡清水町御影本通,0890354,"
根室本線
"
北海道,JR根室本線,芽室,めむろ,"
御影（北海道）	大成（北海道）	","https://map.goo.ne.jp/s_gootransit/staticmap.php?MAP=E143.3.7.100N42.54.26.300&ZM=8&SZ=672,120",河西郡芽室町本通,0820030,"
根室本線
"
北海道,JR根室本線,大成（北海道）,たいせい,"
芽室	西帯広	","https://map.goo.ne.jp/s_gootransit/staticmap.php?MAP=E143.4.24.800N42.54.48.800&ZM=8&SZ=672,120",河西郡芽室町東芽室南,0820006,"
根室本線
"
北海道,JR根室本線,西帯広,にしおびひろ,"
大成（北海道）	柏林台	","https://map.goo.ne.jp/s_gootransit/staticmap.php?MAP=E143.7.48.400N42.55.17.100&ZM=8&SZ=672,120",帯広市西二十三条南,0802473,"
根室本線
"
北海道,JR根室本線,柏林台,はくりんだい,"
西帯広	帯広	","https://map.goo.ne.jp/s_gootransit/staticmap.php?MAP=E143.10.8.200N42.55.35.100&ZM=8&SZ=672,120",帯広市西十七条南,0800027,"
根室本線
"
北海道,JR根室本線,帯広,おびひろ,"
柏林台	札内	","https://map.goo.ne.jp/s_gootransit/staticmap.php?MAP=E143.12.23.800N42.54.55.500&ZM=8&SZ=672,120",帯広市西二条南,0800012,"
根室本線
"
北海道,JR根室本線,札内,さつない,"
帯広	幕別	","https://map.goo.ne.jp/s_gootransit/staticmap.php?MAP=E143.15.36.300N42.54.36.500&ZM=8&SZ=672,120",中川郡幕別町札内中央町,0890543,"
根室本線
"
北海道,JR根室本線,幕別,まくべつ,"
札内	利別	","https://map.goo.ne.jp/s_gootransit/staticmap.php?MAP=E143.21.48.400N42.54.19.700&ZM=8&SZ=672,120",中川郡幕別町錦町,0890604,"
根室本線
"
北海道,JR根室本線,利別,としべつ,"
幕別	池田（北海道）	","https://map.goo.ne.jp/s_gootransit/staticmap.php?MAP=E143.25.41.700N42.55.56.700&ZM=8&SZ=672,120",中川郡池田町利別西町,0830031,"
根室本線
"
北海道,JR根室本線,池田（北海道）,いけだ,"
利別	十弗	","https://map.goo.ne.jp/s_gootransit/staticmap.php?MAP=E143.27.24.800N42.55.10.700&ZM=8&SZ=672,120",中川郡池田町東一条,0830091,"
根室本線
"
北海道,JR根室本線,十弗,とおふつ,"
池田（北海道）	豊頃	","https://map.goo.ne.jp/s_gootransit/staticmap.php?MAP=E143.30.17.500N42.51.10.800&ZM=8&SZ=672,120",中川郡豊頃町十弗宝町,0895243,"
根室本線
"
北海道,JR根室本線,豊頃,とよころ,"
十弗	新吉野	","https://map.goo.ne.jp/s_gootransit/staticmap.php?MAP=E143.32.33.700N42.48.53.600&ZM=8&SZ=672,120",中川郡豊頃町豊頃旭町,0895232,"
根室本線
"
北海道,JR根室本線,新吉野,しんよしの,"
豊頃	浦幌	","https://map.goo.ne.jp/s_gootransit/staticmap.php?MAP=E143.36.44.900N42.46.32.100&ZM=8&SZ=672,120",十勝郡浦幌町吉野,0895541,"
根室本線
"
北海道,JR根室本線,浦幌,うらほろ,"
新吉野	厚内	","https://map.goo.ne.jp/s_gootransit/staticmap.php?MAP=E143.39.19.400N42.48.28.500&ZM=8&SZ=672,120",十勝郡浦幌町本町,0895603,"
根室本線
"
北海道,JR根室本線,厚内,あつない,"
浦幌	音別	","https://map.goo.ne.jp/s_gootransit/staticmap.php?MAP=E143.49.6.900N42.48.25.400&ZM=8&SZ=672,120",十勝郡浦幌町厚内,0895865,"
根室本線
"
北海道,JR根室本線,音別,おんべつ,"
厚内	白糠	","https://map.goo.ne.jp/s_gootransit/staticmap.php?MAP=E143.56.9.200N42.53.11.500&ZM=8&SZ=672,120",釧路市音別町本町,0880115,"
根室本線
"
北海道,JR根室本線,白糠,しらぬか,"
音別	西庶路	","https://map.goo.ne.jp/s_gootransit/staticmap.php?MAP=E144.4.50.700N42.57.12.900&ZM=8&SZ=672,120",白糠郡白糠町東一条南,0880301,"
根室本線
"
北海道,JR根室本線,西庶路,にししょろ,"
白糠	庶路	","https://map.goo.ne.jp/s_gootransit/staticmap.php?MAP=E144.8.1.100N42.58.24.600&ZM=8&SZ=672,120",白糠郡白糠町西庶路西一条南,0880572,"
根室本線
"
北海道,JR根室本線,庶路,しょろ,"
西庶路	大楽毛	","https://map.goo.ne.jp/s_gootransit/staticmap.php?MAP=E144.9.14.500N42.58.51.800&ZM=8&SZ=672,120",白糠郡白糠町庶路甲区,0880563,"
根室本線
"
北海道,JR根室本線,大楽毛,おたのしけ,"
庶路	新大楽毛	","https://map.goo.ne.jp/s_gootransit/staticmap.php?MAP=E144.16.40.300N43.0.23.600&ZM=8&SZ=672,120",釧路市大楽毛,0840917,"
根室本線
"
北海道,JR根室本線,新大楽毛,しんおたのしけ,"
大楽毛	新富士（北海道）	","https://map.goo.ne.jp/s_gootransit/staticmap.php?MAP=E144.17.54.800N43.0.24.600&ZM=8&SZ=672,120",釧路市大楽毛,0840917,"
根室本線
"
北海道,JR根室本線,新富士（北海道）,しんふじ,"
新大楽毛	釧路	","https://map.goo.ne.jp/s_gootransit/staticmap.php?MAP=E144.21.17.500N42.59.56.500&ZM=8&SZ=672,120",釧路市新富士町,0840904,"
根室本線
"
北海道,JR根室本線,釧路,くしろ,"
新富士（北海道）	東釧路	","https://map.goo.ne.jp/s_gootransit/staticmap.php?MAP=E144.23.8.200N42.59.17.800&ZM=8&SZ=672,120",釧路市北大通,0850015,"
根室本線
釧網本線
"
北海道,JR根室本線,東釧路,ひがしくしろ,"
釧路	武佐（北海道）	","https://map.goo.ne.jp/s_gootransit/staticmap.php?MAP=E144.24.55.800N42.59.33.400&ZM=8&SZ=672,120",釧路市貝塚,0850816,"
根室本線
釧網本線
"
北海道,JR根室本線,武佐（北海道）,むさ,"
東釧路	別保	","https://map.goo.ne.jp/s_gootransit/staticmap.php?MAP=E144.25.48.300N42.59.20.400&ZM=8&SZ=672,120",釧路市武佐,0850806,"
根室本線
"
北海道,JR根室本線,別保,べっぽ,"
武佐（北海道）	上尾幌	","https://map.goo.ne.jp/s_gootransit/staticmap.php?MAP=E144.28.21.100N42.59.30.600&ZM=8&SZ=672,120",釧路郡釧路町別保,0880604,"
根室本線
"
北海道,JR根室本線,上尾幌,かみおぼろ,"
別保	尾幌	","https://map.goo.ne.jp/s_gootransit/staticmap.php?MAP=E144.36.58.800N43.1.50.200&ZM=8&SZ=672,120",厚岸郡厚岸町上尾幌,0880771,"
根室本線
"
北海道,JR根室本線,尾幌,おぼろ,"
上尾幌	門静	","https://map.goo.ne.jp/s_gootransit/staticmap.php?MAP=E144.42.28.300N43.0.57.600&ZM=8&SZ=672,120",厚岸郡厚岸町尾幌,0880871,"
根室本線
"
北海道,JR根室本線,門静,もんしず,"
尾幌	厚岸	","https://map.goo.ne.jp/s_gootransit/staticmap.php?MAP=E144.47.12.200N43.3.17.900&ZM=8&SZ=672,120",厚岸郡厚岸町門静,0881126,"
根室本線
"
北海道,JR根室本線,厚岸,あっけし,"
門静	茶内	","https://map.goo.ne.jp/s_gootransit/staticmap.php?MAP=E144.50.42.800N43.3.13.100&ZM=8&SZ=672,120",厚岸郡厚岸町宮園町,0881124,"
根室本線
"
北海道,JR根室本線,茶内,ちゃない,"
厚岸	浜中	","https://map.goo.ne.jp/s_gootransit/staticmap.php?MAP=E145.1.55.200N43.7.36.500&ZM=8&SZ=672,120",厚岸郡浜中町琵琶瀬,0881532,"
根室本線
"
北海道,JR根室本線,浜中,はまなか,"
茶内	姉別	","https://map.goo.ne.jp/s_gootransit/staticmap.php?MAP=E145.6.13.400N43.9.18.500&ZM=8&SZ=672,120",厚岸郡浜中町後静村,0881412,"
根室本線
"
北海道,JR根室本線,姉別,あねべつ,"
浜中	厚床	","https://map.goo.ne.jp/s_gootransit/staticmap.php?MAP=E145.11.56.100N43.11.37.400&ZM=8&SZ=672,120",厚岸郡浜中町姉別,0881646,"
根室本線
"
北海道,JR根室本線,厚床,あっとこ,"
姉別	別当賀	","https://map.goo.ne.jp/s_gootransit/staticmap.php?MAP=E145.15.23.800N43.13.32.500&ZM=8&SZ=672,120",根室市厚床,0860064,"
根室本線
"
北海道,JR根室本線,別当賀,べっとが,"
厚床	落石	","https://map.goo.ne.jp/s_gootransit/staticmap.php?MAP=E145.25.40.200N43.12.57.200&ZM=8&SZ=672,120",根室市別当賀,0860075,"
根室本線
"
北海道,JR根室本線,落石,おちいし,"
別当賀	昆布盛	","https://map.goo.ne.jp/s_gootransit/staticmap.php?MAP=E145.31.24.800N43.11.44.300&ZM=8&SZ=672,120",根室市落石東,0881782,"
根室本線
"
北海道,JR根室本線,昆布盛,こんぶもり,"
落石	西和田	","https://map.goo.ne.jp/s_gootransit/staticmap.php?MAP=E145.32.47.200N43.13.33.800&ZM=8&SZ=672,120",根室市昆布盛,0881784,"
根室本線
"
北海道,JR根室本線,西和田,にしわだ,"
昆布盛	東根室	","https://map.goo.ne.jp/s_gootransit/staticmap.php?MAP=E145.32.46.900N43.15.55.700&ZM=8&SZ=672,120",根室市西和田,0870033,"
根室本線
"
北海道,JR根室本線,東根室,ひがしねむろ,"
西和田	根室	","https://map.goo.ne.jp/s_gootransit/staticmap.php?MAP=E145.36.4.400N43.19.15.200&ZM=8&SZ=672,120",根室市光洋町,0870004,"
根室本線
"
北海道,JR根室本線,根室,ねむろ,"
東根室		","https://map.goo.ne.jp/s_gootransit/staticmap.php?MAP=E145.35.13.900N43.19.27.200&ZM=8&SZ=672,120",根室市光和町,0870027,"
根室本線
"
北海道,JR富良野線,旭川,あさひかわ,"
	神楽岡	","https://map.goo.ne.jp/s_gootransit/staticmap.php?MAP=E142.21.42.700N43.45.39.500&ZM=8&SZ=672,120",旭川市宮下通,0700030,"
函館本線
宗谷本線
富良野線
石北本線
"
北海道,JR富良野線,神楽岡,かぐらおか,"
旭川	緑が丘（北海道）	","https://map.goo.ne.jp/s_gootransit/staticmap.php?MAP=E142.21.43.600N43.44.33.600&ZM=8&SZ=672,120",旭川市神楽四条,0708004,"
富良野線
"
北海道,JR富良野線,緑が丘（北海道）,みどりがおか,"
神楽岡	西御料	","https://map.goo.ne.jp/s_gootransit/staticmap.php?MAP=E142.22.10.000N43.43.43.100&ZM=8&SZ=672,120",旭川市神楽岡十三条,0788323,"
富良野線
"
北海道,JR富良野線,西御料,にしごりょう,"
緑が丘（北海道）	西瑞穂	","https://map.goo.ne.jp/s_gootransit/staticmap.php?MAP=E142.22.31.200N43.43.6.100&ZM=8&SZ=672,120",旭川市西神楽一線,0788381,"
富良野線
"
北海道,JR富良野線,西瑞穂,にしみずほ,"
西御料	西神楽	","https://map.goo.ne.jp/s_gootransit/staticmap.php?MAP=E142.23.9.300N43.42.0.200&ZM=8&SZ=672,120",旭川市西神楽一線,0788381,"
富良野線
"
北海道,JR富良野線,西神楽,にしかぐら,"
西瑞穂	西聖和	","https://map.goo.ne.jp/s_gootransit/staticmap.php?MAP=E142.23.50.700N43.40.47.400&ZM=8&SZ=672,120",旭川市西神楽南一条,0710171,"
富良野線
"
北海道,JR富良野線,西聖和,にしせいわ,"
西神楽	千代ヶ岡	","https://map.goo.ne.jp/s_gootransit/staticmap.php?MAP=E142.25.9.900N43.39.59.100&ZM=8&SZ=672,120",旭川市西神楽二線,0788382,"
富良野線
"
北海道,JR富良野線,千代ヶ岡,ちよがおか,"
西聖和	北美瑛	","https://map.goo.ne.jp/s_gootransit/staticmap.php?MAP=E142.27.17.500N43.38.28.900&ZM=8&SZ=672,120",旭川市西神楽一線,0788381,"
富良野線
"
北海道,JR富良野線,北美瑛,きたびえい,"
千代ヶ岡	美瑛	","https://map.goo.ne.jp/s_gootransit/staticmap.php?MAP=E142.29.0.300N43.36.55.600&ZM=8&SZ=672,120",上川郡美瑛町下宇莫別,0710226,"
富良野線
"
北海道,JR富良野線,美瑛,びえい,"
北美瑛	美馬牛	","https://map.goo.ne.jp/s_gootransit/staticmap.php?MAP=E142.27.55.300N43.35.19.800&ZM=8&SZ=672,120",上川郡美瑛町本町,0710208,"
富良野線
"
北海道,JR富良野線,美馬牛,びばうし,"
美瑛	上富良野	","https://map.goo.ne.jp/s_gootransit/staticmap.php?MAP=E142.27.3.400N43.32.6.100&ZM=8&SZ=672,120",上川郡美瑛町美馬牛,0710471,"
富良野線
"
北海道,JR富良野線,上富良野,かみふらの,"
美馬牛	西中	","https://map.goo.ne.jp/s_gootransit/staticmap.php?MAP=E142.28.23.500N43.27.41.600&ZM=8&SZ=672,120",空知郡上富良野町中町,0710543,"
富良野線
"
北海道,JR富良野線,西中,にしなか,"
上富良野	ラベンダー畑	","https://map.goo.ne.jp/s_gootransit/staticmap.php?MAP=E142.26.45.100N43.25.38.400&ZM=8&SZ=672,120",空知郡中富良野町基線北,0710704,"
富良野線
"
北海道,JR富良野線,ラベンダー畑,らべんだーばたけ,"
西中	中富良野	","https://map.goo.ne.jp/s_gootransit/staticmap.php?MAP=E142.26.5.800N43.24.53.500&ZM=8&SZ=672,120",空知郡中富良野町基線北,0710704,"
富良野線
"
北海道,JR富良野線,中富良野,なかふらの,"
ラベンダー畑	鹿討	","https://map.goo.ne.jp/s_gootransit/staticmap.php?MAP=E142.25.29.400N43.24.12.300&ZM=8&SZ=672,120",空知郡中富良野町西町,0710761,"
富良野線
"
北海道,JR富良野線,鹿討,しかうち,"
中富良野	学田	","https://map.goo.ne.jp/s_gootransit/staticmap.php?MAP=E142.24.32.200N43.23.7.300&ZM=8&SZ=672,120",空知郡中富良野町中富良野,0710700,"
富良野線
"
北海道,JR富良野線,学田,がくでん,"
鹿討	富良野	","https://map.goo.ne.jp/s_gootransit/staticmap.php?MAP=E142.23.25.300N43.21.51.500&ZM=8&SZ=672,120",富良野市西学田二区,0760047,"
富良野線
"
北海道,JR富良野線,富良野,ふらの,"
学田		","https://map.goo.ne.jp/s_gootransit/staticmap.php?MAP=E142.23.42.400N43.20.40.800&ZM=8&SZ=672,120",富良野市日の出町,0760025,"
富良野線
根室本線
"
北海道,JR石勝線,南千歳,みなみちとせ,"
	追分（北海道）	","https://map.goo.ne.jp/s_gootransit/staticmap.php?MAP=E141.40.43.900N42.48.20.500&ZM=8&SZ=672,120",千歳市平和,0660044,"
千歳線
石勝線
"
北海道,JR石勝線,追分（北海道）,おいわけ,"
南千歳	川端	","https://map.goo.ne.jp/s_gootransit/staticmap.php?MAP=E141.48.51.400N42.52.14.400&ZM=8&SZ=672,120",勇払郡安平町追分中央,0591931,"
室蘭本線
石勝線
"
北海道,JR石勝線,川端,かわばた,"
追分（北海道）	滝ノ上	","https://map.goo.ne.jp/s_gootransit/staticmap.php?MAP=E141.53.54.600N42.54.44.300&ZM=8&SZ=672,120",夕張郡由仁町川端,0691141,"
石勝線
"
北海道,JR石勝線,滝ノ上,たきのうえ,"
川端	新夕張	","https://map.goo.ne.jp/s_gootransit/staticmap.php?MAP=E141.58.45.800N42.54.28.100&ZM=8&SZ=672,120",夕張市滝ノ上,0680756,"
石勝線
"
北海道,JR石勝線,新夕張,しんゆうばり,"
滝ノ上	占冠	","https://map.goo.ne.jp/s_gootransit/staticmap.php?MAP=E142.2.22.700N42.56.2.100&ZM=8&SZ=672,120",夕張市紅葉山,0680755,"
石勝線
"
北海道,JR石勝線,占冠,しむかっぷ,"
新夕張	トマム	","https://map.goo.ne.jp/s_gootransit/staticmap.php?MAP=E142.24.13.900N42.59.26.200&ZM=8&SZ=672,120",勇払郡占冠村占冠,0792202,"
石勝線
"
北海道,JR石勝線,トマム,とまむ,"
占冠	新得	","https://map.goo.ne.jp/s_gootransit/staticmap.php?MAP=E142.36.52.900N43.3.12.900&ZM=8&SZ=672,120",勇払郡占冠村中トマム,0792204,"
石勝線
"
北海道,JR石勝線,新得,しんとく,"
トマム		","https://map.goo.ne.jp/s_gootransit/staticmap.php?MAP=E142.50.10.400N43.4.47.400&ZM=8&SZ=672,120",上川郡新得町本通北,0810005,"
根室本線
石勝線
"
北海道,JR学園都市線,桑園,そうえん,"
	八軒	","https://map.goo.ne.jp/s_gootransit/staticmap.php?MAP=E141.20.8.200N43.4.6.200&ZM=8&SZ=672,120",札幌市中央区北十一条西,0600011,"
函館本線
学園都市線
"
北海道,JR学園都市線,八軒,はちけん,"
桑園	新川（北海道）	","https://map.goo.ne.jp/s_gootransit/staticmap.php?MAP=E141.19.22.800N43.5.2.800&ZM=8&SZ=672,120",札幌市西区八軒六条東,0630866,"
学園都市線
"
北海道,JR学園都市線,新川（北海道）,しんかわ,"
八軒	新琴似	","https://map.goo.ne.jp/s_gootransit/staticmap.php?MAP=E141.19.38.600N43.5.45.900&ZM=8&SZ=672,120",札幌市北区新川四条,0010924,"
学園都市線
"
北海道,JR学園都市線,新琴似,しんことに,"
新川（北海道）	太平	","https://map.goo.ne.jp/s_gootransit/staticmap.php?MAP=E141.20.19.700N43.6.38.100&ZM=8&SZ=672,120",札幌市北区新琴似八条,0010908,"
学園都市線
"
北海道,JR学園都市線,太平,たいへい,"
新琴似	百合が原	","https://map.goo.ne.jp/s_gootransit/staticmap.php?MAP=E141.21.9.400N43.7.16.900&ZM=8&SZ=672,120",札幌市北区太平二条,0028002,"
学園都市線
"
北海道,JR学園都市線,百合が原,ゆりがはら,"
太平	篠路	","https://map.goo.ne.jp/s_gootransit/staticmap.php?MAP=E141.21.51.700N43.7.44.200&ZM=8&SZ=672,120",札幌市北区篠路町太平,0028051,"
学園都市線
"
北海道,JR学園都市線,篠路,しのろ,"
百合が原	拓北	","https://map.goo.ne.jp/s_gootransit/staticmap.php?MAP=E141.22.4.500N43.8.33.200&ZM=8&SZ=672,120",札幌市北区篠路四条,0028024,"
学園都市線
"
北海道,JR学園都市線,拓北,たくほく,"
篠路	あいの里教育大	","https://map.goo.ne.jp/s_gootransit/staticmap.php?MAP=E141.23.5.100N43.9.11.400&ZM=8&SZ=672,120",札幌市北区拓北六条,0028066,"
学園都市線
"
北海道,JR学園都市線,あいの里教育大,あいのさときょういくだい,"
拓北	あいの里公園	","https://map.goo.ne.jp/s_gootransit/staticmap.php?MAP=E141.24.8.100N43.9.9.600&ZM=8&SZ=672,120",札幌市北区あいの里一条,0028071,"
学園都市線
"
北海道,JR学園都市線,あいの里公園,あいのさとこうえん,"
あいの里教育大	ロイズタウン	","https://map.goo.ne.jp/s_gootransit/staticmap.php?MAP=E141.25.0.200N43.9.30.600&ZM=8&SZ=672,120",札幌市北区あいの里二条,0028072,"
学園都市線
"
北海道,JR学園都市線,ロイズタウン,ろいずたうん,"
あいの里公園	太美	","https://map.goo.ne.jp/s_gootransit/staticmap.php?MAP=E141.26.23.500N43.10.37.600&ZM=8&SZ=672,120",石狩郡当別町当別太,0613773,"
学園都市線
"
北海道,JR学園都市線,太美,ふとみ,"
ロイズタウン	当別	","https://map.goo.ne.jp/s_gootransit/staticmap.php?MAP=E141.27.9.500N43.11.14.600&ZM=8&SZ=672,120",石狩郡当別町太美町,0613776,"
学園都市線
"
北海道,JR学園都市線,当別,とうべつ,"
太美	北海道医療大学	","https://map.goo.ne.jp/s_gootransit/staticmap.php?MAP=E141.31.2.800N43.13.10.800&ZM=8&SZ=672,120",石狩郡当別町錦町,0610226,"
学園都市線
"
北海道,JR学園都市線,北海道医療大学,ほっかいどういりょうだいがく,"
当別		","https://map.goo.ne.jp/s_gootransit/staticmap.php?MAP=E141.33.13.800N43.13.43.200&ZM=8&SZ=672,120",石狩郡当別町金沢,0610212,"
学園都市線
"
北海道,JR釧網本線,東釧路,ひがしくしろ,"
	遠矢	","https://map.goo.ne.jp/s_gootransit/staticmap.php?MAP=E144.24.55.800N42.59.33.400&ZM=8&SZ=672,120",釧路市貝塚,0850816,"
根室本線
釧網本線
"
北海道,JR釧網本線,遠矢,とおや,"
東釧路	釧路湿原	","https://map.goo.ne.jp/s_gootransit/staticmap.php?MAP=E144.27.43.800N43.2.41.800&ZM=8&SZ=672,120",釧路郡釧路町遠矢,0882145,"
釧網本線
"
北海道,JR釧網本線,釧路湿原,くしろしつげん,"
遠矢	細岡	","https://map.goo.ne.jp/s_gootransit/staticmap.php?MAP=E144.27.6.100N43.5.51.800&ZM=8&SZ=672,120",釧路郡釧路町鳥通,0882148,"
釧網本線
"
北海道,JR釧網本線,細岡,ほそおか,"
釧路湿原	塘路	","https://map.goo.ne.jp/s_gootransit/staticmap.php?MAP=E144.28.27.100N43.6.7.900&ZM=8&SZ=672,120",釧路郡釧路町鳥通,0882148,"
釧網本線
"
北海道,JR釧網本線,塘路,とうろ,"
細岡	茅沼	","https://map.goo.ne.jp/s_gootransit/staticmap.php?MAP=E144.30.2.700N43.8.57.600&ZM=8&SZ=672,120",川上郡標茶町塘路,0882261,"
釧網本線
"
北海道,JR釧網本線,茅沼,かやぬま,"
塘路	標茶	","https://map.goo.ne.jp/s_gootransit/staticmap.php?MAP=E144.30.27.100N43.11.58.700&ZM=8&SZ=672,120",川上郡標茶町コッタロ原野,0882266,"
釧網本線
"
北海道,JR釧網本線,標茶,しべちゃ,"
茅沼	磯分内	","https://map.goo.ne.jp/s_gootransit/staticmap.php?MAP=E144.36.45.900N43.17.44.600&ZM=8&SZ=672,120",川上郡標茶町標茶,0882314,"
釧網本線
"
北海道,JR釧網本線,磯分内,いそぶんない,"
標茶	摩周	","https://map.goo.ne.jp/s_gootransit/staticmap.php?MAP=E144.33.29.500N43.22.37.200&ZM=8&SZ=672,120",川上郡標茶町熊牛原野,0883145,"
釧網本線
"
北海道,JR釧網本線,摩周,ましゅう,"
磯分内	美留和	","https://map.goo.ne.jp/s_gootransit/staticmap.php?MAP=E144.28.4.100N43.29.6.200&ZM=8&SZ=672,120",川上郡弟子屈町朝日,0883204,"
釧網本線
"
北海道,JR釧網本線,美留和,びるわ,"
摩周	川湯温泉	","https://map.goo.ne.jp/s_gootransit/staticmap.php?MAP=E144.26.30.400N43.33.9.600&ZM=8&SZ=672,120",川上郡弟子屈町美留和,0883331,"
釧網本線
"
北海道,JR釧網本線,川湯温泉,かわゆおんせん,"
美留和	緑	","https://map.goo.ne.jp/s_gootransit/staticmap.php?MAP=E144.27.42.200N43.36.49.700&ZM=8&SZ=672,120",川上郡弟子屈町川湯駅前,0883462,"
釧網本線
"
北海道,JR釧網本線,緑,みどり,"
川湯温泉	札弦	","https://map.goo.ne.jp/s_gootransit/staticmap.php?MAP=E144.30.33.400N43.42.56.200&ZM=8&SZ=672,120",斜里郡清里町緑町,0994525,"
釧網本線
"
北海道,JR釧網本線,札弦,さっつる,"
緑	清里町	","https://map.goo.ne.jp/s_gootransit/staticmap.php?MAP=E144.32.7.700N43.47.3.100&ZM=8&SZ=672,120",斜里郡清里町札弦町,0994521,"
釧網本線
"
北海道,JR釧網本線,清里町,きよさとちょう,"
札弦	中斜里	","https://map.goo.ne.jp/s_gootransit/staticmap.php?MAP=E144.35.52.300N43.50.10.200&ZM=8&SZ=672,120",斜里郡清里町水元町,0994406,"
釧網本線
"
北海道,JR釧網本線,中斜里,なかしゃり,"
清里町	知床斜里	","https://map.goo.ne.jp/s_gootransit/staticmap.php?MAP=E144.39.46.200N43.52.19.200&ZM=8&SZ=672,120",斜里郡斜里町中斜里,0994142,"
釧網本線
"
北海道,JR釧網本線,知床斜里,しれとこしゃり,"
中斜里	止別	","https://map.goo.ne.jp/s_gootransit/staticmap.php?MAP=E144.39.56.900N43.54.30.100&ZM=8&SZ=672,120",斜里郡斜里町港町,0994112,"
釧網本線
"
北海道,JR釧網本線,止別,やむべつ,"
知床斜里	浜小清水	","https://map.goo.ne.jp/s_gootransit/staticmap.php?MAP=E144.31.28.600N43.55.8.800&ZM=8&SZ=672,120",斜里郡小清水町止別,0993454,"
釧網本線
"
北海道,JR釧網本線,浜小清水,はまこしみず,"
止別	原生花園	","https://map.goo.ne.jp/s_gootransit/staticmap.php?MAP=E144.27.26.500N43.55.53.600&ZM=8&SZ=672,120",斜里郡小清水町浜小清水,0993452,"
釧網本線
"
北海道,JR釧網本線,原生花園,げんせいかえん,"
浜小清水	北浜（北海道）	","https://map.goo.ne.jp/s_gootransit/staticmap.php?MAP=E144.25.6.600N43.56.19.400&ZM=8&SZ=672,120",斜里郡小清水町浜小清水,0993452,"
釧網本線
"
北海道,JR釧網本線,北浜（北海道）,きたはま,"
原生花園	藻琴	","https://map.goo.ne.jp/s_gootransit/staticmap.php?MAP=E144.21.23.200N43.57.22.100&ZM=8&SZ=672,120",網走市北浜,0993112,"
釧網本線
"
北海道,JR釧網本線,藻琴,もこと,"
北浜（北海道）	鱒浦	","https://map.goo.ne.jp/s_gootransit/staticmap.php?MAP=E144.19.26.100N43.57.57.600&ZM=8&SZ=672,120",網走市藻琴,0993111,"
釧網本線
"
北海道,JR釧網本線,鱒浦,ますうら,"
藻琴	桂台	","https://map.goo.ne.jp/s_gootransit/staticmap.php?MAP=E144.18.1.900N43.58.48.300&ZM=8&SZ=672,120",網走市鱒浦,0993119,"
釧網本線
"
北海道,JR釧網本線,桂台,かつらだい,"
鱒浦	網走	","https://map.goo.ne.jp/s_gootransit/staticmap.php?MAP=E144.16.37.100N44.0.52.200&ZM=8&SZ=672,120",網走市南十条東,0930010,"
釧網本線
"
北海道,JR釧網本線,網走,あばしり,"
桂台		","https://map.goo.ne.jp/s_gootransit/staticmap.php?MAP=E144.15.30.400N44.1.3.300&ZM=8&SZ=672,120",網走市新町,0930046,"
石北本線
釧網本線
"
北海道,JR留萌本線,深川,ふかがわ,"
	北一已	","https://map.goo.ne.jp/s_gootransit/staticmap.php?MAP=E142.2.43.800N43.43.8.300&ZM=8&SZ=672,120",深川市一条,0740001,"
函館本線
留萌本線
"
北海道,JR留萌本線,北一已,きたいちやん,"
深川	秩父別	","https://map.goo.ne.jp/s_gootransit/staticmap.php?MAP=E142.1.6.500N43.44.22.900&ZM=8&SZ=672,120",深川市一已町,0740028,"
留萌本線
"
北海道,JR留萌本線,秩父別,ちっぷべつ,"
北一已	北秩父別	","https://map.goo.ne.jp/s_gootransit/staticmap.php?MAP=E141.58.17.300N43.45.59.700&ZM=8&SZ=672,120",雨竜郡秩父別町２条,0782102,"
留萌本線
"
北海道,JR留萌本線,北秩父別,きたちっぷべつ,"
秩父別	石狩沼田	","https://map.goo.ne.jp/s_gootransit/staticmap.php?MAP=E141.57.53.100N43.47.13.100&ZM=8&SZ=672,120",雨竜郡秩父別町６条,0782106,"
留萌本線
"
北海道,JR留萌本線,石狩沼田,いしかりぬまた,"
北秩父別	真布	","https://map.goo.ne.jp/s_gootransit/staticmap.php?MAP=E141.56.16.400N43.48.27.800&ZM=8&SZ=672,120",雨竜郡沼田町北一条,0782205,"
留萌本線
"
北海道,JR留萌本線,真布,まっぷ,"
石狩沼田	恵比島	","https://map.goo.ne.jp/s_gootransit/staticmap.php?MAP=E141.54.37.500N43.49.50.300&ZM=8&SZ=672,120",雨竜郡沼田町沼田,0782222,"
留萌本線
"
北海道,JR留萌本線,恵比島,えびしま,"
真布	峠下	","https://map.goo.ne.jp/s_gootransit/staticmap.php?MAP=E141.53.8.700N43.50.56.300&ZM=8&SZ=672,120",雨竜郡沼田町恵比島,0782224,"
留萌本線
"
北海道,JR留萌本線,峠下,とうげした,"
恵比島	幌糠	","https://map.goo.ne.jp/s_gootransit/staticmap.php?MAP=E141.49.21.100N43.50.55.800&ZM=8&SZ=672,120",留萌市留萌村,0783161,"
留萌本線
"
北海道,JR留萌本線,幌糠,ほろぬか,"
峠下	藤山	","https://map.goo.ne.jp/s_gootransit/staticmap.php?MAP=E141.45.42.700N43.51.11.300&ZM=8&SZ=672,120",留萌市留萌村,0783164,"
留萌本線
"
北海道,JR留萌本線,藤山,ふじやま,"
幌糠	大和田（北海道）	","https://map.goo.ne.jp/s_gootransit/staticmap.php?MAP=E141.43.26.700N43.53.5.100&ZM=8&SZ=672,120",留萌市藤山町,0783165,"
留萌本線
"
北海道,JR留萌本線,大和田（北海道）,おおわだ,"
藤山	留萌	","https://map.goo.ne.jp/s_gootransit/staticmap.php?MAP=E141.42.0.700N43.54.40.200&ZM=8&SZ=672,120",留萌市大和田,0770012,"
留萌本線
"
北海道,JR留萌本線,留萌,るもい,"
大和田（北海道）		","https://map.goo.ne.jp/s_gootransit/staticmap.php?MAP=E141.39.21.600N43.56.25.700&ZM=8&SZ=672,120",留萌市船場町,0770005,"
留萌本線
"
北海道,JR東北・北海道新幹線,東京,とうきょう,"
	上野	","https://map.goo.ne.jp/s_gootransit/staticmap.php?MAP=E139.46.13.600N35.40.39.200&ZM=8&SZ=672,120",千代田区丸の内,1000005,"
上越新幹線
中央線
京浜東北線
京葉線
北陸新幹線
宇都宮線
山手線
東京メトロ丸ノ内線
東北・北海道新幹線
東海道・山陽新幹線
東海道本線（東日本）
横須賀線
武蔵野線
総武線快速
総武線快速・横須賀線
高崎線
"
北海道,JR東北・北海道新幹線,上野,うえの,"
東京	大宮（埼玉）	","https://map.goo.ne.jp/s_gootransit/staticmap.php?MAP=E139.46.44.700N35.42.35.800&ZM=8&SZ=672,120",台東区上野,1100005,"
上越新幹線
京浜東北線
北陸新幹線
宇都宮線
山手線
常磐線
東京メトロ日比谷線
東京メトロ銀座線
東北・北海道新幹線
高崎線
"
北海道,JR東北・北海道新幹線,大宮（埼玉）,おおみや,"
上野	小山	","https://map.goo.ne.jp/s_gootransit/staticmap.php?MAP=E139.37.37.600N35.54.11.300&ZM=8&SZ=672,120",さいたま市大宮区錦町,3300853,"
ニューシャトル
上越新幹線
京浜東北線
北陸新幹線
埼京線
宇都宮線
川越線
東北・北海道新幹線
東武アーバンパークライン
武蔵野線
湘南新宿ライン
高崎線
"
北海道,JR東北・北海道新幹線,小山,おやま,"
大宮（埼玉）	宇都宮	","https://map.goo.ne.jp/s_gootransit/staticmap.php?MAP=E139.48.34.300N36.18.35.500&ZM=8&SZ=672,120",小山市城山町,3230025,"
両毛線
宇都宮線
東北・北海道新幹線
水戸線
湘南新宿ライン
"
北海道,JR東北・北海道新幹線,宇都宮,うつのみや,"
小山	那須塩原	","https://map.goo.ne.jp/s_gootransit/staticmap.php?MAP=E139.54.5.200N36.33.19.100&ZM=8&SZ=672,120",宇都宮市川向町,3210965,"
宇都宮線
日光線
東北・北海道新幹線
湘南新宿ライン
烏山線
"
北海道,JR東北・北海道新幹線,那須塩原,なすしおばら,"
宇都宮	新白河	","https://map.goo.ne.jp/s_gootransit/staticmap.php?MAP=E140.1.28.200N36.55.43.200&ZM=8&SZ=672,120",那須塩原市大原間,3293153,"
宇都宮線
東北・北海道新幹線
湘南新宿ライン
"
北海道,JR東北・北海道新幹線,新白河,しんしらかわ,"
那須塩原	郡山（福島）	","https://map.goo.ne.jp/s_gootransit/staticmap.php?MAP=E140.11.32.500N37.7.12.800&ZM=8&SZ=672,120",西白河郡西郷村小田倉,9618061,"
東北・北海道新幹線
東北本線
"
北海道,JR東北・北海道新幹線,郡山（福島）,こおりやま,"
新白河	福島（福島）	","https://map.goo.ne.jp/s_gootransit/staticmap.php?MAP=E140.23.32.600N37.23.42.700&ZM=8&SZ=672,120",郡山市燧田,9638003,"
東北・北海道新幹線
東北本線
水郡線
磐越東線
磐越西線
"
北海道,JR東北・北海道新幹線,福島（福島）,ふくしま,"
郡山（福島）	白石蔵王	","https://map.goo.ne.jp/s_gootransit/staticmap.php?MAP=E140.27.48.000N37.45.5.400&ZM=8&SZ=672,120",福島市栄町,9608031,"
山形線
東北・北海道新幹線
東北本線
福島交通飯坂線
阿武隈急行
"
北海道,JR東北・北海道新幹線,白石蔵王,しろいしざおう,"
福島（福島）	仙台	","https://map.goo.ne.jp/s_gootransit/staticmap.php?MAP=E140.38.10.400N37.59.31.100&ZM=8&SZ=672,120",白石市大鷹沢三沢,9890213,"
東北・北海道新幹線
"
北海道,JR東北・北海道新幹線,仙台,せんだい,"
白石蔵王	古川	","https://map.goo.ne.jp/s_gootransit/staticmap.php?MAP=E140.53.14.800N38.15.26.300&ZM=8&SZ=672,120",仙台市青葉区中央,9800021,"
仙台地下鉄南北線
仙台地下鉄東西線
仙台空港アクセス線
仙山線
仙石線
常磐線
東北・北海道新幹線
東北本線
東北本線利府支線
"
北海道,JR東北・北海道新幹線,古川,ふるかわ,"
仙台	くりこま高原	","https://map.goo.ne.jp/s_gootransit/staticmap.php?MAP=E140.58.16.300N38.34.3.600&ZM=8&SZ=672,120",大崎市古川駅前大通,9896162,"
東北・北海道新幹線
陸羽東線
"
北海道,JR東北・北海道新幹線,くりこま高原,くりこまこうげん,"
古川	一ノ関	","https://map.goo.ne.jp/s_gootransit/staticmap.php?MAP=E141.4.30.300N38.44.45.600&ZM=8&SZ=672,120",栗原市志波姫新熊谷,9895612,"
東北・北海道新幹線
"
北海道,JR東北・北海道新幹線,一ノ関,いちのせき,"
くりこま高原	水沢江刺	","https://map.goo.ne.jp/s_gootransit/staticmap.php?MAP=E141.8.33.200N38.55.25.100&ZM=8&SZ=672,120",一関市駅前,0210867,"
大船渡線
東北・北海道新幹線
東北本線
"
北海道,JR東北・北海道新幹線,水沢江刺,みずさわえさし,"
一ノ関	北上	","https://map.goo.ne.jp/s_gootransit/staticmap.php?MAP=E141.11.31.700N39.8.32.400&ZM=8&SZ=672,120",奥州市水沢区羽田町駅前,0230104,"
東北・北海道新幹線
"
北海道,JR東北・北海道新幹線,北上,きたかみ,"
水沢江刺	新花巻	","https://map.goo.ne.jp/s_gootransit/staticmap.php?MAP=E141.7.32.200N39.16.43.700&ZM=8&SZ=672,120",北上市大通り,0240061,"
北上線
東北・北海道新幹線
東北本線
"
北海道,JR東北・北海道新幹線,新花巻,しんはなまき,"
北上	盛岡	","https://map.goo.ne.jp/s_gootransit/staticmap.php?MAP=E141.10.37.300N39.24.10.700&ZM=8&SZ=672,120",花巻市矢沢,0250011,"
東北・北海道新幹線
釜石線
"
北海道,JR東北・北海道新幹線,盛岡,もりおか,"
新花巻	いわて沼宮内	","https://map.goo.ne.jp/s_gootransit/staticmap.php?MAP=E141.8.22.400N39.41.54.600&ZM=8&SZ=672,120",盛岡市盛岡駅前通,0200034,"
いわて銀河鉄道
山田線
東北・北海道新幹線
東北本線
田沢湖線
"
北海道,JR東北・北海道新幹線,いわて沼宮内,いわてぬまくない,"
盛岡	二戸	","https://map.goo.ne.jp/s_gootransit/staticmap.php?MAP=E141.13.15.200N39.57.27.200&ZM=8&SZ=672,120",岩手郡岩手町江刈内,0284303,"
いわて銀河鉄道
東北・北海道新幹線
"
北海道,JR東北・北海道新幹線,二戸,にのへ,"
いわて沼宮内	八戸	","https://map.goo.ne.jp/s_gootransit/staticmap.php?MAP=E141.17.22.600N40.15.25.100&ZM=8&SZ=672,120",二戸市石切所,0286103,"
いわて銀河鉄道
東北・北海道新幹線
"
北海道,JR東北・北海道新幹線,八戸,はちのへ,"
二戸	七戸十和田	","https://map.goo.ne.jp/s_gootransit/staticmap.php?MAP=E141.26.6.100N40.30.23.600&ZM=8&SZ=672,120",八戸市尻内町,0391101,"
八戸線
東北・北海道新幹線
青い森鉄道
"
北海道,JR東北・北海道新幹線,七戸十和田,しちのへとわだ,"
八戸	新青森	","https://map.goo.ne.jp/s_gootransit/staticmap.php?MAP=E141.9.26.600N40.43.2.400&ZM=8&SZ=672,120",上北郡七戸町荒熊内,0392501,"
東北・北海道新幹線
"
北海道,JR東北・北海道新幹線,新青森,しんあおもり,"
七戸十和田	奥津軽いまべつ	","https://map.goo.ne.jp/s_gootransit/staticmap.php?MAP=E140.41.49.300N40.49.29.600&ZM=8&SZ=672,120",青森市石江,0380003,"
奥羽本線
東北・北海道新幹線
"
北海道,JR東北・北海道新幹線,奥津軽いまべつ,おくつがるいまべつ,"
新青森	木古内	","https://map.goo.ne.jp/s_gootransit/staticmap.php?MAP=E140.31.8.900N41.8.32.900&ZM=8&SZ=672,120",東津軽郡今別町大川平,0301505,"
東北・北海道新幹線
"
北海道,JR東北・北海道新幹線,木古内,きこない,"
奥津軽いまべつ	新函館北斗	","https://map.goo.ne.jp/s_gootransit/staticmap.php?MAP=E140.26.15.300N41.40.29.900&ZM=8&SZ=672,120",上磯郡木古内町本町,0490422,"
東北・北海道新幹線
津軽海峡線
道南いさりび鉄道
"
北海道,JR東北・北海道新幹線,新函館北斗,しんはこだてほくと,"
木古内		","https://map.goo.ne.jp/s_gootransit/staticmap.php?MAP=E140.39.1.200N41.54.10.100&ZM=8&SZ=672,120",北斗市市渡,0411242,"
函館本線
東北・北海道新幹線
"
北海道,道南いさりび鉄道,木古内,きこない,"
	札苅	","https://map.goo.ne.jp/s_gootransit/staticmap.php?MAP=E140.26.15.300N41.40.29.900&ZM=8&SZ=672,120",上磯郡木古内町本町,0490422,"
東北・北海道新幹線
津軽海峡線
道南いさりび鉄道
"
北海道,道南いさりび鉄道,札苅,さつかり,"
木古内	泉沢	","https://map.goo.ne.jp/s_gootransit/staticmap.php?MAP=E140.28.18.700N41.41.48.300&ZM=8&SZ=672,120",上磯郡木古内町札苅,0490411,"
津軽海峡線
道南いさりび鉄道
"
北海道,道南いさりび鉄道,泉沢,いずみさわ,"
札苅	釜谷	","https://map.goo.ne.jp/s_gootransit/staticmap.php?MAP=E140.30.36.800N41.41.53.800&ZM=8&SZ=672,120",上磯郡木古内町泉沢,0490405,"
津軽海峡線
道南いさりび鉄道
"
北海道,道南いさりび鉄道,釜谷,かまや,"
泉沢	渡島当別	","https://map.goo.ne.jp/s_gootransit/staticmap.php?MAP=E140.32.26.400N41.42.34.400&ZM=8&SZ=672,120",上磯郡木古内町釜谷,0490403,"
津軽海峡線
道南いさりび鉄道
"
北海道,道南いさりび鉄道,渡島当別,おしまとうべつ,"
釜谷	茂辺地	","https://map.goo.ne.jp/s_gootransit/staticmap.php?MAP=E140.34.57.600N41.44.5.400&ZM=8&SZ=672,120",北斗市当別,0490282,"
津軽海峡線
道南いさりび鉄道
"
北海道,道南いさりび鉄道,茂辺地,もへじ,"
渡島当別	上磯	","https://map.goo.ne.jp/s_gootransit/staticmap.php?MAP=E140.36.15.200N41.45.50.300&ZM=8&SZ=672,120",北斗市茂辺地,0490281,"
津軽海峡線
道南いさりび鉄道
"
北海道,道南いさりび鉄道,上磯,かみいそ,"
茂辺地	清川口	","https://map.goo.ne.jp/s_gootransit/staticmap.php?MAP=E140.38.39.100N41.49.1.300&ZM=8&SZ=672,120",北斗市飯生,0490161,"
津軽海峡線
道南いさりび鉄道
"
北海道,道南いさりび鉄道,清川口,きよかわぐち,"
上磯	久根別	","https://map.goo.ne.jp/s_gootransit/staticmap.php?MAP=E140.39.23.400N41.49.19.300&ZM=8&SZ=672,120",北斗市中野通,0490156,"
津軽海峡線
道南いさりび鉄道
"
北海道,道南いさりび鉄道,久根別,くねべつ,"
清川口	東久根別	","https://map.goo.ne.jp/s_gootransit/staticmap.php?MAP=E140.40.12.900N41.49.26.600&ZM=8&SZ=672,120",北斗市久根別,0490121,"
津軽海峡線
道南いさりび鉄道
"
北海道,道南いさりび鉄道,東久根別,ひがしくねべつ,"
久根別	七重浜	","https://map.goo.ne.jp/s_gootransit/staticmap.php?MAP=E140.41.0.100N41.49.24.500&ZM=8&SZ=672,120",北斗市久根別,0490121,"
津軽海峡線
道南いさりび鉄道
"
北海道,道南いさりび鉄道,七重浜,ななえはま,"
東久根別	五稜郭	","https://map.goo.ne.jp/s_gootransit/staticmap.php?MAP=E140.42.45.600N41.48.53.000&ZM=8&SZ=672,120",北斗市七重浜,0490111,"
津軽海峡線
道南いさりび鉄道
"
北海道,道南いさりび鉄道,五稜郭,ごりょうかく,"
七重浜		","https://map.goo.ne.jp/s_gootransit/staticmap.php?MAP=E140.44.13.700N41.48.3.300&ZM=8&SZ=672,120",函館市亀田本町,0410813,"
函館本線
津軽海峡線
道南いさりび鉄道
"
北海道,札幌市電（環状線）,西４丁目,にしよんちょうめ,"
	西８丁目	","https://map.goo.ne.jp/s_gootransit/staticmap.php?MAP=E141.21.20.000N43.3.23.100&ZM=8&SZ=672,120",札幌市中央区南一条西,0600061,"
札幌市電（環状線）
"
北海道,札幌市電（環状線）,西８丁目,にしはっちょうめ,"
西４丁目	中央区役所前	","https://map.goo.ne.jp/s_gootransit/staticmap.php?MAP=E141.20.59.500N43.3.20.500&ZM=8&SZ=672,120",札幌市中央区南一条西,0600061,"
札幌市電（環状線）
"
北海道,札幌市電（環状線）,中央区役所前,ちゅうおうくやくしょまえ,"
西８丁目	西１５丁目	","https://map.goo.ne.jp/s_gootransit/staticmap.php?MAP=E141.20.40.500N43.3.17.800&ZM=8&SZ=672,120",札幌市中央区南一条西,0600061,"
札幌市電（環状線）
"
北海道,札幌市電（環状線）,西１５丁目,にしじゅうごちょうめ,"
中央区役所前	西線６条	","https://map.goo.ne.jp/s_gootransit/staticmap.php?MAP=E141.20.20.000N43.3.14.000&ZM=8&SZ=672,120",札幌市中央区南一条西,0600061,"
札幌市電（環状線）
"
北海道,札幌市電（環状線）,西線６条,にしせんろくじょう,"
西１５丁目	西線９条旭山公園通	","https://map.goo.ne.jp/s_gootransit/staticmap.php?MAP=E141.20.19.500N43.2.55.800&ZM=8&SZ=672,120",札幌市中央区南六条西,0640806,"
札幌市電（環状線）
"
北海道,札幌市電（環状線）,西線９条旭山公園通,にしせんくじょうあさひやまこうえんどおり,"
西線６条	西線１１条	","https://map.goo.ne.jp/s_gootransit/staticmap.php?MAP=E141.20.20.800N43.2.43.700&ZM=8&SZ=672,120",札幌市中央区南八条西,0640808,"
札幌市電（環状線）
"
北海道,札幌市電（環状線）,西線１１条,にしせんじゅういちじょう,"
西線９条旭山公園通	西線１４条	","https://map.goo.ne.jp/s_gootransit/staticmap.php?MAP=E141.20.22.500N43.2.31.800&ZM=8&SZ=672,120",札幌市中央区南十一条西,0640811,"
札幌市電（環状線）
"
北海道,札幌市電（環状線）,西線１４条,にしせんじゅうよじょう,"
西線１１条	西線１６条	","https://map.goo.ne.jp/s_gootransit/staticmap.php?MAP=E141.20.24.500N43.2.16.300&ZM=8&SZ=672,120",札幌市中央区南十四条西,0640914,"
札幌市電（環状線）
"
北海道,札幌市電（環状線）,西線１６条,にしせんじゅうろくじょう,"
西線１４条	ロープウェイ入口	","https://map.goo.ne.jp/s_gootransit/staticmap.php?MAP=E141.20.26.000N43.2.4.200&ZM=8&SZ=672,120",札幌市中央区南十六条西,0640916,"
札幌市電（環状線）
"
北海道,札幌市電（環状線）,ロープウェイ入口,ろーぷうぇいいりぐち,"
西線１６条	電車事業所前	","https://map.goo.ne.jp/s_gootransit/staticmap.php?MAP=E141.20.27.600N43.1.52.100&ZM=8&SZ=672,120",札幌市中央区南十九条西,0640919,"
札幌市電（環状線）
"
北海道,札幌市電（環状線）,電車事業所前,でんしゃじぎょうしょまえ,"
ロープウェイ入口	中央図書館前	","https://map.goo.ne.jp/s_gootransit/staticmap.php?MAP=E141.20.29.000N43.1.41.100&ZM=8&SZ=672,120",札幌市中央区南二十一条西,0640921,"
札幌市電（環状線）
"
北海道,札幌市電（環状線）,中央図書館前,ちゅうおうとしょかんまえ,"
電車事業所前	石山通	","https://map.goo.ne.jp/s_gootransit/staticmap.php?MAP=E141.20.40.200N43.1.41.000&ZM=8&SZ=672,120",札幌市中央区南二十一条西,0640921,"
札幌市電（環状線）
"
北海道,札幌市電（環状線）,石山通,いしやまどおり,"
中央図書館前	東屯田通	","https://map.goo.ne.jp/s_gootransit/staticmap.php?MAP=E141.20.52.800N43.1.41.700&ZM=8&SZ=672,120",札幌市中央区南二十一条西,0640921,"
札幌市電（環状線）
"
北海道,札幌市電（環状線）,東屯田通,ひがしとんでんどおり,"
石山通	幌南小学校前	","https://map.goo.ne.jp/s_gootransit/staticmap.php?MAP=E141.21.7.200N43.1.42.700&ZM=8&SZ=672,120",札幌市中央区南二十一条西,0640921,"
札幌市電（環状線）
"
北海道,札幌市電（環状線）,幌南小学校前,こうなんしょうがっこうまえ,"
東屯田通	山鼻１９条	","https://map.goo.ne.jp/s_gootransit/staticmap.php?MAP=E141.21.20.000N43.1.47.500&ZM=8&SZ=672,120",札幌市中央区南二十一条西,0640921,"
札幌市電（環状線）
"
北海道,札幌市電（環状線）,山鼻１９条,やまはなじゅうくじょう,"
幌南小学校前	静修学園前	","https://map.goo.ne.jp/s_gootransit/staticmap.php?MAP=E141.21.19.100N43.1.55.700&ZM=8&SZ=672,120",札幌市中央区南十九条西,0640919,"
札幌市電（環状線）
"
北海道,札幌市電（環状線）,静修学園前,せいしゅうがくえんまえ,"
山鼻１９条	行啓通	","https://map.goo.ne.jp/s_gootransit/staticmap.php?MAP=E141.21.17.100N43.2.9.100&ZM=8&SZ=672,120",札幌市中央区南十六条西,0640916,"
札幌市電（環状線）
"
北海道,札幌市電（環状線）,行啓通,ぎょうけいどおり,"
静修学園前	中島公園通	","https://map.goo.ne.jp/s_gootransit/staticmap.php?MAP=E141.21.16.000N43.2.20.300&ZM=8&SZ=672,120",札幌市中央区南十四条西,0640914,"
札幌市電（環状線）
"
北海道,札幌市電（環状線）,中島公園通,なかじまこうえんどおり,"
行啓通	山鼻９条	","https://map.goo.ne.jp/s_gootransit/staticmap.php?MAP=E141.21.13.700N43.2.35.200&ZM=8&SZ=672,120",札幌市中央区南十一条西,0640811,"
札幌市電（環状線）
"
北海道,札幌市電（環状線）,山鼻９条,やまはなくじょう,"
中島公園通	東本願寺前	","https://map.goo.ne.jp/s_gootransit/staticmap.php?MAP=E141.21.12.500N43.2.46.300&ZM=8&SZ=672,120",札幌市中央区南九条西,0640809,"
札幌市電（環状線）
"
北海道,札幌市電（環状線）,東本願寺前,ひがしほんがんじまえ,"
山鼻９条	資生館小学校前	","https://map.goo.ne.jp/s_gootransit/staticmap.php?MAP=E141.21.11.500N43.2.56.300&ZM=8&SZ=672,120",札幌市中央区南七条西,0640807,"
札幌市電（環状線）
"
北海道,札幌市電（環状線）,資生館小学校前,しせいかんしょうがっこうまえ,"
東本願寺前	すすきの	","https://map.goo.ne.jp/s_gootransit/staticmap.php?MAP=E141.21.9.800N43.3.9.500&ZM=8&SZ=672,120",札幌市中央区南四条西,0640804,"
札幌市電（環状線）
"
北海道,札幌市電（環状線）,すすきの,すすきの,"
資生館小学校前	狸小路	","https://map.goo.ne.jp/s_gootransit/staticmap.php?MAP=E141.21.25.400N43.3.10.900&ZM=8&SZ=672,120",札幌市中央区南四条西,0640804,"
札幌地下鉄南北線
札幌市電（環状線）
"
北海道,札幌市電（環状線）,狸小路,たぬきこうじ,"
すすきの		","https://map.goo.ne.jp/s_gootransit/staticmap.php?MAP=E141.21.23.500N43.3.17.300&ZM=8&SZ=672,120",札幌市中央区南二条西,0600062,"
札幌市電（環状線）
"
北海道,函館市電２系統,湯の川,ゆのかわ,"
	湯の川温泉	","https://map.goo.ne.jp/s_gootransit/staticmap.php?MAP=E140.47.37.000N41.46.42.500&ZM=8&SZ=672,120",函館市湯川町,0420932,"
函館市電２系統
函館市電５系統
"
北海道,函館市電２系統,湯の川温泉,ゆのかわおんせん,"
湯の川	函館アリーナ前	","https://map.goo.ne.jp/s_gootransit/staticmap.php?MAP=E140.47.19.300N41.46.38.700&ZM=8&SZ=672,120",函館市湯川町,0420932,"
函館市電２系統
函館市電５系統
"
北海道,函館市電２系統,函館アリーナ前,はこだてありーなまえ,"
湯の川温泉	駒場車庫前	","https://map.goo.ne.jp/s_gootransit/staticmap.php?MAP=E140.47.9.100N41.46.45.600&ZM=8&SZ=672,120",函館市湯川町,0420932,"
函館市電２系統
函館市電５系統
"
北海道,函館市電２系統,駒場車庫前,こまばしゃこまえ,"
函館アリーナ前	競馬場前（北海道）	","https://map.goo.ne.jp/s_gootransit/staticmap.php?MAP=E140.46.57.500N41.46.50.700&ZM=8&SZ=672,120",函館市深堀町,0420941,"
函館市電２系統
函館市電５系統
"
北海道,函館市電２系統,競馬場前（北海道）,けいばじょうまえ,"
駒場車庫前	深堀町	","https://map.goo.ne.jp/s_gootransit/staticmap.php?MAP=E140.46.48.200N41.46.53.800&ZM=8&SZ=672,120",函館市深堀町,0420941,"
函館市電２系統
函館市電５系統
"
北海道,函館市電２系統,深堀町,ふかぼりちょう,"
競馬場前（北海道）	柏木町	","https://map.goo.ne.jp/s_gootransit/staticmap.php?MAP=E140.46.24.600N41.47.4.300&ZM=8&SZ=672,120",函館市柏木町,0420942,"
函館市電２系統
函館市電５系統
"
北海道,函館市電２系統,柏木町,かしわぎちょう,"
深堀町	杉並町	","https://map.goo.ne.jp/s_gootransit/staticmap.php?MAP=E140.46.7.500N41.47.7.200&ZM=8&SZ=672,120",函館市柏木町,0420942,"
函館市電２系統
函館市電５系統
"
北海道,函館市電２系統,杉並町,すぎなみちょう,"
柏木町	五稜郭公園前	","https://map.goo.ne.jp/s_gootransit/staticmap.php?MAP=E140.45.42.200N41.47.10.100&ZM=8&SZ=672,120",函館市杉並町,0400004,"
函館市電２系統
函館市電５系統
"
北海道,函館市電２系統,五稜郭公園前,ごりょうかくこうえんまえ,"
杉並町	中央病院前	","https://map.goo.ne.jp/s_gootransit/staticmap.php?MAP=E140.45.20.500N41.47.11.800&ZM=8&SZ=672,120",函館市本町,0400011,"
函館市電２系統
函館市電５系統
"
北海道,函館市電２系統,中央病院前,ちゅうおうびょういんまえ,"
五稜郭公園前	千代台	","https://map.goo.ne.jp/s_gootransit/staticmap.php?MAP=E140.45.16.000N41.47.2.200&ZM=8&SZ=672,120",函館市本町,0400011,"
函館市電２系統
函館市電５系統
"
北海道,函館市電２系統,千代台,ちよがだい,"
中央病院前	堀川町	","https://map.goo.ne.jp/s_gootransit/staticmap.php?MAP=E140.45.8.200N41.46.54.000&ZM=8&SZ=672,120",函館市千代台町,0400013,"
函館市電２系統
函館市電５系統
"
北海道,函館市電２系統,堀川町,ほりかわちょう,"
千代台	昭和橋	","https://map.goo.ne.jp/s_gootransit/staticmap.php?MAP=E140.44.52.500N41.46.41.200&ZM=8&SZ=672,120",函館市千代台町,0400013,"
函館市電２系統
函館市電５系統
"
北海道,函館市電２系統,昭和橋,しょうわばし,"
堀川町	千歳町（北海道）	","https://map.goo.ne.jp/s_gootransit/staticmap.php?MAP=E140.44.39.600N41.46.31.100&ZM=8&SZ=672,120",函館市堀川町,0400025,"
函館市電２系統
函館市電５系統
"
北海道,函館市電２系統,千歳町（北海道）,ちとせちょう,"
昭和橋	新川町（北海道）	","https://map.goo.ne.jp/s_gootransit/staticmap.php?MAP=E140.44.31.600N41.46.24.700&ZM=8&SZ=672,120",函館市千歳町,0400033,"
函館市電２系統
函館市電５系統
"
北海道,函館市電２系統,新川町（北海道）,しんかわちょう,"
千歳町（北海道）	松風町	","https://map.goo.ne.jp/s_gootransit/staticmap.php?MAP=E140.44.22.300N41.46.17.300&ZM=8&SZ=672,120",函館市千歳町,0400033,"
函館市電２系統
函館市電５系統
"
北海道,函館市電２系統,松風町,まつかぜちょう,"
新川町（北海道）	函館駅前	","https://map.goo.ne.jp/s_gootransit/staticmap.php?MAP=E140.44.12.000N41.46.8.000&ZM=8&SZ=672,120",函館市松風町,0400035,"
函館市電２系統
函館市電５系統
"
北海道,函館市電２系統,函館駅前,はこだてえきまえ,"
松風町	市役所前（函館）	","https://map.goo.ne.jp/s_gootransit/staticmap.php?MAP=E140.43.52.600N41.46.10.500&ZM=8&SZ=672,120",函館市若松町,0400063,"
函館市電２系統
函館市電５系統
"
北海道,函館市電２系統,市役所前（函館）,しやくしょまえ,"
函館駅前	魚市場通	","https://map.goo.ne.jp/s_gootransit/staticmap.php?MAP=E140.43.44.800N41.46.0.700&ZM=8&SZ=672,120",函館市大手町,0400064,"
函館市電２系統
函館市電５系統
"
北海道,函館市電２系統,魚市場通,うおいちばどおり,"
市役所前（函館）	十字街	","https://map.goo.ne.jp/s_gootransit/staticmap.php?MAP=E140.43.35.300N41.45.51.000&ZM=8&SZ=672,120",函館市豊川町,0400065,"
函館市電２系統
函館市電５系統
"
北海道,函館市電２系統,十字街,じゅうじがい,"
魚市場通	宝来町	","https://map.goo.ne.jp/s_gootransit/staticmap.php?MAP=E140.43.20.100N41.45.41.500&ZM=8&SZ=672,120",函館市末広町,0400053,"
函館市電２系統
函館市電５系統
"
北海道,函館市電２系統,宝来町,ほうらいちょう,"
十字街	青柳町	","https://map.goo.ne.jp/s_gootransit/staticmap.php?MAP=E140.43.25.000N41.45.29.500&ZM=8&SZ=672,120",函館市宝来町,0400043,"
函館市電２系統
函館市電５系統
"
北海道,函館市電２系統,青柳町,あおやぎちょう,"
宝来町	谷地頭	","https://map.goo.ne.jp/s_gootransit/staticmap.php?MAP=E140.43.19.200N41.45.14.100&ZM=8&SZ=672,120",函館市青柳町,0400044,"
函館市電２系統
函館市電５系統
"
北海道,函館市電２系統,谷地頭,やちがしら,"
青柳町		","https://map.goo.ne.jp/s_gootransit/staticmap.php?MAP=E140.43.11.700N41.45.2.500&ZM=8&SZ=672,120",函館市谷地頭町,0400046,"
函館市電２系統
函館市電５系統
"
北海道,函館市電５系統,十字街,じゅうじがい,"
	末広町（北海道）	","https://map.goo.ne.jp/s_gootransit/staticmap.php?MAP=E140.43.20.100N41.45.41.500&ZM=8&SZ=672,120",函館市末広町,0400053,"
函館市電２系統
函館市電５系統
"
北海道,函館市電５系統,末広町（北海道）,すえひろちょう,"
十字街	大町（北海道）	","https://map.goo.ne.jp/s_gootransit/staticmap.php?MAP=E140.42.56.600N41.45.51.000&ZM=8&SZ=672,120",函館市末広町,0400053,"
函館市電５系統
"
北海道,函館市電５系統,大町（北海道）,おおまち,"
末広町（北海道）	函館どつく前	","https://map.goo.ne.jp/s_gootransit/staticmap.php?MAP=E140.42.46.600N41.46.2.300&ZM=8&SZ=672,120",函館市大町,0400052,"
函館市電５系統
"
北海道,函館市電５系統,函館どつく前,はこだてどっくまえ,"
大町（北海道）		","https://map.goo.ne.jp/s_gootransit/staticmap.php?MAP=E140.42.28.300N41.46.14.000&ZM=8&SZ=672,120",函館市入舟町,0400057,"
函館市電５系統
"
北海道,函館山ロープウェイ,山麓（函館山）,さんろく,"
	山頂（函館山）	","https://map.goo.ne.jp/s_gootransit/staticmap.php?MAP=E140.43.4.200N41.45.30.000&ZM=8&SZ=672,120",函館市元町,0400054,"
函館山ロープウェイ
"
北海道,函館山ロープウェイ,山頂（函館山）,さんちょう,"
山麓（函館山）		","https://map.goo.ne.jp/s_gootransit/staticmap.php?MAP=E140.42.30.600N41.45.24.100&ZM=8&SZ=672,120",函館市函館山,0400054,"
函館山ロープウェイ
"
北海道,札幌地下鉄東西線,宮の沢,みやのさわ,"
	発寒南	","https://map.goo.ne.jp/s_gootransit/staticmap.php?MAP=E141.16.53.200N43.5.13.900&ZM=8&SZ=672,120",札幌市西区宮の沢一条,0630051,"
札幌地下鉄東西線
"
北海道,札幌地下鉄東西線,発寒南,はっさむみなみ,"
宮の沢	琴似（札幌市営）	","https://map.goo.ne.jp/s_gootransit/staticmap.php?MAP=E141.17.40.300N43.4.43.500&ZM=8&SZ=672,120",札幌市西区西町北,0630061,"
札幌地下鉄東西線
"
北海道,札幌地下鉄東西線,琴似（札幌市営）,ことに,"
発寒南	二十四軒	","https://map.goo.ne.jp/s_gootransit/staticmap.php?MAP=E141.18.29.100N43.4.22.700&ZM=8&SZ=672,120",札幌市西区琴似一条,0630811,"
札幌地下鉄東西線
"
北海道,札幌地下鉄東西線,二十四軒,にじゅうよんけん,"
琴似（札幌市営）	西２８丁目	","https://map.goo.ne.jp/s_gootransit/staticmap.php?MAP=E141.19.2.900N43.4.4.800&ZM=8&SZ=672,120",札幌市西区二十四軒一条,0630801,"
札幌地下鉄東西線
"
北海道,札幌地下鉄東西線,西２８丁目,にしにじゅうはっちょうめ,"
二十四軒	円山公園	","https://map.goo.ne.jp/s_gootransit/staticmap.php?MAP=E141.19.5.700N43.3.30.700&ZM=8&SZ=672,120",札幌市中央区北四条西,0640824,"
札幌地下鉄東西線
"
北海道,札幌地下鉄東西線,円山公園,まるやまこうえん,"
西２８丁目	西１８丁目	","https://map.goo.ne.jp/s_gootransit/staticmap.php?MAP=E141.19.23.800N43.3.11.700&ZM=8&SZ=672,120",札幌市中央区北一条西,0640821,"
札幌地下鉄東西線
"
北海道,札幌地下鉄東西線,西１８丁目,にしじゅうはっちょうめ,"
円山公園	西１１丁目	","https://map.goo.ne.jp/s_gootransit/staticmap.php?MAP=E141.20.2.800N43.3.16.800&ZM=8&SZ=672,120",札幌市中央区大通西,0600042,"
札幌地下鉄東西線
"
北海道,札幌地下鉄東西線,西１１丁目,にしじゅういっちょうめ,"
西１８丁目	大通	","https://map.goo.ne.jp/s_gootransit/staticmap.php?MAP=E141.20.42.500N43.3.22.100&ZM=8&SZ=672,120",札幌市中央区大通西,0600042,"
札幌地下鉄東西線
"
北海道,札幌地下鉄東西線,大通,おおどおり,"
西１１丁目	バスセンター前	","https://map.goo.ne.jp/s_gootransit/staticmap.php?MAP=E141.21.21.100N43.3.27.300&ZM=8&SZ=672,120",札幌市中央区大通西,0600042,"
札幌地下鉄南北線
札幌地下鉄東西線
札幌地下鉄東豊線
"
北海道,札幌地下鉄東西線,バスセンター前,ばすせんたーまえ,"
大通	菊水	","https://map.goo.ne.jp/s_gootransit/staticmap.php?MAP=E141.21.56.700N43.3.32.500&ZM=8&SZ=672,120",札幌市中央区南一条東,0600051,"
札幌地下鉄東西線
"
北海道,札幌地下鉄東西線,菊水,きくすい,"
バスセンター前	東札幌	","https://map.goo.ne.jp/s_gootransit/staticmap.php?MAP=E141.22.35.200N43.3.17.300&ZM=8&SZ=672,120",札幌市白石区菊水二条,0030802,"
札幌地下鉄東西線
"
北海道,札幌地下鉄東西線,東札幌,ひがしさっぽろ,"
菊水	白石（札幌市営）	","https://map.goo.ne.jp/s_gootransit/staticmap.php?MAP=E141.23.18.500N43.2.57.400&ZM=8&SZ=672,120",札幌市白石区東札幌二条,0030002,"
札幌地下鉄東西線
"
北海道,札幌地下鉄東西線,白石（札幌市営）,しろいし,"
東札幌	南郷７丁目	","https://map.goo.ne.jp/s_gootransit/staticmap.php?MAP=E141.23.57.300N43.2.38.100&ZM=8&SZ=672,120",札幌市白石区東札幌二条,0030002,"
札幌地下鉄東西線
"
北海道,札幌地下鉄東西線,南郷７丁目,なんごうななちょうめ,"
白石（札幌市営）	南郷１３丁目	","https://map.goo.ne.jp/s_gootransit/staticmap.php?MAP=E141.24.52.600N43.2.16.200&ZM=8&SZ=672,120",札幌市白石区南郷通,0030023,"
札幌地下鉄東西線
"
北海道,札幌地下鉄東西線,南郷１３丁目,なんごうじゅうさんちょうめ,"
南郷７丁目	南郷１８丁目	","https://map.goo.ne.jp/s_gootransit/staticmap.php?MAP=E141.25.35.500N43.1.59.800&ZM=8&SZ=672,120",札幌市白石区南郷通,0030023,"
札幌地下鉄東西線
"
北海道,札幌地下鉄東西線,南郷１８丁目,なんごうじゅうはっちょうめ,"
南郷１３丁目	大谷地	","https://map.goo.ne.jp/s_gootransit/staticmap.php?MAP=E141.26.19.500N43.1.40.300&ZM=8&SZ=672,120",札幌市白石区南郷通,0030023,"
札幌地下鉄東西線
"
北海道,札幌地下鉄東西線,大谷地,おおやち,"
南郷１８丁目	ひばりが丘（北海道）	","https://map.goo.ne.jp/s_gootransit/staticmap.php?MAP=E141.27.24.600N43.1.31.800&ZM=8&SZ=672,120",札幌市厚別区大谷地東,0040041,"
札幌地下鉄東西線
"
北海道,札幌地下鉄東西線,ひばりが丘（北海道）,ひばりがおか,"
大谷地	新さっぽろ（札幌市営）	","https://map.goo.ne.jp/s_gootransit/staticmap.php?MAP=E141.28.5.700N43.1.47.400&ZM=8&SZ=672,120",札幌市厚別区厚別南,0040022,"
札幌地下鉄東西線
"
北海道,札幌地下鉄東西線,新さっぽろ（札幌市営）,しんさっぽろ,"
ひばりが丘（北海道）		","https://map.goo.ne.jp/s_gootransit/staticmap.php?MAP=E141.28.39.400N43.2.11.100&ZM=8&SZ=672,120",札幌市厚別区厚別中央二条,0040052,"
札幌地下鉄東西線
"
北海道,札幌地下鉄南北線,麻生,あさぶ,"
	北３４条	","https://map.goo.ne.jp/s_gootransit/staticmap.php?MAP=E141.20.31.500N43.6.21.200&ZM=8&SZ=672,120",札幌市北区北四十条西,0010040,"
札幌地下鉄南北線
"
北海道,札幌地下鉄南北線,北３４条,きたさんじゅうよじょう,"
麻生	北２４条	","https://map.goo.ne.jp/s_gootransit/staticmap.php?MAP=E141.20.44.800N43.5.51.600&ZM=8&SZ=672,120",札幌市北区北三十三条西,0010033,"
札幌地下鉄南北線
"
北海道,札幌地下鉄南北線,北２４条,きたにじゅうよじょう,"
北３４条	北１８条	","https://map.goo.ne.jp/s_gootransit/staticmap.php?MAP=E141.20.54.200N43.5.14.300&ZM=8&SZ=672,120",札幌市北区北二十三条西,0010023,"
札幌地下鉄南北線
"
北海道,札幌地下鉄南北線,北１８条,きたじゅうはちじょう,"
北２４条	北１２条	","https://map.goo.ne.jp/s_gootransit/staticmap.php?MAP=E141.21.1.600N43.4.45.000&ZM=8&SZ=672,120",札幌市北区北十八条西,0010018,"
札幌地下鉄南北線
"
北海道,札幌地下鉄南北線,北１２条,きたじゅうにじょう,"
北１８条	さっぽろ（札幌市営）	","https://map.goo.ne.jp/s_gootransit/staticmap.php?MAP=E141.21.7.900N43.4.20.100&ZM=8&SZ=672,120",札幌市北区北十二条西,0010012,"
札幌地下鉄南北線
"
北海道,札幌地下鉄南北線,さっぽろ（札幌市営）,さっぽろ,"
北１２条	大通	","https://map.goo.ne.jp/s_gootransit/staticmap.php?MAP=E141.21.15.900N43.3.48.200&ZM=8&SZ=672,120",札幌市中央区北四条西,0600004,"
札幌地下鉄南北線
札幌地下鉄東豊線
"
北海道,札幌地下鉄南北線,大通,おおどおり,"
さっぽろ（札幌市営）	すすきの	","https://map.goo.ne.jp/s_gootransit/staticmap.php?MAP=E141.21.21.100N43.3.27.300&ZM=8&SZ=672,120",札幌市中央区大通西,0600042,"
札幌地下鉄南北線
札幌地下鉄東西線
札幌地下鉄東豊線
"
北海道,札幌地下鉄南北線,すすきの,すすきの,"
大通	中島公園	","https://map.goo.ne.jp/s_gootransit/staticmap.php?MAP=E141.21.25.400N43.3.10.900&ZM=8&SZ=672,120",札幌市中央区南四条西,0640804,"
札幌地下鉄南北線
札幌市電（環状線）
"
北海道,札幌地下鉄南北線,中島公園,なかじまこうえん,"
すすきの	幌平橋	","https://map.goo.ne.jp/s_gootransit/staticmap.php?MAP=E141.21.31.600N43.2.45.700&ZM=8&SZ=672,120",札幌市中央区南九条西,0640809,"
札幌地下鉄南北線
"
北海道,札幌地下鉄南北線,幌平橋,ほろひらばし,"
中島公園	中の島（北海道）	","https://map.goo.ne.jp/s_gootransit/staticmap.php?MAP=E141.21.34.200N43.2.16.700&ZM=8&SZ=672,120",札幌市中央区南十五条西,0640915,"
札幌地下鉄南北線
"
北海道,札幌地下鉄南北線,中の島（北海道）,なかのしま,"
幌平橋	平岸（札幌市営）	","https://map.goo.ne.jp/s_gootransit/staticmap.php?MAP=E141.21.53.800N43.2.6.200&ZM=8&SZ=672,120",札幌市豊平区中の島一条,0620921,"
札幌地下鉄南北線
"
北海道,札幌地下鉄南北線,平岸（札幌市営）,ひらぎし,"
中の島（北海道）	南平岸	","https://map.goo.ne.jp/s_gootransit/staticmap.php?MAP=E141.22.19.400N43.1.55.600&ZM=8&SZ=672,120",札幌市豊平区平岸二条,0620932,"
札幌地下鉄南北線
"
北海道,札幌地下鉄南北線,南平岸,みなみひらぎし,"
平岸（札幌市営）	澄川	","https://map.goo.ne.jp/s_gootransit/staticmap.php?MAP=E141.22.30.100N43.1.27.700&ZM=8&SZ=672,120",札幌市豊平区平岸四条,0620934,"
札幌地下鉄南北線
"
北海道,札幌地下鉄南北線,澄川,すみかわ,"
南平岸	自衛隊前	","https://map.goo.ne.jp/s_gootransit/staticmap.php?MAP=E141.22.15.600N43.0.51.700&ZM=8&SZ=672,120",札幌市南区澄川四条,0050004,"
札幌地下鉄南北線
"
北海道,札幌地下鉄南北線,自衛隊前,じえいたいまえ,"
澄川	真駒内	","https://map.goo.ne.jp/s_gootransit/staticmap.php?MAP=E141.22.6.800N43.0.12.600&ZM=8&SZ=672,120",札幌市南区澄川四条,0050004,"
札幌地下鉄南北線
"
北海道,札幌地下鉄南北線,真駒内,まこまない,"
自衛隊前		","https://map.goo.ne.jp/s_gootransit/staticmap.php?MAP=E141.21.43.800N42.59.19.700&ZM=8&SZ=672,120",札幌市南区真駒内,0050861,"
札幌地下鉄南北線
"
北海道,札幌地下鉄東豊線,栄町（北海道）,さかえまち,"
	新道東	","https://map.goo.ne.jp/s_gootransit/staticmap.php?MAP=E141.22.14.900N43.6.38.600&ZM=8&SZ=672,120",札幌市東区北四十二条東,0070842,"
札幌地下鉄東豊線
"
北海道,札幌地下鉄東豊線,新道東,しんどうひがし,"
栄町（北海道）	元町（北海道）	","https://map.goo.ne.jp/s_gootransit/staticmap.php?MAP=E141.22.22.200N43.6.8.600&ZM=8&SZ=672,120",札幌市東区北三十四条東,0070834,"
札幌地下鉄東豊線
"
北海道,札幌地下鉄東豊線,元町（北海道）,もとまち,"
新道東	環状通東	","https://map.goo.ne.jp/s_gootransit/staticmap.php?MAP=E141.22.31.500N43.5.29.100&ZM=8&SZ=672,120",札幌市東区北二十四条東,0650024,"
札幌地下鉄東豊線
"
北海道,札幌地下鉄東豊線,環状通東,かんじょうどおりひがし,"
元町（北海道）	東区役所前	","https://map.goo.ne.jp/s_gootransit/staticmap.php?MAP=E141.22.41.100N43.4.47.800&ZM=8&SZ=672,120",札幌市東区北十五条東,0650015,"
札幌地下鉄東豊線
"
北海道,札幌地下鉄東豊線,東区役所前,ひがしくやくしょまえ,"
環状通東	北１３条東	","https://map.goo.ne.jp/s_gootransit/staticmap.php?MAP=E141.22.7.400N43.4.32.700&ZM=8&SZ=672,120",札幌市東区北十三条東,0650013,"
札幌地下鉄東豊線
"
北海道,札幌地下鉄東豊線,北１３条東,きたじゅうさんじょうひがし,"
東区役所前	さっぽろ（札幌市営）	","https://map.goo.ne.jp/s_gootransit/staticmap.php?MAP=E141.21.31.900N43.4.28.100&ZM=8&SZ=672,120",札幌市東区北十三条東,0650013,"
札幌地下鉄東豊線
"
北海道,札幌地下鉄東豊線,さっぽろ（札幌市営）,さっぽろ,"
北１３条東	大通	","https://map.goo.ne.jp/s_gootransit/staticmap.php?MAP=E141.21.15.900N43.3.48.200&ZM=8&SZ=672,120",札幌市中央区北四条西,0600004,"
札幌地下鉄南北線
札幌地下鉄東豊線
"
北海道,札幌地下鉄東豊線,大通,おおどおり,"
さっぽろ（札幌市営）	豊水すすきの	","https://map.goo.ne.jp/s_gootransit/staticmap.php?MAP=E141.21.21.100N43.3.27.300&ZM=8&SZ=672,120",札幌市中央区大通西,0600042,"
札幌地下鉄南北線
札幌地下鉄東西線
札幌地下鉄東豊線
"
北海道,札幌地下鉄東豊線,豊水すすきの,ほうすいすすきの,"
大通	学園前（北海道）	","https://map.goo.ne.jp/s_gootransit/staticmap.php?MAP=E141.21.38.300N43.3.5.800&ZM=8&SZ=672,120",札幌市中央区南六条西,0640806,"
札幌地下鉄東豊線
"
北海道,札幌地下鉄東豊線,学園前（北海道）,がくえんまえ,"
豊水すすきの	豊平公園	","https://map.goo.ne.jp/s_gootransit/staticmap.php?MAP=E141.22.21.100N43.2.43.700&ZM=8&SZ=672,120",札幌市豊平区豊平六条,0620906,"
札幌地下鉄東豊線
"
北海道,札幌地下鉄東豊線,豊平公園,とよひらこうえん,"
学園前（北海道）	美園	","https://map.goo.ne.jp/s_gootransit/staticmap.php?MAP=E141.22.46.600N43.2.23.300&ZM=8&SZ=672,120",札幌市豊平区豊平五条,0620905,"
札幌地下鉄東豊線
"
北海道,札幌地下鉄東豊線,美園,みその,"
豊平公園	月寒中央	","https://map.goo.ne.jp/s_gootransit/staticmap.php?MAP=E141.23.20.700N43.2.1.600&ZM=8&SZ=672,120",札幌市豊平区美園七条,0620007,"
札幌地下鉄東豊線
"
北海道,札幌地下鉄東豊線,月寒中央,つきさむちゅうおう,"
美園	福住	","https://map.goo.ne.jp/s_gootransit/staticmap.php?MAP=E141.24.1.300N43.1.39.700&ZM=8&SZ=672,120",札幌市豊平区月寒中央通,0620020,"
札幌地下鉄東豊線
"
北海道,札幌地下鉄東豊線,福住,ふくずみ,"
月寒中央		","https://map.goo.ne.jp/s_gootransit/staticmap.php?MAP=E141.24.22.900N43.1.10.200&ZM=8&SZ=672,120",札幌市豊平区月寒東一条,0620051,"
札幌地下鉄東豊線
"