aria,line,name,name_k,previous_next,latitude_longitude,address,postcode,trangit
東北,JR常磐線,上野,うえの,"
	日暮里	","https://map.goo.ne.jp/s_gootransit/staticmap.php?MAP=E139.46.44.700N35.42.35.800&ZM=8&SZ=672,120",台東区上野,1100005,"
上越新幹線
京浜東北線
北陸新幹線
宇都宮線
山手線
常磐線
東京メトロ日比谷線
東京メトロ銀座線
東北・北海道新幹線
高崎線
"
東北,JR常磐線,日暮里,にっぽり,"
上野	三河島	","https://map.goo.ne.jp/s_gootransit/staticmap.php?MAP=E139.46.27.600N35.43.26.200&ZM=8&SZ=672,120",荒川区西日暮里,1160013,"
京成成田スカイアクセス
京成本線
京浜東北線
山手線
常磐線
日暮里・舎人ライナー
"
東北,JR常磐線,三河島,みかわしま,"
日暮里	南千住	","https://map.goo.ne.jp/s_gootransit/staticmap.php?MAP=E139.46.49.100N35.43.48.500&ZM=8&SZ=672,120",荒川区西日暮里,1160013,"
常磐線
"
,,,,,,,,
東北,JR常磐線,北千住,きたせんじゅ,"
南千住	松戸	","https://map.goo.ne.jp/s_gootransit/staticmap.php?MAP=E139.48.30.400N35.44.46.800&ZM=8&SZ=672,120",足立区千住旭町,1200026,"
つくばエクスプレス
常磐線
常磐線各停
東京メトロ千代田線
東京メトロ日比谷線
東武スカイツリーライン
東武日光線・鬼怒川線
"
東北,JR常磐線,松戸,まつど,"
北千住	土浦	","https://map.goo.ne.jp/s_gootransit/staticmap.php?MAP=E139.54.15.600N35.46.51.100&ZM=8&SZ=672,120",松戸市松戸,2710092,"
常磐線
常磐線各停
新京成線
"
東北,JR常磐線,土浦,つちうら,"
松戸	柏	","https://map.goo.ne.jp/s_gootransit/staticmap.php?MAP=E140.12.34.200N36.4.31.000&ZM=8&SZ=672,120",土浦市有明町,3000035,"
常磐線
"
東北,JR常磐線,柏,かしわ,"
土浦	石岡	","https://map.goo.ne.jp/s_gootransit/staticmap.php?MAP=E139.58.28.100N35.51.32.900&ZM=8&SZ=672,120",柏市柏,2770005,"
常磐線
常磐線各停
東武アーバンパークライン
"
東北,JR常磐線,石岡,いしおか,"
柏	我孫子	","https://map.goo.ne.jp/s_gootransit/staticmap.php?MAP=E140.16.59.200N36.11.17.700&ZM=8&SZ=672,120",石岡市国府,3150014,"
常磐線
"
東北,JR常磐線,我孫子,あびこ,"
石岡	友部	","https://map.goo.ne.jp/s_gootransit/staticmap.php?MAP=E140.0.49.500N35.52.10.600&ZM=8&SZ=672,120",我孫子市本町,2701151,"
常磐線
常磐線各停
成田線［我孫子－成田］
"
東北,JR常磐線,友部,ともべ,"
我孫子	赤塚（茨城）	","https://map.goo.ne.jp/s_gootransit/staticmap.php?MAP=E140.18.33.700N36.20.50.300&ZM=8&SZ=672,120",笠間市友部駅前,3091735,"
常磐線
水戸線
"
東北,JR常磐線,赤塚（茨城）,あかつか,"
友部	天王台	","https://map.goo.ne.jp/s_gootransit/staticmap.php?MAP=E140.25.6.300N36.22.42.900&ZM=8&SZ=672,120",水戸市赤塚,3114141,"
常磐線
水戸線
"
東北,JR常磐線,天王台,てんのうだい,"
赤塚（茨城）	偕楽園	","https://map.goo.ne.jp/s_gootransit/staticmap.php?MAP=E140.2.39.100N35.52.9.800&ZM=8&SZ=672,120",我孫子市柴崎台,2701176,"
常磐線
常磐線各停
"
東北,JR常磐線,偕楽園,かいらくえん,"
天王台	取手	","https://map.goo.ne.jp/s_gootransit/staticmap.php?MAP=E140.27.34.800N36.22.11.500&ZM=8&SZ=672,120",水戸市常磐町,3100033,"
常磐線
水戸線
"
東北,JR常磐線,取手,とりで,"
偕楽園	水戸	","https://map.goo.ne.jp/s_gootransit/staticmap.php?MAP=E140.3.59.400N35.53.33.200&ZM=8&SZ=672,120",取手市中央町,3020014,"
常磐線
常磐線各停
関鉄常総線
"
東北,JR常磐線,水戸,みと,"
取手	藤代	","https://map.goo.ne.jp/s_gootransit/staticmap.php?MAP=E140.28.48.900N36.22.3.600&ZM=8&SZ=672,120",水戸市宮町,3100015,"
常磐線
水戸線
水郡線
鹿島臨海鉄道大洗鹿島線
"
東北,JR常磐線,藤代,ふじしろ,"
水戸	勝田	","https://map.goo.ne.jp/s_gootransit/staticmap.php?MAP=E140.7.17.100N35.55.2.400&ZM=8&SZ=672,120",取手市宮和田,3001514,"
常磐線
"
東北,JR常磐線,勝田,かつた,"
藤代	龍ヶ崎市	","https://map.goo.ne.jp/s_gootransit/staticmap.php?MAP=E140.31.40.500N36.23.29.400&ZM=8&SZ=672,120",ひたちなか市勝田中央,3120045,"
ひたちなか海浜鉄道湊線
常磐線
水戸線
"
東北,JR常磐線,龍ヶ崎市,りゅうがさきし,"
勝田	日立	","https://map.goo.ne.jp/s_gootransit/staticmap.php?MAP=E140.8.28.900N35.55.35.900&ZM=8&SZ=672,120",龍ケ崎市佐貫町,3010033,"
常磐線
"
東北,JR常磐線,日立,ひたち,"
龍ヶ崎市	牛久	","https://map.goo.ne.jp/s_gootransit/staticmap.php?MAP=E140.39.54.700N36.35.14.200&ZM=8&SZ=672,120",日立市幸町,3170073,"
常磐線
"
東北,JR常磐線,牛久,うしく,"
日立	高萩	","https://map.goo.ne.jp/s_gootransit/staticmap.php?MAP=E140.8.39.500N35.58.21.000&ZM=8&SZ=672,120",牛久市牛久町,3001221,"
常磐線
"
東北,JR常磐線,高萩,たかはぎ,"
牛久	ひたち野うしく	","https://map.goo.ne.jp/s_gootransit/staticmap.php?MAP=E140.43.13.300N36.42.40.800&ZM=8&SZ=672,120",高萩市高萩,3180034,"
常磐線
"
東北,JR常磐線,ひたち野うしく,ひたちのうしく,"
高萩	荒川沖	","https://map.goo.ne.jp/s_gootransit/staticmap.php?MAP=E140.9.41.500N36.0.14.900&ZM=8&SZ=672,120",牛久市中根町,3001202,"
常磐線
"
東北,JR常磐線,荒川沖,あらかわおき,"
ひたち野うしく	泉（ＪＲ）	","https://map.goo.ne.jp/s_gootransit/staticmap.php?MAP=E140.10.11.700N36.1.41.100&ZM=8&SZ=672,120",土浦市荒川沖東,3000871,"
常磐線
"
東北,JR常磐線,泉（ＪＲ）,いずみ,"
荒川沖	土浦	","https://map.goo.ne.jp/s_gootransit/staticmap.php?MAP=E140.51.26.500N36.57.8.900&ZM=8&SZ=672,120",いわき市泉玉露,9718172,"
常磐線
"
東北,JR常磐線,湯本,ゆもと,"
土浦	いわき	","https://map.goo.ne.jp/s_gootransit/staticmap.php?MAP=E140.51.11.400N37.0.13.900&ZM=8&SZ=672,120",いわき市常磐湯本町,9728321,"
常磐線
"
東北,JR常磐線,いわき,いわき,"
湯本	神立	","https://map.goo.ne.jp/s_gootransit/staticmap.php?MAP=E140.53.44.700N37.3.18.500&ZM=8&SZ=672,120",いわき市平,9708026,"
常磐線
磐越東線
"
東北,JR常磐線,神立,かんだつ,"
いわき	原ノ町	","https://map.goo.ne.jp/s_gootransit/staticmap.php?MAP=E140.15.6.600N36.7.1.600&ZM=8&SZ=672,120",土浦市神立町,3000013,"
常磐線
"
東北,JR常磐線,原ノ町,はらのまち,"
神立	高浜（茨城）	","https://map.goo.ne.jp/s_gootransit/staticmap.php?MAP=E140.58.27.800N37.38.6.300&ZM=8&SZ=672,120",南相馬市原町区旭町,9750004,"
常磐線
"
東北,JR常磐線,高浜（茨城）,たかはま,"
原ノ町	岩沼	","https://map.goo.ne.jp/s_gootransit/staticmap.php?MAP=E140.17.51.700N36.9.37.500&ZM=8&SZ=672,120",石岡市北根本,3150044,"
常磐線
"
東北,JR常磐線,岩沼,いわぬま,"
逢隈		","https://map.goo.ne.jp/s_gootransit/staticmap.php?MAP=E140.52.1.400N38.6.32.400&ZM=8&SZ=672,120",岩沼市館下,9892441,"
常磐線
東北本線
"
東北,JR常磐線,羽鳥,はとり,"
石岡	岩間	","https://map.goo.ne.jp/s_gootransit/staticmap.php?MAP=E140.17.24.200N36.14.39.600&ZM=8&SZ=672,120",小美玉市羽鳥,3190123,"
常磐線
"
東北,JR常磐線,岩間,いわま,"
羽鳥	友部	","https://map.goo.ne.jp/s_gootransit/staticmap.php?MAP=E140.16.47.200N36.17.32.500&ZM=8&SZ=672,120",笠間市下郷,3190202,"
常磐線
"
東北,JR常磐線,内原,うちはら,"
友部	赤塚（茨城）	","https://map.goo.ne.jp/s_gootransit/staticmap.php?MAP=E140.21.21.500N36.22.0.700&ZM=8&SZ=672,120",水戸市内原町,3190315,"
常磐線
水戸線
"
東北,JR常磐線,佐和（茨城）,さわ,"
勝田	東海	","https://map.goo.ne.jp/s_gootransit/staticmap.php?MAP=E140.32.37.800N36.25.38.300&ZM=8&SZ=672,120",ひたちなか市高場,3120062,"
常磐線
"
東北,JR常磐線,東海,とうかい,"
佐和（茨城）	大甕	","https://map.goo.ne.jp/s_gootransit/staticmap.php?MAP=E140.34.9.800N36.27.44.500&ZM=8&SZ=672,120",那珂郡東海村舟石川,3191111,"
常磐線
"
東北,JR常磐線,大甕,おおみか,"
東海	常陸多賀	","https://map.goo.ne.jp/s_gootransit/staticmap.php?MAP=E140.37.22.200N36.30.34.800&ZM=8&SZ=672,120",日立市大みか町,3191221,"
常磐線
"
東北,JR常磐線,常陸多賀,ひたちたが,"
大甕	日立	","https://map.goo.ne.jp/s_gootransit/staticmap.php?MAP=E140.38.9.700N36.32.56.100&ZM=8&SZ=672,120",日立市多賀町,3160003,"
常磐線
"
東北,JR常磐線,小木津,おぎつ,"
日立	十王	","https://map.goo.ne.jp/s_gootransit/staticmap.php?MAP=E140.40.42.900N36.38.0.600&ZM=8&SZ=672,120",日立市日高町,3191414,"
常磐線
"
東北,JR常磐線,十王,じゅうおう,"
小木津	高萩	","https://map.goo.ne.jp/s_gootransit/staticmap.php?MAP=E140.41.21.600N36.40.5.600&ZM=8&SZ=672,120",日立市十王町友部,3191304,"
常磐線
"
東北,JR常磐線,高萩,たかはぎ,"
牛久	ひたち野うしく	","https://map.goo.ne.jp/s_gootransit/staticmap.php?MAP=E140.43.13.300N36.42.40.800&ZM=8&SZ=672,120",高萩市高萩,,
東北,JR常磐線,磯原,いそはら,"
南中郷	大津港	","https://map.goo.ne.jp/s_gootransit/staticmap.php?MAP=E140.44.58.300N36.47.14.500&ZM=8&SZ=672,120",北茨城市磯原町磯原,3191541,"
常磐線
"
東北,JR常磐線,大津港,おおつこう,"
磯原	勿来	","https://map.goo.ne.jp/s_gootransit/staticmap.php?MAP=E140.46.53.200N36.50.37.100&ZM=8&SZ=672,120",北茨城市大津町北町,3191704,"
常磐線
"
東北,JR常磐線,勿来,なこそ,"
大津港	植田（福島）	","https://map.goo.ne.jp/s_gootransit/staticmap.php?MAP=E140.47.25.900N36.52.48.800&ZM=8&SZ=672,120",いわき市勿来町,9790146,"
常磐線
"
東北,JR常磐線,植田（福島）,うえだ,"
勿来	泉（ＪＲ）	","https://map.goo.ne.jp/s_gootransit/staticmap.php?MAP=E140.47.59.400N36.55.2.400&ZM=8&SZ=672,120",いわき市植田町,9748261,"
常磐線
"
東北,JR常磐線,内郷,うちごう,"
湯本	いわき	","https://map.goo.ne.jp/s_gootransit/staticmap.php?MAP=E140.51.29.800N37.1.58.300&ZM=8&SZ=672,120",いわき市内郷綴町,9738403,"
常磐線
"
東北,JR常磐線,草野（福島）,くさの,"
いわき	四ッ倉	","https://map.goo.ne.jp/s_gootransit/staticmap.php?MAP=E140.57.2.200N37.4.14.800&ZM=8&SZ=672,120",いわき市平泉崎,9700112,"
常磐線
"
,,,,"
草野（福島）	久ノ浜	","https://map.goo.ne.jp/s_gootransit/staticmap.php?MAP=E140.59.2.900N37.5.57.300&ZM=8&SZ=672,120",いわき市四倉町,9790201,"
常磐線
"
東北,JR常磐線,久ノ浜,ひさのはま,"
四ッ倉	末続	","https://map.goo.ne.jp/s_gootransit/staticmap.php?MAP=E140.59.56.700N37.8.22.100&ZM=8&SZ=672,120",いわき市久之浜町久之浜,9790333,"
常磐線
"
東北,JR常磐線,末続,すえつぎ,"
久ノ浜	広野（福島）	","https://map.goo.ne.jp/s_gootransit/staticmap.php?MAP=E140.59.56.200N37.10.9.200&ZM=8&SZ=672,120",いわき市久之浜町末続,9790331,"
常磐線
"
東北,JR常磐線,広野（福島）,ひろの,"
末続	Ｊヴィレッジ	","https://map.goo.ne.jp/s_gootransit/staticmap.php?MAP=E141.0.7.400N37.12.30.700&ZM=8&SZ=672,120",双葉郡広野町下浅見川,9790403,"
常磐線
"
東北,JR常磐線,木戸,きど,"
Ｊヴィレッジ	竜田	","https://map.goo.ne.jp/s_gootransit/staticmap.php?MAP=E141.0.21.200N37.15.17.700&ZM=8&SZ=672,120",双葉郡楢葉町山田岡,9790513,"
常磐線
"
東北,JR常磐線,竜田,たつた,"
木戸	富岡	","https://map.goo.ne.jp/s_gootransit/staticmap.php?MAP=E141.0.22.500N37.16.46.400&ZM=8&SZ=672,120",双葉郡楢葉町井出,9790603,"
常磐線
"
東北,JR常磐線,富岡,とみおか,"
竜田	夜ノ森	","https://map.goo.ne.jp/s_gootransit/staticmap.php?MAP=E141.1.34.600N37.19.51.800&ZM=8&SZ=672,120",双葉郡富岡町仏浜,9791121,"
常磐線
"
東北,JR常磐線,大野,おおの,"
夜ノ森	双葉	","https://map.goo.ne.jp/s_gootransit/staticmap.php?MAP=E140.59.15.400N37.24.22.500&ZM=8&SZ=672,120",双葉郡大熊町下野上,9791308,"
常磐線
"
東北,JR常磐線,双葉,ふたば,"
大野	浪江	","https://map.goo.ne.jp/s_gootransit/staticmap.php?MAP=E141.0.33.300N37.27.3.500&ZM=8&SZ=672,120",双葉郡双葉町長塚,9791471,"
常磐線
"
東北,JR常磐線,浪江,なみえ,"
双葉	桃内	","https://map.goo.ne.jp/s_gootransit/staticmap.php?MAP=E140.59.34.700N37.29.21.300&ZM=8&SZ=672,120",双葉郡浪江町権現堂,9791521,"
常磐線
"
東北,JR常磐線,桃内,ももうち,"
浪江	小高	","https://map.goo.ne.jp/s_gootransit/staticmap.php?MAP=E140.59.15.300N37.31.31.500&ZM=8&SZ=672,120",南相馬市小高区耳谷,9792151,"
常磐線
"
東北,JR常磐線,小高,おだか,"
桃内	磐城太田	","https://map.goo.ne.jp/s_gootransit/staticmap.php?MAP=E140.59.58.600N37.33.34.800&ZM=8&SZ=672,120",南相馬市小高区東町,9792121,"
常磐線
"
東北,JR常磐線,磐城太田,いわきおおた,"
小高	原ノ町	","https://map.goo.ne.jp/s_gootransit/staticmap.php?MAP=E140.59.41.700N37.36.7.600&ZM=8&SZ=672,120",南相馬市原町区高,9750054,"
常磐線
"
東北,JR常磐線,鹿島,かしま,"
原ノ町	日立木	","https://map.goo.ne.jp/s_gootransit/staticmap.php?MAP=E140.58.24.500N37.41.59.400&ZM=8&SZ=672,120",南相馬市鹿島区鹿島,9792335,"
常磐線
"
東北,JR常磐線,日立木,にったき,"
鹿島	相馬	","https://map.goo.ne.jp/s_gootransit/staticmap.php?MAP=E140.56.17.300N37.45.11.100&ZM=8&SZ=672,120",相馬市赤木,9792521,"
常磐線
"
東北,JR常磐線,相馬,そうま,"
日立木	駒ヶ嶺	","https://map.goo.ne.jp/s_gootransit/staticmap.php?MAP=E140.55.44.900N37.47.58.200&ZM=8&SZ=672,120",相馬市中村,9760042,"
常磐線
"
東北,JR常磐線,駒ヶ嶺,こまがみね,"
相馬	新地	","https://map.goo.ne.jp/s_gootransit/staticmap.php?MAP=E140.55.42.800N37.50.21.200&ZM=8&SZ=672,120",相馬郡新地町駒ケ嶺,9792611,"
常磐線
"
東北,JR常磐線,新地,しんち,"
駒ヶ嶺	坂元	","https://map.goo.ne.jp/s_gootransit/staticmap.php?MAP=E140.55.44.200N37.52.34.000&ZM=8&SZ=672,120",相馬郡新地町谷地小屋,9792702,"
常磐線
"
東北,JR常磐線,坂元,さかもと,"
新地	山下（宮城）	","https://map.goo.ne.jp/s_gootransit/staticmap.php?MAP=E140.54.15.000N37.55.17.400&ZM=8&SZ=672,120",亘理郡山元町坂元,9892111,"
常磐線
"
東北,JR常磐線,山下（宮城）,やました,"
坂元	浜吉田	","https://map.goo.ne.jp/s_gootransit/staticmap.php?MAP=E140.53.32.100N37.57.46.200&ZM=8&SZ=672,120",亘理郡山元町山寺,9892201,"
常磐線
"
東北,JR常磐線,浜吉田,はまよしだ,"
山下（宮城）	亘理	","https://map.goo.ne.jp/s_gootransit/staticmap.php?MAP=E140.53.36.600N37.59.57.300&ZM=8&SZ=672,120",亘理郡亘理町吉田,9892331,"
常磐線
"
東北,JR常磐線,亘理,わたり,"
浜吉田	逢隈	","https://map.goo.ne.jp/s_gootransit/staticmap.php?MAP=E140.51.52.900N38.2.12.800&ZM=8&SZ=672,120",亘理郡亘理町道田西,9892351,"
常磐線
"
東北,JR常磐線,逢隈,おおくま,"
亘理	岩沼	","https://map.goo.ne.jp/s_gootransit/staticmap.php?MAP=E140.51.29.500N38.3.52.500&ZM=8&SZ=672,120",亘理郡亘理町逢隈下郡,9892382,"
常磐線
"
東北,JR東北本線,仙台,せんだい,"
	東仙台	","https://map.goo.ne.jp/s_gootransit/staticmap.php?MAP=E140.53.14.800N38.15.26.300&ZM=8&SZ=672,120",仙台市青葉区中央,9800021,"
仙台地下鉄南北線
仙台地下鉄東西線
仙台空港アクセス線
仙山線
仙石線
常磐線
東北・北海道新幹線
東北本線
東北本線利府支線
"
東北,JR東北本線,東仙台,ひがしせんだい,"
仙台	岩切	","https://map.goo.ne.jp/s_gootransit/staticmap.php?MAP=E140.55.24.500N38.16.24.200&ZM=8&SZ=672,120",仙台市宮城野区東仙台,9830833,"
東北本線
東北本線利府支線
"
東北,JR東北本線,岩切,いわきり,"
東仙台	黒磯	","https://map.goo.ne.jp/s_gootransit/staticmap.php?MAP=E140.57.32.500N38.17.53.100&ZM=8&SZ=672,120",仙台市宮城野区岩切,9830821,"
東北本線
東北本線利府支線
"
東北,JR東北本線,黒磯,くろいそ,"
岩切	仙台	","https://map.goo.ne.jp/s_gootransit/staticmap.php?MAP=E140.3.48.400N36.58.1.800&ZM=8&SZ=672,120",那須塩原市本町,3250056,"
宇都宮線
東北本線
湘南新宿ライン
"
東北,JR東北本線,岩沼,いわぬま,"
仙台	白石（宮城）	","https://map.goo.ne.jp/s_gootransit/staticmap.php?MAP=E140.52.1.400N38.6.32.400&ZM=8&SZ=672,120",岩沼市館下,9892441,"
常磐線
東北本線
"
東北,JR東北本線,白石（宮城）,しろいし,"
岩沼	福島（福島）	","https://map.goo.ne.jp/s_gootransit/staticmap.php?MAP=E140.37.46.500N37.59.59.400&ZM=8&SZ=672,120",白石市沢目,9890243,"
東北本線
"
東北,JR東北本線,福島（福島）,ふくしま,"
白石（宮城）	二本松	","https://map.goo.ne.jp/s_gootransit/staticmap.php?MAP=E140.27.48.000N37.45.5.400&ZM=8&SZ=672,120",福島市栄町,9608031,"
山形線
東北・北海道新幹線
東北本線
福島交通飯坂線
阿武隈急行
"
東北,JR東北本線,二本松,にほんまつ,"
福島（福島）	郡山（福島）	","https://map.goo.ne.jp/s_gootransit/staticmap.php?MAP=E140.26.20.700N37.35.11.100&ZM=8&SZ=672,120",二本松市本町,9640917,"
東北本線
"
東北,JR東北本線,郡山（福島）,こおりやま,"
二本松	黒磯	","https://map.goo.ne.jp/s_gootransit/staticmap.php?MAP=E140.23.32.600N37.23.42.700&ZM=8&SZ=672,120",郡山市燧田,9638003,"
東北・北海道新幹線
東北本線
水郡線
磐越東線
磐越西線
"
東北,JR東北本線,高久,たかく,"
黒磯	黒田原	","https://map.goo.ne.jp/s_gootransit/staticmap.php?MAP=E140.5.26.300N36.59.36.400&ZM=8&SZ=672,120",那須郡那須町高久甲,3250001,"
東北本線
"
東北,JR東北本線,黒田原,くろだはら,"
高久	豊原	","https://map.goo.ne.jp/s_gootransit/staticmap.php?MAP=E140.7.26.400N37.1.13.300&ZM=8&SZ=672,120",那須郡那須町寺子丙,3293222,"
東北本線
"
東北,JR東北本線,豊原,とよはら,"
黒田原	白坂	","https://map.goo.ne.jp/s_gootransit/staticmap.php?MAP=E140.9.29.800N37.3.6.600&ZM=8&SZ=672,120",那須郡那須町豊原甲,3293211,"
東北本線
"
東北,JR東北本線,白坂,しらさか,"
豊原	新白河	","https://map.goo.ne.jp/s_gootransit/staticmap.php?MAP=E140.11.17.000N37.5.33.100&ZM=8&SZ=672,120",白河市白坂,9610835,"
東北本線
"
東北,JR東北本線,新白河,しんしらかわ,"
白坂	白河	","https://map.goo.ne.jp/s_gootransit/staticmap.php?MAP=E140.11.32.500N37.7.12.800&ZM=8&SZ=672,120",西白河郡西郷村小田倉,9618061,"
東北・北海道新幹線
東北本線
"
東北,JR東北本線,白河,しらかわ,"
新白河	久田野	","https://map.goo.ne.jp/s_gootransit/staticmap.php?MAP=E140.12.57.900N37.7.37.600&ZM=8&SZ=672,120",白河市郭内,9610074,"
東北本線
"
東北,JR東北本線,久田野,くたの,"
白河	泉崎	","https://map.goo.ne.jp/s_gootransit/staticmap.php?MAP=E140.15.48.600N37.8.4.200&ZM=8&SZ=672,120",白河市久田野,9610011,"
東北本線
"
東北,JR東北本線,泉崎,いずみざき,"
久田野	矢吹	","https://map.goo.ne.jp/s_gootransit/staticmap.php?MAP=E140.18.8.600N37.9.18.600&ZM=8&SZ=672,120",西白河郡泉崎村泉崎,9690101,"
東北本線
"
東北,JR東北本線,矢吹,やぶき,"
泉崎	鏡石	","https://map.goo.ne.jp/s_gootransit/staticmap.php?MAP=E140.19.53.800N37.12.9.600&ZM=8&SZ=672,120",西白河郡矢吹町中町,9690221,"
東北本線
"
東北,JR東北本線,鏡石,かがみいし,"
矢吹	須賀川	","https://map.goo.ne.jp/s_gootransit/staticmap.php?MAP=E140.21.0.500N37.14.51.100&ZM=8&SZ=672,120",岩瀬郡鏡石町中央,9690404,"
東北本線
"
東北,JR東北本線,須賀川,すかがわ,"
鏡石	安積永盛	","https://map.goo.ne.jp/s_gootransit/staticmap.php?MAP=E140.22.28.100N37.17.50.100&ZM=8&SZ=672,120",須賀川市中山,9620004,"
東北本線
"
東北,JR東北本線,安積永盛,あさかながもり,"
須賀川	郡山（福島）	","https://map.goo.ne.jp/s_gootransit/staticmap.php?MAP=E140.22.20.100N37.21.14.200&ZM=8&SZ=672,120",郡山市笹川,9630108,"
東北本線
水郡線
"
東北,JR東北本線,日和田,ひわだ,"
郡山（福島）	五百川	","https://map.goo.ne.jp/s_gootransit/staticmap.php?MAP=E140.23.29.600N37.26.36.200&ZM=8&SZ=672,120",郡山市日和田町,9630534,"
東北本線
"
東北,JR東北本線,五百川,ごひゃくがわ,"
日和田	本宮（福島）	","https://map.goo.ne.jp/s_gootransit/staticmap.php?MAP=E140.23.28.100N37.28.45.800&ZM=8&SZ=672,120",本宮市荒井,9691104,"
東北本線
"
東北,JR東北本線,本宮（福島）,もとみや,"
五百川	杉田（福島）	","https://map.goo.ne.jp/s_gootransit/staticmap.php?MAP=E140.24.9.600N37.30.38.400&ZM=8&SZ=672,120",本宮市本宮九縄,9691136,"
東北本線
"
東北,JR東北本線,杉田（福島）,すぎた,"
本宮（福島）	二本松	","https://map.goo.ne.jp/s_gootransit/staticmap.php?MAP=E140.25.2.400N37.33.37.300&ZM=8&SZ=672,120",二本松市杉田町,9640865,"
東北本線
"
東北,JR東北本線,安達,あだち,"
二本松	松川	","https://map.goo.ne.jp/s_gootransit/staticmap.php?MAP=E140.28.12.000N37.36.34.600&ZM=8&SZ=672,120",二本松市油井,9691404,"
東北本線
"
東北,JR東北本線,松川,まつかわ,"
安達	金谷川	","https://map.goo.ne.jp/s_gootransit/staticmap.php?MAP=E140.29.14.800N37.39.1.700&ZM=8&SZ=672,120",福島市松川町,9601241,"
東北本線
"
東北,JR東北本線,金谷川,かなやがわ,"
松川	南福島	","https://map.goo.ne.jp/s_gootransit/staticmap.php?MAP=E140.27.20.100N37.40.38.500&ZM=8&SZ=672,120",福島市松川町関谷,9601244,"
東北本線
"
東北,JR東北本線,南福島,みなみふくしま,"
金谷川	福島（福島）	","https://map.goo.ne.jp/s_gootransit/staticmap.php?MAP=E140.27.33.100N37.43.14.700&ZM=8&SZ=672,120",福島市永井川,9601102,"
東北本線
"
東北,JR東北本線,東福島,ひがしふくしま,"
福島（福島）	伊達	","https://map.goo.ne.jp/s_gootransit/staticmap.php?MAP=E140.28.50.600N37.47.48.600&ZM=8&SZ=672,120",福島市宮代,9600116,"
東北本線
"
東北,JR東北本線,伊達,だて,"
東福島	桑折	","https://map.goo.ne.jp/s_gootransit/staticmap.php?MAP=E140.29.48.200N37.49.16.500&ZM=8&SZ=672,120",伊達市細谷,9600478,"
東北本線
"
東北,JR東北本線,桑折,こおり,"
伊達	藤田	","https://map.goo.ne.jp/s_gootransit/staticmap.php?MAP=E140.31.14.500N37.51.7.700&ZM=8&SZ=672,120",伊達郡桑折町南半田,9691641,"
東北本線
"
東北,JR東北本線,藤田,ふじた,"
桑折	貝田	","https://map.goo.ne.jp/s_gootransit/staticmap.php?MAP=E140.32.34.300N37.52.33.200&ZM=8&SZ=672,120",伊達郡国見町山崎,9691771,"
東北本線
"
東北,JR東北本線,貝田,かいだ,"
藤田	越河	","https://map.goo.ne.jp/s_gootransit/staticmap.php?MAP=E140.35.3.800N37.54.18.500&ZM=8&SZ=672,120",伊達郡国見町貝田,9691711,"
東北本線
"
東北,JR東北本線,越河,こすごう,"
貝田	白石（宮城）	","https://map.goo.ne.jp/s_gootransit/staticmap.php?MAP=E140.36.28.700N37.55.49.800&ZM=8&SZ=672,120",白石市越河五賀,9890111,"
東北本線
"
東北,JR東北本線,東白石,ひがししろいし,"
白石（宮城）	北白川	","https://map.goo.ne.jp/s_gootransit/staticmap.php?MAP=E140.39.15.500N38.1.55.400&ZM=8&SZ=672,120",白石市白川内親,9891104,"
東北本線
"
東北,JR東北本線,北白川,きたしらかわ,"
東白石	大河原（宮城）	","https://map.goo.ne.jp/s_gootransit/staticmap.php?MAP=E140.41.45.400N38.1.46.200&ZM=8&SZ=672,120",白石市白川津田,9891102,"
東北本線
"
東北,JR東北本線,大河原（宮城）,おおがわら,"
北白川	船岡（宮城）	","https://map.goo.ne.jp/s_gootransit/staticmap.php?MAP=E140.44.38.500N38.2.41.200&ZM=8&SZ=672,120",柴田郡大河原町大谷,9891201,"
東北本線
"
東北,JR東北本線,船岡（宮城）,ふなおか,"
大河原（宮城）	槻木	","https://map.goo.ne.jp/s_gootransit/staticmap.php?MAP=E140.46.14.700N38.3.22.700&ZM=8&SZ=672,120",柴田郡柴田町船岡中央,9891601,"
東北本線
"
東北,JR東北本線,槻木,つきのき,"
船岡（宮城）	岩沼	","https://map.goo.ne.jp/s_gootransit/staticmap.php?MAP=E140.48.48.100N38.4.33.800&ZM=8&SZ=672,120",柴田郡柴田町槻木新町,9891751,"
東北本線
阿武隈急行
"
東北,JR東北本線,館腰,たてこし,"
岩沼	名取	","https://map.goo.ne.jp/s_gootransit/staticmap.php?MAP=E140.53.0.900N38.8.24.400&ZM=8&SZ=672,120",名取市植松,9811226,"
常磐線
東北本線
"
東北,JR東北本線,名取,なとり,"
館腰	南仙台	","https://map.goo.ne.jp/s_gootransit/staticmap.php?MAP=E140.53.10.400N38.10.13.100&ZM=8&SZ=672,120",名取市増田,9811224,"
仙台空港アクセス線
常磐線
東北本線
"
東北,JR東北本線,南仙台,みなみせんだい,"
名取	太子堂	","https://map.goo.ne.jp/s_gootransit/staticmap.php?MAP=E140.53.13.300N38.11.39.700&ZM=8&SZ=672,120",仙台市太白区中田,9811104,"
仙台空港アクセス線
常磐線
東北本線
"
東北,JR東北本線,太子堂,たいしどう,"
南仙台	長町	","https://map.goo.ne.jp/s_gootransit/staticmap.php?MAP=E140.53.12.700N38.12.54.900&ZM=8&SZ=672,120",仙台市太白区郡山,9820003,"
仙台空港アクセス線
常磐線
東北本線
"
東北,JR東北本線,長町,ながまち,"
太子堂	仙台	","https://map.goo.ne.jp/s_gootransit/staticmap.php?MAP=E140.53.20.500N38.13.27.100&ZM=8&SZ=672,120",仙台市太白区長町,9820011,"
仙台地下鉄南北線
仙台空港アクセス線
常磐線
東北本線
"
東北,JR東北本線,陸前山王,りくぜんさんのう,"
岩切	国府多賀城	","https://map.goo.ne.jp/s_gootransit/staticmap.php?MAP=E140.58.58.700N38.17.48.200&ZM=8&SZ=672,120",多賀城市山王,9850852,"
東北本線
"
東北,JR東北本線,国府多賀城,こくふたがじょう,"
陸前山王	塩釜	","https://map.goo.ne.jp/s_gootransit/staticmap.php?MAP=E140.59.53.100N38.17.52.800&ZM=8&SZ=672,120",多賀城市浮島,9850861,"
東北本線
"
東北,JR東北本線,塩釜,しおがま,"
国府多賀城	松島	","https://map.goo.ne.jp/s_gootransit/staticmap.php?MAP=E141.0.46.700N38.18.24.200&ZM=8&SZ=672,120",塩竈市東玉川町,9850036,"
東北本線
"
東北,JR東北本線,松島,まつしま,"
塩釜	愛宕（宮城）	","https://map.goo.ne.jp/s_gootransit/staticmap.php?MAP=E141.4.7.900N38.22.35.300&ZM=8&SZ=672,120",宮城郡松島町松島,9810213,"
東北本線
"
東北,JR東北本線,愛宕（宮城）,あたご,"
松島	品井沼	","https://map.goo.ne.jp/s_gootransit/staticmap.php?MAP=E141.4.6.900N38.23.40.700&ZM=8&SZ=672,120",宮城郡松島町高城,9810215,"
東北本線
"
東北,JR東北本線,品井沼,しないぬま,"
愛宕（宮城）	鹿島台	","https://map.goo.ne.jp/s_gootransit/staticmap.php?MAP=E141.5.8.700N38.25.42.300&ZM=8&SZ=672,120",宮城郡松島町幡谷,9810205,"
東北本線
"
東北,JR東北本線,鹿島台,かしまだい,"
品井沼	松山町（宮城）	","https://map.goo.ne.jp/s_gootransit/staticmap.php?MAP=E141.6.5.400N38.28.17.100&ZM=8&SZ=672,120",大崎市鹿島台平渡,9894103,"
東北本線
"
東北,JR東北本線,松山町（宮城）,まつやままち,"
鹿島台	小牛田	","https://map.goo.ne.jp/s_gootransit/staticmap.php?MAP=E141.4.42.100N38.30.35.100&ZM=8&SZ=672,120",大崎市松山金谷,9871303,"
東北本線
"
東北,JR東北本線,小牛田,こごた,"
松山町（宮城）	田尻（宮城）	","https://map.goo.ne.jp/s_gootransit/staticmap.php?MAP=E141.4.4.200N38.32.15.700&ZM=8&SZ=672,120",遠田郡美里町藤ケ崎,9870001,"
東北本線
気仙沼線
石巻線
陸羽東線
"
東北,JR東北本線,田尻（宮城）,たじり,"
小牛田	瀬峰	","https://map.goo.ne.jp/s_gootransit/staticmap.php?MAP=E141.3.44.600N38.35.38.200&ZM=8&SZ=672,120",大崎市田尻沼部,9894308,"
東北本線
"
東北,JR東北本線,瀬峰,せみね,"
田尻（宮城）	梅ヶ沢	","https://map.goo.ne.jp/s_gootransit/staticmap.php?MAP=E141.4.38.200N38.39.9.300&ZM=8&SZ=672,120",栗原市瀬峰下田,9894521,"
東北本線
"
東北,JR東北本線,梅ヶ沢,うめがさわ,"
瀬峰	新田（宮城）	","https://map.goo.ne.jp/s_gootransit/staticmap.php?MAP=E141.5.19.500N38.40.43.300&ZM=8&SZ=672,120",登米市迫町新田,9894601,"
東北本線
"
東北,JR東北本線,新田（宮城）,にった,"
梅ヶ沢	石越	","https://map.goo.ne.jp/s_gootransit/staticmap.php?MAP=E141.7.22.400N38.42.30.900&ZM=8&SZ=672,120",登米市迫町新田,9894601,"
東北本線
"
東北,JR東北本線,石越,いしこし,"
新田（宮城）	油島	","https://map.goo.ne.jp/s_gootransit/staticmap.php?MAP=E141.9.45.700N38.45.57.500&ZM=8&SZ=672,120",登米市石越町南郷,9894703,"
東北本線
"
東北,JR東北本線,油島,ゆしま,"
石越	花泉	","https://map.goo.ne.jp/s_gootransit/staticmap.php?MAP=E141.10.45.700N38.47.39.000&ZM=8&SZ=672,120",一関市花泉町油島,0293207,"
東北本線
"
東北,JR東北本線,花泉,はないずみ,"
油島	清水原	","https://map.goo.ne.jp/s_gootransit/staticmap.php?MAP=E141.10.59.900N38.49.50.300&ZM=8&SZ=672,120",一関市花泉町花泉,0293101,"
東北本線
"
東北,JR東北本線,清水原,しみずはら,"
花泉	有壁	","https://map.goo.ne.jp/s_gootransit/staticmap.php?MAP=E141.9.35.500N38.51.7.300&ZM=8&SZ=672,120",一関市花泉町花泉,0293101,"
東北本線
"
東北,JR東北本線,有壁,ありかべ,"
清水原	一ノ関	","https://map.goo.ne.jp/s_gootransit/staticmap.php?MAP=E141.7.26.400N38.51.52.900&ZM=8&SZ=672,120",栗原市金成有壁,9894806,"
東北本線
"
東北,JR東北本線,一ノ関,いちのせき,"
有壁	山ノ目	","https://map.goo.ne.jp/s_gootransit/staticmap.php?MAP=E141.8.33.200N38.55.25.100&ZM=8&SZ=672,120",一関市駅前,0210867,"
大船渡線
東北・北海道新幹線
東北本線
"
東北,JR東北本線,山ノ目,やまのめ,"
一ノ関	平泉	","https://map.goo.ne.jp/s_gootransit/staticmap.php?MAP=E141.8.7.300N38.56.54.400&ZM=8&SZ=672,120",一関市山目町,0210011,"
東北本線
"
東北,JR東北本線,平泉,ひらいずみ,"
山ノ目	前沢	","https://map.goo.ne.jp/s_gootransit/staticmap.php?MAP=E141.7.16.600N38.59.6.800&ZM=8&SZ=672,120",西磐井郡平泉町平泉,0294102,"
東北本線
"
東北,JR東北本線,前沢,まえさわ,"
平泉	陸中折居	","https://map.goo.ne.jp/s_gootransit/staticmap.php?MAP=E141.7.47.100N39.2.47.100&ZM=8&SZ=672,120",奥州市前沢区三日町新裏,0294207,"
東北本線
"
東北,JR東北本線,陸中折居,りくちゅうおりい,"
前沢	水沢	","https://map.goo.ne.jp/s_gootransit/staticmap.php?MAP=E141.8.40.400N39.5.27.800&ZM=8&SZ=672,120",奥州市水沢区真城,0230841,"
東北本線
"
東北,JR東北本線,水沢,みずさわ,"
陸中折居	金ヶ崎	","https://map.goo.ne.jp/s_gootransit/staticmap.php?MAP=E141.8.59.200N39.8.12.400&ZM=8&SZ=672,120",奥州市水沢区中町,0230813,"
東北本線
"
東北,JR東北本線,金ヶ崎,かねがさき,"
水沢	六原	","https://map.goo.ne.jp/s_gootransit/staticmap.php?MAP=E141.6.58.400N39.11.49.200&ZM=8&SZ=672,120",胆沢郡金ケ崎町西根,0294503,"
東北本線
"
東北,JR東北本線,六原,ろくはら,"
金ヶ崎	北上	","https://map.goo.ne.jp/s_gootransit/staticmap.php?MAP=E141.6.4.600N39.13.29.800&ZM=8&SZ=672,120",胆沢郡金ケ崎町三ケ尻,0294502,"
東北本線
"
東北,JR東北本線,北上,きたかみ,"
六原	村崎野	","https://map.goo.ne.jp/s_gootransit/staticmap.php?MAP=E141.7.32.200N39.16.43.700&ZM=8&SZ=672,120",北上市大通り,0240061,"
北上線
東北・北海道新幹線
東北本線
"
東北,JR東北本線,村崎野,むらさきの,"
北上	花巻	","https://map.goo.ne.jp/s_gootransit/staticmap.php?MAP=E141.7.26.100N39.19.11.100&ZM=8&SZ=672,120",北上市飯豊,0240001,"
東北本線
"
東北,JR東北本線,花巻,はなまき,"
村崎野	花巻空港（ＪＲ）	","https://map.goo.ne.jp/s_gootransit/staticmap.php?MAP=E141.6.49.500N39.23.27.400&ZM=8&SZ=672,120",花巻市大通り,0250092,"
東北本線
釜石線
"
東北,JR東北本線,花巻空港（ＪＲ）,はなまきくうこう,"
花巻	石鳥谷	","https://map.goo.ne.jp/s_gootransit/staticmap.php?MAP=E141.7.50.900N39.26.21.800&ZM=8&SZ=672,120",花巻市二枚橋,0250312,"
東北本線
"
東北,JR東北本線,石鳥谷,いしどりや,"
花巻空港（ＪＲ）	日詰	","https://map.goo.ne.jp/s_gootransit/staticmap.php?MAP=E141.9.1.600N39.29.16.800&ZM=8&SZ=672,120",花巻市石鳥谷町好地,0283101,"
東北本線
"
東北,JR東北本線,日詰,ひづめ,"
石鳥谷	紫波中央	","https://map.goo.ne.jp/s_gootransit/staticmap.php?MAP=E141.9.50.700N39.32.9.000&ZM=8&SZ=672,120",紫波郡紫波町北日詰,0283309,"
東北本線
"
東北,JR東北本線,紫波中央,しわちゅうおう,"
日詰	古館	","https://map.goo.ne.jp/s_gootransit/staticmap.php?MAP=E141.9.48.200N39.33.7.200&ZM=8&SZ=672,120",紫波郡紫波町日詰,0283305,"
東北本線
"
東北,JR東北本線,古館,ふるだて,"
紫波中央	矢幅	","https://map.goo.ne.jp/s_gootransit/staticmap.php?MAP=E141.9.29.200N39.34.40.900&ZM=8&SZ=672,120",紫波郡紫波町中島,0283301,"
東北本線
"
東北,JR東北本線,岩手飯岡,いわていいおか,"
矢幅	仙北町	","https://map.goo.ne.jp/s_gootransit/staticmap.php?MAP=E141.9.0.200N39.39.3.500&ZM=8&SZ=672,120",盛岡市永井,0200834,"
東北本線
"
東北,JR東北本線,仙北町,せんぼくちょう,"
岩手飯岡	盛岡	","https://map.goo.ne.jp/s_gootransit/staticmap.php?MAP=E141.9.8.500N39.41.5.300&ZM=8&SZ=672,120",盛岡市仙北,0200861,"
東北本線
"
東北,JR東北本線,盛岡,もりおか,"
仙北町		","https://map.goo.ne.jp/s_gootransit/staticmap.php?MAP=E141.8.22.400N39.41.54.600&ZM=8&SZ=672,120",盛岡市盛岡駅前通,0200034,"
いわて銀河鉄道
山田線
東北・北海道新幹線
東北本線
田沢湖線
"
東北,JR水郡線,水戸,みと,"
	常陸青柳	","https://map.goo.ne.jp/s_gootransit/staticmap.php?MAP=E140.28.48.900N36.22.3.600&ZM=8&SZ=672,120",水戸市宮町,3100015,"
常磐線
水戸線
水郡線
鹿島臨海鉄道大洗鹿島線
"
東北,JR水郡線,常陸青柳,ひたちあおやぎ,"
水戸	常陸津田	","https://map.goo.ne.jp/s_gootransit/staticmap.php?MAP=E140.29.15.900N36.22.49.300&ZM=8&SZ=672,120",ひたちなか市枝川,3120035,"
水郡線
"
東北,JR水郡線,常陸津田,ひたちつだ,"
常陸青柳	後台	","https://map.goo.ne.jp/s_gootransit/staticmap.php?MAP=E140.29.10.300N36.24.3.500&ZM=8&SZ=672,120",ひたちなか市津田,3120032,"
水郡線
"
東北,JR水郡線,後台,ごだい,"
常陸津田	下菅谷	","https://map.goo.ne.jp/s_gootransit/staticmap.php?MAP=E140.29.36.400N36.25.15.200&ZM=8&SZ=672,120",那珂市後台,3110111,"
水郡線
"
東北,JR水郡線,下菅谷,しもすがや,"
後台	中菅谷	","https://map.goo.ne.jp/s_gootransit/staticmap.php?MAP=E140.29.50.800N36.25.55.400&ZM=8&SZ=672,120",那珂市菅谷,3110105,"
水郡線
"
東北,JR水郡線,中菅谷,なかすがや,"
下菅谷	上菅谷	","https://map.goo.ne.jp/s_gootransit/staticmap.php?MAP=E140.29.45.500N36.26.33.200&ZM=8&SZ=672,120",那珂市菅谷,3110105,"
水郡線
"
東北,JR水郡線,上菅谷,かみすがや,"
中菅谷	南酒出	","https://map.goo.ne.jp/s_gootransit/staticmap.php?MAP=E140.29.44.700N36.27.9.400&ZM=8&SZ=672,120",那珂市菅谷,3110105,"
水郡線
"
東北,JR水郡線,南酒出,みなみさかいで,"
上菅谷	額田（茨城）	","https://map.goo.ne.jp/s_gootransit/staticmap.php?MAP=E140.30.5.600N36.28.26.400&ZM=8&SZ=672,120",那珂市南酒出,3110132,"
水郡線
"
東北,JR水郡線,額田（茨城）,ぬかだ,"
南酒出	河合（茨城）	","https://map.goo.ne.jp/s_gootransit/staticmap.php?MAP=E140.30.23.900N36.28.57.500&ZM=8&SZ=672,120",那珂市額田南郷,3110107,"
水郡線
"
東北,JR水郡線,河合（茨城）,かわい,"
額田（茨城）	谷河原	","https://map.goo.ne.jp/s_gootransit/staticmap.php?MAP=E140.31.13.700N36.30.18.200&ZM=8&SZ=672,120",常陸太田市上河合町,3130046,"
水郡線
"
東北,JR水郡線,谷河原,やがわら,"
河合（茨城）	常陸太田	","https://map.goo.ne.jp/s_gootransit/staticmap.php?MAP=E140.31.43.600N36.31.3.200&ZM=8&SZ=672,120",常陸太田市磯部町,3130042,"
水郡線
"
東北,JR水郡線,常陸太田,ひたちおおた,"
谷河原	常陸鴻巣	","https://map.goo.ne.jp/s_gootransit/staticmap.php?MAP=E140.31.51.600N36.31.41.200&ZM=8&SZ=672,120",常陸太田市山下町,3130013,"
水郡線
"
東北,JR水郡線,常陸鴻巣,ひたちこうのす,"
常陸太田	瓜連	","https://map.goo.ne.jp/s_gootransit/staticmap.php?MAP=E140.28.15.500N36.28.8.800&ZM=8&SZ=672,120",那珂市鴻巣,3110133,"
水郡線
"
東北,JR水郡線,瓜連,うりづら,"
常陸鴻巣	静（茨城）	","https://map.goo.ne.jp/s_gootransit/staticmap.php?MAP=E140.27.9.900N36.29.42.200&ZM=8&SZ=672,120",那珂市瓜連,3192102,"
水郡線
"
東北,JR水郡線,静（茨城）,しず,"
瓜連	常陸大宮	","https://map.goo.ne.jp/s_gootransit/staticmap.php?MAP=E140.26.29.500N36.30.10.600&ZM=8&SZ=672,120",那珂市下大賀,3192107,"
水郡線
"
東北,JR水郡線,常陸大宮,ひたちおおみや,"
静（茨城）	玉川村	","https://map.goo.ne.jp/s_gootransit/staticmap.php?MAP=E140.24.57.400N36.32.38.300&ZM=8&SZ=672,120",常陸大宮市南町,3192263,"
水郡線
"
東北,JR水郡線,玉川村,たまがわむら,"
常陸大宮	野上原	","https://map.goo.ne.jp/s_gootransit/staticmap.php?MAP=E140.22.40.300N36.34.34.200&ZM=8&SZ=672,120",常陸大宮市東野,3192224,"
水郡線
"
東北,JR水郡線,山方宿,やまがたじゅく,"
野上原	中舟生	","https://map.goo.ne.jp/s_gootransit/staticmap.php?MAP=E140.24.15.800N36.37.16.900&ZM=8&SZ=672,120",常陸大宮市山方,3193111,"
水郡線
"
東北,JR水郡線,中舟生,なかふにゅう,"
山方宿	下小川	","https://map.goo.ne.jp/s_gootransit/staticmap.php?MAP=E140.23.44.200N36.38.32.800&ZM=8&SZ=672,120",常陸大宮市舟生,3193107,"
水郡線
"
東北,JR水郡線,下小川,しもおがわ,"
中舟生	西金	","https://map.goo.ne.jp/s_gootransit/staticmap.php?MAP=E140.23.25.400N36.39.57.400&ZM=8&SZ=672,120",常陸大宮市盛金,3193102,"
水郡線
"
東北,JR水郡線,下小川,,,,,,
東北,JR水郡線,上小川,かみおがわ,"
西金	袋田	","https://map.goo.ne.jp/s_gootransit/staticmap.php?MAP=E140.22.54.900N36.42.57.800&ZM=8&SZ=672,120",久慈郡大子町頃藤,3193361,"
水郡線
"
東北,JR水郡線,袋田,ふくろだ,"
上小川	常陸大子	","https://map.goo.ne.jp/s_gootransit/staticmap.php?MAP=E140.22.58.500N36.45.5.900&ZM=8&SZ=672,120",久慈郡大子町袋田,3193523,"
水郡線
"
東北,JR水郡線,常陸大子,ひたちだいご,"
袋田	下野宮	","https://map.goo.ne.jp/s_gootransit/staticmap.php?MAP=E140.21.14.400N36.46.3.100&ZM=8&SZ=672,120",久慈郡大子町大子,3193526,"
水郡線
"
東北,JR水郡線,下野宮,しものみや,"
常陸大子	矢祭山	","https://map.goo.ne.jp/s_gootransit/staticmap.php?MAP=E140.22.43.400N36.48.45.600&ZM=8&SZ=672,120",久慈郡大子町下野宮,3193555,"
水郡線
"
東北,JR水郡線,矢祭山,やまつりやま,"
下野宮	東館	","https://map.goo.ne.jp/s_gootransit/staticmap.php?MAP=E140.23.55.200N36.50.48.700&ZM=8&SZ=672,120",東白川郡矢祭町内川,9635322,"
水郡線
"
東北,JR水郡線,東館,ひがしだて,"
矢祭山	南石井	","https://map.goo.ne.jp/s_gootransit/staticmap.php?MAP=E140.25.36.300N36.52.1.600&ZM=8&SZ=672,120",東白川郡矢祭町東舘,9635118,"
水郡線
"
東北,JR水郡線,南石井,みなみいしい,"
東館	磐城石井	","https://map.goo.ne.jp/s_gootransit/staticmap.php?MAP=E140.25.13.100N36.53.29.900&ZM=8&SZ=672,120",東白川郡矢祭町下石井,9635202,"
水郡線
"
東北,JR水郡線,磐城石井,いわきいしい,"
南石井	磐城塙	","https://map.goo.ne.jp/s_gootransit/staticmap.php?MAP=E140.25.7.300N36.54.5.700&ZM=8&SZ=672,120",東白川郡矢祭町中石井,9635201,"
水郡線
"
東北,JR水郡線,磐城塙,いわきはなわ,"
磐城石井	近津	","https://map.goo.ne.jp/s_gootransit/staticmap.php?MAP=E140.24.55.400N36.57.20.100&ZM=8&SZ=672,120",東白川郡塙町塙,9635405,"
水郡線
"
東北,JR水郡線,近津,ちかつ,"
磐城塙	中豊	","https://map.goo.ne.jp/s_gootransit/staticmap.php?MAP=E140.23.49.400N36.59.50.800&ZM=8&SZ=672,120",東白川郡棚倉町寺山,9635671,"
水郡線
"
東北,JR水郡線,中豊,なかとよ,"
近津	磐城棚倉	","https://map.goo.ne.jp/s_gootransit/staticmap.php?MAP=E140.23.47.800N37.1.9.800&ZM=8&SZ=672,120",東白川郡棚倉町流,9635663,"
水郡線
"
東北,JR水郡線,中豊,なかとよ,"
近津	磐城棚倉	","https://map.goo.ne.jp/s_gootransit/staticmap.php?MAP=E140.23.47.800N37.1.9.800&ZM=8&SZ=672,120",,,
東北,JR水郡線,磐城浅川,いわきあさかわ,"
磐城棚倉	里白石	","https://map.goo.ne.jp/s_gootransit/staticmap.php?MAP=E140.25.3.900N37.4.36.300&ZM=8&SZ=672,120",石川郡浅川町浅川,9636204,"
水郡線
"
東北,JR水郡線,里白石,さとしらいし,"
磐城浅川	磐城石川	","https://map.goo.ne.jp/s_gootransit/staticmap.php?MAP=E140.25.12.200N37.6.4.900&ZM=8&SZ=672,120",石川郡浅川町里白石,9636202,"
水郡線
"
東北,JR水郡線,磐城石川,いわきいしかわ,"
里白石	野木沢	","https://map.goo.ne.jp/s_gootransit/staticmap.php?MAP=E140.26.50.400N37.8.15.600&ZM=8&SZ=672,120",石川郡石川町当町,9637857,"
水郡線
"
東北,JR水郡線,野木沢,のぎさわ,"
磐城石川	川辺沖	","https://map.goo.ne.jp/s_gootransit/staticmap.php?MAP=E140.25.27.700N37.10.19.700&ZM=8&SZ=672,120",石川郡石川町中野,9637837,"
水郡線
"
東北,JR水郡線,川辺沖,かわべおき,"
野木沢	泉郷	","https://map.goo.ne.jp/s_gootransit/staticmap.php?MAP=E140.24.32.800N37.11.22.500&ZM=8&SZ=672,120",石川郡玉川村川辺,9636313,"
水郡線
"
東北,JR水郡線,泉郷,いずみごう,"
川辺沖	川東（福島）	","https://map.goo.ne.jp/s_gootransit/staticmap.php?MAP=E140.24.31.900N37.12.41.100&ZM=8&SZ=672,120",石川郡玉川村小高,9636312,"
水郡線
"
東北,JR水郡線,川東（福島）,かわひがし,"
泉郷	小塩江	","https://map.goo.ne.jp/s_gootransit/staticmap.php?MAP=E140.24.34.200N37.16.1.400&ZM=8&SZ=672,120",須賀川市小作田,9620727,"
水郡線
"
東北,JR水郡線,小塩江,おしおえ,"
川東（福島）	谷田川	","https://map.goo.ne.jp/s_gootransit/staticmap.php?MAP=E140.26.0.400N37.17.32.900&ZM=8&SZ=672,120",須賀川市塩田,9620711,"
水郡線
"
,JR水郡線,谷田川,やたがわ,"
小塩江	磐城守山	","https://map.goo.ne.jp/s_gootransit/staticmap.php?MAP=E140.26.4.500N37.18.38.200&ZM=8&SZ=672,120",郡山市田村町谷田川,9631246,"
水郡線
"
東北,JR水郡線,磐城守山,いわきもりやま,"
谷田川	安積永盛	","https://map.goo.ne.jp/s_gootransit/staticmap.php?MAP=E140.24.35.700N37.19.39.500&ZM=8&SZ=672,120",郡山市田村町岩作,9631154,"
水郡線
"
東北,JR水郡線,安積永盛,あさかながもり,"
磐城守山		","https://map.goo.ne.jp/s_gootransit/staticmap.php?MAP=E140.22.20.100N37.21.14.200&ZM=8&SZ=672,120",郡山市笹川,9630108,"
東北本線
水郡線
"
東北,JR奥羽本線,新庄,しんじょう,"
	泉田	","https://map.goo.ne.jp/s_gootransit/staticmap.php?MAP=E140.18.34.600N38.45.35.400&ZM=8&SZ=672,120",新庄市多門町,9960024,"
奥羽本線
山形線
陸羽東線
陸羽西線
"
東北,JR奥羽本線,泉田,いずみた,"
新庄	羽前豊里	","https://map.goo.ne.jp/s_gootransit/staticmap.php?MAP=E140.18.48.400N38.48.32.600&ZM=8&SZ=672,120",新庄市泉田,9995103,"
奥羽本線
"
東北,JR奥羽本線,羽前豊里,うぜんとよさと,"
泉田	真室川	","https://map.goo.ne.jp/s_gootransit/staticmap.php?MAP=E140.14.45.300N38.50.1.600&ZM=8&SZ=672,120",最上郡鮭川村石名坂,9995208,"
奥羽本線
"
東北,JR奥羽本線,真室川,まむろがわ,"
羽前豊里	釜淵	","https://map.goo.ne.jp/s_gootransit/staticmap.php?MAP=E140.15.29.700N38.51.19.400&ZM=8&SZ=672,120",最上郡真室川町新町,9995312,"
奥羽本線
"
東北,JR奥羽本線,釜淵,かまぶち,"
真室川	大滝	","https://map.goo.ne.jp/s_gootransit/staticmap.php?MAP=E140.16.2.600N38.55.48.200&ZM=8&SZ=672,120",最上郡真室川町釜淵,9995604,"
奥羽本線
"
東北,JR奥羽本線,大滝,おおたき,"
釜淵	及位	","https://map.goo.ne.jp/s_gootransit/staticmap.php?MAP=E140.19.24.900N38.58.6.700&ZM=8&SZ=672,120",最上郡真室川町大滝,9995603,"
奥羽本線
"
東北,JR奥羽本線,及位,のぞき,"
大滝	院内	","https://map.goo.ne.jp/s_gootransit/staticmap.php?MAP=E140.21.52.200N38.59.24.200&ZM=8&SZ=672,120",最上郡真室川町及位,9995602,"
奥羽本線
"
東北,JR奥羽本線,院内,いんない,"
及位	横堀	","https://map.goo.ne.jp/s_gootransit/staticmap.php?MAP=E140.25.2.100N39.2.48.600&ZM=8&SZ=672,120",湯沢市上院内,0190111,"
奥羽本線
"
東北,JR奥羽本線,横堀,よこぼり,"
院内	三関	","https://map.goo.ne.jp/s_gootransit/staticmap.php?MAP=E140.27.18.300N39.3.43.700&ZM=8&SZ=672,120",湯沢市小野,0190205,"
奥羽本線
"
東北,JR奥羽本線,三関,みつせき,"
横堀	上湯沢	","https://map.goo.ne.jp/s_gootransit/staticmap.php?MAP=E140.29.13.800N39.6.26.100&ZM=8&SZ=672,120",湯沢市上関,0120864,"
奥羽本線
"
東北,JR奥羽本線,上湯沢,かみゆざわ,"
三関	湯沢	","https://map.goo.ne.jp/s_gootransit/staticmap.php?MAP=E140.29.19.300N39.7.53.600&ZM=8&SZ=672,120",湯沢市関口,0120862,"
奥羽本線
"
東北,JR奥羽本線,湯沢,ゆざわ,"
上湯沢	下湯沢	","https://map.goo.ne.jp/s_gootransit/staticmap.php?MAP=E140.29.25.600N39.9.39.300&ZM=8&SZ=672,120",湯沢市表町,0120827,"
奥羽本線
"
東北,JR奥羽本線,下湯沢,しもゆざわ,"
湯沢	十文字	","https://map.goo.ne.jp/s_gootransit/staticmap.php?MAP=E140.30.21.300N39.11.40.700&ZM=8&SZ=672,120",湯沢市成沢,0120802,"
奥羽本線
"
東北,JR奥羽本線,十文字,じゅうもんじ,"
下湯沢	醍醐（秋田）	","https://map.goo.ne.jp/s_gootransit/staticmap.php?MAP=E140.31.47.600N39.13.6.600&ZM=8&SZ=672,120",横手市十文字町大道東,0190527,"
奥羽本線
"
東北,JR奥羽本線,醍醐（秋田）,だいご,"
十文字	柳田	","https://map.goo.ne.jp/s_gootransit/staticmap.php?MAP=E140.32.31.300N39.14.44.800&ZM=8&SZ=672,120",横手市平鹿町醍醐,0130102,"
奥羽本線
"
東北,JR奥羽本線,柳田,やなぎた,"
醍醐（秋田）	横手	","https://map.goo.ne.jp/s_gootransit/staticmap.php?MAP=E140.33.26.100N39.16.24.400&ZM=8&SZ=672,120",横手市柳田,0130054,"
奥羽本線
"
東北,JR奥羽本線,横手,よこて,"
柳田	後三年	","https://map.goo.ne.jp/s_gootransit/staticmap.php?MAP=E140.33.50.800N39.18.26.800&ZM=8&SZ=672,120",横手市駅前町,0130036,"
北上線
奥羽本線
"
東北,JR奥羽本線,後三年,ごさんねん,"
横手	飯詰	","https://map.goo.ne.jp/s_gootransit/staticmap.php?MAP=E140.32.30.800N39.21.43.500&ZM=8&SZ=672,120",仙北郡美郷町飯詰,0191234,"
奥羽本線
"
東北,JR奥羽本線,飯詰,いいづめ,"
後三年	大曲（秋田）	","https://map.goo.ne.jp/s_gootransit/staticmap.php?MAP=E140.31.7.800N39.24.11.600&ZM=8&SZ=672,120",仙北郡美郷町上深井,0191236,"
奥羽本線
"
東北,JR奥羽本線,大曲（秋田）,おおまがり,"
飯詰	神宮寺	","https://map.goo.ne.jp/s_gootransit/staticmap.php?MAP=E140.28.58.500N39.27.46.700&ZM=8&SZ=672,120",大仙市大曲通町,0140027,"
奥羽本線
田沢湖線
"
東北,JR奥羽本線,神宮寺,じんぐうじ,"
大曲（秋田）	刈和野	","https://map.goo.ne.jp/s_gootransit/staticmap.php?MAP=E140.25.45.300N39.29.33.200&ZM=8&SZ=672,120",大仙市神宮寺,0191701,"
奥羽本線
"
東北,JR奥羽本線,刈和野,かりわの,"
神宮寺	峰吉川	","https://map.goo.ne.jp/s_gootransit/staticmap.php?MAP=E140.22.31.800N39.32.42.400&ZM=8&SZ=672,120",大仙市刈和野,0192112,"
奥羽本線
"
東北,JR奥羽本線,峰吉川,みねよしかわ,"
刈和野	羽後境	","https://map.goo.ne.jp/s_gootransit/staticmap.php?MAP=E140.19.35.100N39.33.49.700&ZM=8&SZ=672,120",大仙市協和峰吉川,0192431,"
奥羽本線
"
東北,JR奥羽本線,羽後境,うごさかい,"
峰吉川	大張野	","https://map.goo.ne.jp/s_gootransit/staticmap.php?MAP=E140.19.26.200N39.36.59.100&ZM=8&SZ=672,120",大仙市協和境,0192411,"
奥羽本線
"
東北,JR奥羽本線,大張野,おおばりの,"
羽後境	和田	","https://map.goo.ne.jp/s_gootransit/staticmap.php?MAP=E140.16.39.500N39.39.38.800&ZM=8&SZ=672,120",秋田市河辺神内,0192631,"
奥羽本線
"
東北,JR奥羽本線,和田,わだ,"
大張野	四ッ小屋	","https://map.goo.ne.jp/s_gootransit/staticmap.php?MAP=E140.13.19.500N39.38.53.100&ZM=8&SZ=672,120",秋田市河辺和田,0192601,"
奥羽本線
"
東北,JR奥羽本線,四ッ小屋,よつごや,"
和田	秋田	","https://map.goo.ne.jp/s_gootransit/staticmap.php?MAP=E140.8.54.200N39.39.30.600&ZM=8&SZ=672,120",秋田市四ツ小屋,0101417,"
奥羽本線
"
東北,JR奥羽本線,秋田,あきた,"
四ッ小屋	泉外旭川	","https://map.goo.ne.jp/s_gootransit/staticmap.php?MAP=E140.7.58.900N39.42.52.100&ZM=8&SZ=672,120",秋田市中通,0100001,"
奥羽本線
男鹿線
羽越本線
"
東北,JR奥羽本線,泉外旭川,いずみそとあさひかわ,"
秋田	土崎	","https://map.goo.ne.jp/s_gootransit/staticmap.php?MAP=E140.6.59.400N39.44.6.200&ZM=8&SZ=672,120",秋田市泉菅野,010-0817,"
奥羽本線
男鹿線
"
東北,JR奥羽本線,上飯島,かみいいじま,"
土崎	追分（秋田）	","https://map.goo.ne.jp/s_gootransit/staticmap.php?MAP=E140.4.18.600N39.46.35.300&ZM=8&SZ=672,120",秋田市飯島鼠田,0110913,"
奥羽本線
男鹿線
"
東北,JR奥羽本線,追分（秋田）,おいわけ,"
上飯島	大久保（秋田）	","https://map.goo.ne.jp/s_gootransit/staticmap.php?MAP=E140.3.40.100N39.48.25.700&ZM=8&SZ=672,120",秋田市金足追分,0100126,"
奥羽本線
男鹿線
"
東北,JR奥羽本線,大久保（秋田）,おおくぼ,"
追分（秋田）	羽後飯塚	","https://map.goo.ne.jp/s_gootransit/staticmap.php?MAP=E140.3.59.200N39.52.5.300&ZM=8&SZ=672,120",潟上市昭和大久保,0181401,"
奥羽本線
"
東北,JR奥羽本線,羽後飯塚,うごいいづか,"
大久保（秋田）	井川さくら	","https://map.goo.ne.jp/s_gootransit/staticmap.php?MAP=E140.4.36.300N39.53.46.400&ZM=8&SZ=672,120",潟上市飯田川飯塚,0181504,"
奥羽本線
"
東北,JR奥羽本線,井川さくら,いかわさくら,"
羽後飯塚	八郎潟	","https://map.goo.ne.jp/s_gootransit/staticmap.php?MAP=E140.4.46.000N39.54.33.200&ZM=8&SZ=672,120",南秋田郡井川町浜井川,0181516,"
奥羽本線
"
東北,JR奥羽本線,八郎潟,はちろうがた,"
井川さくら	鯉川	","https://map.goo.ne.jp/s_gootransit/staticmap.php?MAP=E140.4.54.900N39.56.42.300&ZM=8&SZ=672,120",南秋田郡八郎潟町中田,0181614,"
奥羽本線
"
東北,JR奥羽本線,鯉川,こいかわ,"
八郎潟	鹿渡	","https://map.goo.ne.jp/s_gootransit/staticmap.php?MAP=E140.4.51.600N39.59.36.900&ZM=8&SZ=672,120",山本郡三種町天瀬川,0182102,"
奥羽本線
"
東北,JR奥羽本線,鹿渡,かど,"
鯉川	森岳	","https://map.goo.ne.jp/s_gootransit/staticmap.php?MAP=E140.5.9.400N40.2.30.900&ZM=8&SZ=672,120",山本郡三種町鹿渡,0182104,"
奥羽本線
"
東北,JR奥羽本線,森岳,もりたけ,"
鹿渡	北金岡	","https://map.goo.ne.jp/s_gootransit/staticmap.php?MAP=E140.4.27.300N40.6.1.700&ZM=8&SZ=672,120",山本郡三種町森岳,0182303,"
奥羽本線
"
東北,JR奥羽本線,北金岡,きたかなおか,"
森岳	東能代	","https://map.goo.ne.jp/s_gootransit/staticmap.php?MAP=E140.4.0.500N40.8.20.900&ZM=8&SZ=672,120",山本郡三種町志戸橋,0182301,"
奥羽本線
"
東北,JR奥羽本線,東能代,ひがしのしろ,"
北金岡	鶴形	","https://map.goo.ne.jp/s_gootransit/staticmap.php?MAP=E140.4.8.800N40.11.19.900&ZM=8&SZ=672,120",能代市鰄渕,0160121,"
五能線
奥羽本線
"
東北,JR奥羽本線,鶴形,つるがた,"
東能代	富根	","https://map.goo.ne.jp/s_gootransit/staticmap.php?MAP=E140.7.18.600N40.12.4.400&ZM=8&SZ=672,120",能代市鶴形,0160131,"
奥羽本線
"
東北,JR奥羽本線,富根,とみね,"
鶴形	二ッ井	","https://map.goo.ne.jp/s_gootransit/staticmap.php?MAP=E140.10.34.900N40.12.54.800&ZM=8&SZ=672,120",能代市二ツ井町飛根,0183122,"
奥羽本線
"
東北,JR奥羽本線,二ッ井,ふたつい,"
富根	前山	","https://map.goo.ne.jp/s_gootransit/staticmap.php?MAP=E140.14.20.400N40.12.35.300&ZM=8&SZ=672,120",能代市二ツ井町太田面,0183143,"
奥羽本線
"
東北,JR奥羽本線,前山,まえやま,"
二ッ井	鷹ノ巣	","https://map.goo.ne.jp/s_gootransit/staticmap.php?MAP=E140.18.56.800N40.12.43.100&ZM=8&SZ=672,120",北秋田市前山,0183342,"
奥羽本線
"
東北,JR奥羽本線,鷹ノ巣,たかのす,"
前山	糠沢	","https://map.goo.ne.jp/s_gootransit/staticmap.php?MAP=E140.22.21.300N40.13.45.500&ZM=8&SZ=672,120",北秋田市松葉町,0183321,"
奥羽本線
"
東北,JR奥羽本線,糠沢,ぬかざわ,"
鷹ノ巣	早口	","https://map.goo.ne.jp/s_gootransit/staticmap.php?MAP=E140.24.3.300N40.14.52.600&ZM=8&SZ=672,120",北秋田市綴子,0183301,"
奥羽本線
"
東北,JR奥羽本線,早口,はやぐち,"
糠沢	下川沿	","https://map.goo.ne.jp/s_gootransit/staticmap.php?MAP=E140.27.4.800N40.16.7.700&ZM=8&SZ=672,120",大館市早口,0183505,"
奥羽本線
"
東北,JR奥羽本線,下川沿,しもかわぞい,"
早口	大館	","https://map.goo.ne.jp/s_gootransit/staticmap.php?MAP=E140.30.2.100N40.16.25.400&ZM=8&SZ=672,120",大館市川口,0170878,"
奥羽本線
"
東北,JR奥羽本線,大館,おおだて,"
下川沿	白沢（秋田）	","https://map.goo.ne.jp/s_gootransit/staticmap.php?MAP=E140.33.33.600N40.17.7.300&ZM=8&SZ=672,120",大館市御成町,0170044,"
奥羽本線
花輪線
"
東北,JR奥羽本線,白沢（秋田）,しらさわ,"
大館	陣場	","https://map.goo.ne.jp/s_gootransit/staticmap.php?MAP=E140.35.43.200N40.20.8.100&ZM=8&SZ=672,120",大館市白沢,0170002,"
奥羽本線
"
東北,JR奥羽本線,陣場,じんば,"
白沢（秋田）	津軽湯の沢	","https://map.goo.ne.jp/s_gootransit/staticmap.php?MAP=E140.36.40.500N40.23.46.800&ZM=8&SZ=672,120",大館市長走,0170001,"
奥羽本線
"
東北,JR奥羽本線,津軽湯の沢,つがるゆのさわ,"
陣場	碇ヶ関	","https://map.goo.ne.jp/s_gootransit/staticmap.php?MAP=E140.38.8.800N40.26.21.700&ZM=8&SZ=672,120",平川市碇ケ関折橋,0380101,"
奥羽本線
"
東北,JR奥羽本線,碇ヶ関,いかりがせき,"
津軽湯の沢	長峰	","https://map.goo.ne.jp/s_gootransit/staticmap.php?MAP=E140.37.33.300N40.28.34.700&ZM=8&SZ=672,120",平川市碇ケ関高田,0380101,"
奥羽本線
"
東北,JR奥羽本線,長峰,ながみね,"
碇ヶ関	大鰐温泉	","https://map.goo.ne.jp/s_gootransit/staticmap.php?MAP=E140.36.23.600N40.30.48.800&ZM=8&SZ=672,120",南津軽郡大鰐町長峰,0380202,"
奥羽本線
"
東北,JR奥羽本線,大鰐温泉,おおわにおんせん,"
長峰	石川（ＪＲ）	","https://map.goo.ne.jp/s_gootransit/staticmap.php?MAP=E140.34.15.200N40.31.7.700&ZM=8&SZ=672,120",南津軽郡大鰐町大鰐,0380211,"
奥羽本線
"
東北,JR奥羽本線,石川（ＪＲ）,いしかわ,"
大鰐温泉	弘前	","https://map.goo.ne.jp/s_gootransit/staticmap.php?MAP=E140.32.3.300N40.33.12.200&ZM=8&SZ=672,120",弘前市石川,0368124,"
奥羽本線
"
東北,JR奥羽本線,弘前,ひろさき,"
石川（ＪＲ）	撫牛子	","https://map.goo.ne.jp/s_gootransit/staticmap.php?MAP=E140.29.18.200N40.35.50.200&ZM=8&SZ=672,120",弘前市表町,0368096,"
五能線
奥羽本線
弘南鉄道弘南線
"
東北,JR奥羽本線,撫牛子,ないじょうし,"
弘前	川部	","https://map.goo.ne.jp/s_gootransit/staticmap.php?MAP=E140.30.4.900N40.37.7.800&ZM=8&SZ=672,120",弘前市撫牛子,0368075,"
五能線
奥羽本線
"
東北,JR奥羽本線,川部,かわべ,"
撫牛子	北常盤	","https://map.goo.ne.jp/s_gootransit/staticmap.php?MAP=E140.31.30.600N40.38.39.800&ZM=8&SZ=672,120",南津軽郡田舎館村川部,0381141,"
五能線
奥羽本線
"
東北,JR奥羽本線,北常盤,きたときわ,"
川部	浪岡	","https://map.goo.ne.jp/s_gootransit/staticmap.php?MAP=E140.32.49.600N40.40.4.400&ZM=8&SZ=672,120",南津軽郡藤崎町常盤,0381214,"
奥羽本線
"
東北,JR奥羽本線,浪岡,なみおか,"
北常盤	大釈迦	","https://map.goo.ne.jp/s_gootransit/staticmap.php?MAP=E140.35.3.800N40.42.27.800&ZM=8&SZ=672,120",青森市浪岡浪岡,0381311,"
奥羽本線
"
東北,JR奥羽本線,大釈迦,だいしゃか,"
浪岡	鶴ヶ坂	","https://map.goo.ne.jp/s_gootransit/staticmap.php?MAP=E140.35.28.600N40.45.14.500&ZM=8&SZ=672,120",青森市浪岡大釈迦,0381301,"
奥羽本線
"
東北,JR奥羽本線,鶴ヶ坂,つるがさか,"
大釈迦	津軽新城	","https://map.goo.ne.jp/s_gootransit/staticmap.php?MAP=E140.38.19.200N40.47.18.600&ZM=8&SZ=672,120",青森市鶴ケ坂,0380045,"
奥羽本線
"
東北,JR奥羽本線,津軽新城,つがるしんじょう,"
鶴ヶ坂	新青森	","https://map.goo.ne.jp/s_gootransit/staticmap.php?MAP=E140.40.29.700N40.49.30.700&ZM=8&SZ=672,120",青森市新城,0380042,"
奥羽本線
"
東北,JR奥羽本線,新青森,しんあおもり,"
津軽新城	青森	","https://map.goo.ne.jp/s_gootransit/staticmap.php?MAP=E140.41.49.300N40.49.29.600&ZM=8&SZ=672,120",青森市石江,0380003,"
奥羽本線
東北・北海道新幹線
"
東北,JR奥羽本線,青森,あおもり,"
新青森		","https://map.goo.ne.jp/s_gootransit/staticmap.php?MAP=E140.44.18.100N40.49.33.800&ZM=8&SZ=672,120",青森市柳川,0380012,"
奥羽本線
津軽海峡線
津軽線
青い森鉄道
"
東北,JR山形線,福島（福島）,ふくしま,"
	笹木野	","https://map.goo.ne.jp/s_gootransit/staticmap.php?MAP=E140.27.48.000N37.45.5.400&ZM=8&SZ=672,120",福島市栄町,9608031,"
山形線
東北・北海道新幹線
東北本線
福島交通飯坂線
阿武隈急行
"
東北,JR山形線,笹木野,ささきの,"
福島（福島）	庭坂	","https://map.goo.ne.jp/s_gootransit/staticmap.php?MAP=E140.25.46.100N37.45.46.500&ZM=8&SZ=672,120",福島市笹木野,9608057,"
山形線
"
東北,JR山形線,庭坂,にわさか,"
笹木野	板谷	","https://map.goo.ne.jp/s_gootransit/staticmap.php?MAP=E140.23.35.200N37.46.6.800&ZM=8&SZ=672,120",福島市町庭坂,9602261,"
山形線
"
東北,JR山形線,板谷,いたや,"
庭坂	峠	","https://map.goo.ne.jp/s_gootransit/staticmap.php?MAP=E140.16.18.700N37.48.29.700&ZM=8&SZ=672,120",米沢市板谷,9921331,"
山形線
"
東北,JR山形線,峠,とうげ,"
板谷	大沢（山形）	","https://map.goo.ne.jp/s_gootransit/staticmap.php?MAP=E140.14.21.200N37.48.32.800&ZM=8&SZ=672,120",米沢市大沢,9921303,"
山形線
"
東北,JR山形線,大沢（山形）,おおさわ,"
峠	関根	","https://map.goo.ne.jp/s_gootransit/staticmap.php?MAP=E140.12.12.500N37.50.3.800&ZM=8&SZ=672,120",米沢市大沢,9921303,"
山形線
"
東北,JR山形線,関根,せきね,"
大沢（山形）	米沢	","https://map.goo.ne.jp/s_gootransit/staticmap.php?MAP=E140.8.58.200N37.51.41.800&ZM=8&SZ=672,120",米沢市関根,9921205,"
山形線
"
東北,JR山形線,米沢,よねざわ,"
関根	置賜	","https://map.goo.ne.jp/s_gootransit/staticmap.php?MAP=E140.7.54.200N37.54.22.600&ZM=8&SZ=672,120",米沢市駅前,9920027,"
山形線
米坂線
"
東北,JR山形線,置賜,おいたま,"
米沢	高畠	","https://map.goo.ne.jp/s_gootransit/staticmap.php?MAP=E140.8.45.200N37.57.4.100&ZM=8&SZ=672,120",米沢市浅川,9920112,"
山形線
"
東北,JR山形線,高畠,たかはた,"
置賜	赤湯	","https://map.goo.ne.jp/s_gootransit/staticmap.php?MAP=E140.9.22.200N37.59.21.600&ZM=8&SZ=672,120",東置賜郡高畠町福沢,9992174,"
山形線
"
東北,JR山形線,赤湯,あかゆ,"
高畠	中川（山形）	","https://map.goo.ne.jp/s_gootransit/staticmap.php?MAP=E140.9.8.200N38.2.39.400&ZM=8&SZ=672,120",南陽市郡山,9992241,"
山形線
山形鉄道フラワー長井線
"
東北,JR山形線,中川（山形）,なかがわ,"
赤湯	羽前中山	","https://map.goo.ne.jp/s_gootransit/staticmap.php?MAP=E140.12.24.500N38.5.25.300&ZM=8&SZ=672,120",南陽市小岩沢,9992203,"
山形線
"
東北,JR山形線,羽前中山,うぜんなかやま,"
中川（山形）	かみのやま温泉	","https://map.goo.ne.jp/s_gootransit/staticmap.php?MAP=E140.13.19.400N38.7.16.100&ZM=8&SZ=672,120",上山市中山,9993246,"
山形線
"
東北,JR山形線,かみのやま温泉,かみのやまおんせん,"
羽前中山	茂吉記念館前	","https://map.goo.ne.jp/s_gootransit/staticmap.php?MAP=E140.16.55.200N38.8.57.200&ZM=8&SZ=672,120",上山市矢来,9993134,"
山形線
"
東北,JR山形線,茂吉記念館前,もきちきねんかんまえ,"
かみのやま温泉	蔵王	","https://map.goo.ne.jp/s_gootransit/staticmap.php?MAP=E140.18.5.400N38.10.5.200&ZM=8&SZ=672,120",上山市弁天,9993161,"
山形線
"
東北,JR山形線,蔵王,ざおう,"
茂吉記念館前	山形	","https://map.goo.ne.jp/s_gootransit/staticmap.php?MAP=E140.18.24.700N38.12.10.500&ZM=8&SZ=672,120",山形市松原,9902313,"
山形線
"
東北,JR山形線,山形,やまがた,"
蔵王	北山形	","https://map.goo.ne.jp/s_gootransit/staticmap.php?MAP=E140.19.50.800N38.14.43.100&ZM=8&SZ=672,120",山形市香澄町,9900039,"
仙山線
山形線
左沢線
"
東北,JR山形線,北山形,きたやまがた,"
山形	羽前千歳	","https://map.goo.ne.jp/s_gootransit/staticmap.php?MAP=E140.20.9.600N38.15.46.800&ZM=8&SZ=672,120",山形市宮町,9900057,"
仙山線
山形線
左沢線
"
東北,JR山形線,羽前千歳,うぜんちとせ,"
北山形	南出羽	","https://map.goo.ne.jp/s_gootransit/staticmap.php?MAP=E140.20.43.700N38.17.4.100&ZM=8&SZ=672,120",山形市長町,9900811,"
仙山線
山形線
"
東北,JR山形線,南出羽,みなみでわ,"
羽前千歳	漆山（山形）	","https://map.goo.ne.jp/s_gootransit/staticmap.php?MAP=E140.20.53.600N38.18.0.600&ZM=8&SZ=672,120",山形市七浦,9902171,"
山形線
"
東北,JR山形線,漆山（山形）,うるしやま,"
南出羽	高擶	","https://map.goo.ne.jp/s_gootransit/staticmap.php?MAP=E140.21.3.700N38.18.41.700&ZM=8&SZ=672,120",山形市漆山,9902161,"
山形線
"
東北,JR山形線,高擶,たかたま,"
漆山（山形）	天童南	","https://map.goo.ne.jp/s_gootransit/staticmap.php?MAP=E140.21.44.400N38.19.40.800&ZM=8&SZ=672,120",天童市長岡,9940066,"
山形線
"
東北,JR山形線,天童南,てんどうみなみ,"
高擶	天童	","https://map.goo.ne.jp/s_gootransit/staticmap.php?MAP=E140.22.9.600N38.20.23.100&ZM=8&SZ=672,120",天童市南町,9940049,"
山形線
"
東北,JR山形線,天童,てんどう,"
天童南	乱川	","https://map.goo.ne.jp/s_gootransit/staticmap.php?MAP=E140.22.22.100N38.21.25.600&ZM=8&SZ=672,120",天童市本町,9940034,"
山形線
"
東北,JR山形線,乱川,みだれがわ,"
天童	神町	","https://map.goo.ne.jp/s_gootransit/staticmap.php?MAP=E140.22.41.200N38.23.1.900&ZM=8&SZ=672,120",天童市乱川,9940002,"
山形線
"
東北,JR山形線,神町,じんまち,"
乱川	さくらんぼ東根	","https://map.goo.ne.jp/s_gootransit/staticmap.php?MAP=E140.22.54.600N38.24.33.800&ZM=8&SZ=672,120",東根市神町中央,9993763,"
山形線
"
東北,JR山形線,さくらんぼ東根,さくらんぼひがしね,"
神町	東根	","https://map.goo.ne.jp/s_gootransit/staticmap.php?MAP=E140.23.3.200N38.25.31.700&ZM=8&SZ=672,120",東根市蟹沢,9993716,"
山形線
"
東北,JR山形線,東根,ひがしね,"
さくらんぼ東根	村山（山形）	","https://map.goo.ne.jp/s_gootransit/staticmap.php?MAP=E140.23.14.800N38.26.52.700&ZM=8&SZ=672,120",東根市東根甲,9993701,"
山形線
"
東北,JR山形線,村山（山形）,むらやま,"
東根	袖崎	","https://map.goo.ne.jp/s_gootransit/staticmap.php?MAP=E140.23.23.300N38.28.26.900&ZM=8&SZ=672,120",村山市楯岡新町,9950033,"
山形線
"
東北,JR山形線,袖崎,そでさき,"
村山（山形）	大石田	","https://map.goo.ne.jp/s_gootransit/staticmap.php?MAP=E140.23.40.900N38.32.43.300&ZM=8&SZ=672,120",村山市土生田,9950001,"
山形線
"
東北,JR山形線,大石田,おおいしだ,"
袖崎	北大石田	","https://map.goo.ne.jp/s_gootransit/staticmap.php?MAP=E140.22.43.500N38.35.34.300&ZM=8&SZ=672,120",北村山郡大石田町大石田,9994111,"
山形線
"
東北,JR山形線,北大石田,きたおおいしだ,"
大石田	芦沢	","https://map.goo.ne.jp/s_gootransit/staticmap.php?MAP=E140.22.28.400N38.37.36.200&ZM=8&SZ=672,120",北村山郡大石田町鷹巣,9994101,"
山形線
"
東北,JR山形線,芦沢,あしさわ,"
北大石田	舟形	","https://map.goo.ne.jp/s_gootransit/staticmap.php?MAP=E140.21.51.700N38.39.9.500&ZM=8&SZ=672,120",尾花沢市芦沢,9994554,"
山形線
"
東北,JR山形線,舟形,ふながた,"
芦沢	新庄	","https://map.goo.ne.jp/s_gootransit/staticmap.php?MAP=E140.19.10.100N38.41.19.600&ZM=8&SZ=672,120",最上郡舟形町舟形,9994601,"
山形線
"
東北,JR山形線,新庄,しんじょう,"
舟形		","https://map.goo.ne.jp/s_gootransit/staticmap.php?MAP=E140.18.34.600N38.45.35.400&ZM=8&SZ=672,120",新庄市多門町,9960024,"
奥羽本線
山形線
陸羽東線
陸羽西線
"
東北,JR羽越本線,新津,にいつ,"
	京ヶ瀬	","https://map.goo.ne.jp/s_gootransit/staticmap.php?MAP=E139.7.27.900N37.47.50.900&ZM=8&SZ=672,120",新潟市秋葉区新津本町,9560864,"
信越本線
磐越西線
羽越本線
"
東北,JR羽越本線,京ヶ瀬,きょうがせ,"
新津	水原	","https://map.goo.ne.jp/s_gootransit/staticmap.php?MAP=E139.10.54.200N37.48.52.700&ZM=8&SZ=672,120",阿賀野市小河原,9592134,"
羽越本線
"
東北,JR羽越本線,水原,すいばら,"
京ヶ瀬	神山	","https://map.goo.ne.jp/s_gootransit/staticmap.php?MAP=E139.13.13.900N37.50.1.300&ZM=8&SZ=672,120",阿賀野市下条町,9592026,"
羽越本線
"
東北,JR羽越本線,神山,かみやま,"
水原	月岡（新潟）	","https://map.goo.ne.jp/s_gootransit/staticmap.php?MAP=E139.14.52.900N37.51.35.700&ZM=8&SZ=672,120",阿賀野市榎船渡,9591968,"
羽越本線
"
東北,JR羽越本線,月岡（新潟）,つきおか,"
神山	中浦	","https://map.goo.ne.jp/s_gootransit/staticmap.php?MAP=E139.16.32.600N37.53.11.100&ZM=8&SZ=672,120",新発田市本田,9592335,"
羽越本線
"
東北,JR羽越本線,中浦,なかうら,"
月岡（新潟）	新発田	","https://map.goo.ne.jp/s_gootransit/staticmap.php?MAP=E139.18.21.300N37.54.32.900&ZM=8&SZ=672,120",新発田市下飯塚,9592331,"
羽越本線
"
東北,JR羽越本線,新発田,しばた,"
中浦	加治	","https://map.goo.ne.jp/s_gootransit/staticmap.php?MAP=E139.20.18.200N37.56.27.900&ZM=8&SZ=672,120",新発田市諏訪町,9570055,"
白新線
羽越本線
"
東北,JR羽越本線,加治,かじ,"
新発田	金塚	","https://map.goo.ne.jp/s_gootransit/staticmap.php?MAP=E139.21.42.500N37.58.24.900&ZM=8&SZ=672,120",新発田市下中,9592451,"
羽越本線
"
東北,JR羽越本線,中条,なかじょう,"
金塚	平木田	","https://map.goo.ne.jp/s_gootransit/staticmap.php?MAP=E139.24.4.600N38.2.48.800&ZM=8&SZ=672,120",胎内市表町,9592631,"
羽越本線
"
東北,JR羽越本線,平木田,ひらきだ,"
中条	坂町	","https://map.goo.ne.jp/s_gootransit/staticmap.php?MAP=E139.25.52.100N38.5.29.700&ZM=8&SZ=672,120",胎内市平木田,9592614,"
羽越本線
"
東北,JR羽越本線,坂町,さかまち,"
平木田	平林（新潟）	","https://map.goo.ne.jp/s_gootransit/staticmap.php?MAP=E139.26.56.800N38.6.58.700&ZM=8&SZ=672,120",村上市坂町,9593132,"
米坂線
羽越本線
"
東北,JR羽越本線,平林（新潟）,ひらばやし,"
坂町	岩船町	","https://map.goo.ne.jp/s_gootransit/staticmap.php?MAP=E139.27.44.400N38.8.49.800&ZM=8&SZ=672,120",村上市宿田,9593435,"
羽越本線
"
東北,JR羽越本線,岩船町,いわふねまち,"
平林（新潟）	村上（新潟）	","https://map.goo.ne.jp/s_gootransit/staticmap.php?MAP=E139.27.46.600N38.10.50.400&ZM=8&SZ=672,120",村上市小口川,9593446,"
羽越本線
"
東北,JR羽越本線,村上（新潟）,むらかみ,"
岩船町	間島	","https://map.goo.ne.jp/s_gootransit/staticmap.php?MAP=E139.27.59.400N38.13.0.900&ZM=8&SZ=672,120",村上市田端町,9580854,"
羽越本線
"
東北,JR羽越本線,間島,まじま,"
村上（新潟）	越後早川	","https://map.goo.ne.jp/s_gootransit/staticmap.php?MAP=E139.27.12.900N38.16.12.200&ZM=8&SZ=672,120",村上市間島,9580005,"
羽越本線
"
東北,JR羽越本線,越後早川,えちごはやかわ,"
間島	桑川	","https://map.goo.ne.jp/s_gootransit/staticmap.php?MAP=E139.27.13.500N38.18.48.900&ZM=8&SZ=672,120",村上市早川,9580002,"
羽越本線
"
東北,JR羽越本線,桑川,くわがわ,"
越後早川	今川（新潟）	","https://map.goo.ne.jp/s_gootransit/staticmap.php?MAP=E139.27.44.100N38.22.20.300&ZM=8&SZ=672,120",村上市桑川,9593665,"
羽越本線
"
東北,JR羽越本線,今川（新潟）,いまがわ,"
桑川	越後寒川	","https://map.goo.ne.jp/s_gootransit/staticmap.php?MAP=E139.28.18.100N38.24.26.300&ZM=8&SZ=672,120",村上市今川,9593662,"
羽越本線
"
東北,JR羽越本線,越後寒川,えちごかんがわ,"
今川（新潟）	勝木	","https://map.goo.ne.jp/s_gootransit/staticmap.php?MAP=E139.29.35.600N38.26.45.200&ZM=8&SZ=672,120",村上市寒川,9593653,"
羽越本線
"
東北,JR羽越本線,勝木,がつぎ,"
越後寒川	府屋	","https://map.goo.ne.jp/s_gootransit/staticmap.php?MAP=E139.31.14.900N38.29.14.500&ZM=8&SZ=672,120",村上市勝木,9593942,"
羽越本線
"
東北,JR羽越本線,府屋,ふや,"
勝木	鼠ヶ関	","https://map.goo.ne.jp/s_gootransit/staticmap.php?MAP=E139.32.2.400N38.30.37.900&ZM=8&SZ=672,120",村上市府屋,9593907,"
羽越本線
"
東北,JR羽越本線,鼠ヶ関,ねずがせき,"
府屋	小岩川	","https://map.goo.ne.jp/s_gootransit/staticmap.php?MAP=E139.33.7.800N38.33.9.800&ZM=8&SZ=672,120",鶴岡市鼠ケ関,9997126,"
羽越本線
"
東北,JR羽越本線,小岩川,こいわがわ,"
鼠ヶ関	あつみ温泉	","https://map.goo.ne.jp/s_gootransit/staticmap.php?MAP=E139.34.11.200N38.35.15.600&ZM=8&SZ=672,120",鶴岡市小岩川,9997122,"
羽越本線
"
東北,JR羽越本線,あつみ温泉,あつみおんせん,"
小岩川	五十川	","https://map.goo.ne.jp/s_gootransit/staticmap.php?MAP=E139.35.30.400N38.37.17.500&ZM=8&SZ=672,120",鶴岡市温海,9997205,"
羽越本線
"
東北,JR羽越本線,五十川,いらがわ,"
あつみ温泉	小波渡	","https://map.goo.ne.jp/s_gootransit/staticmap.php?MAP=E139.37.10.100N38.40.3.800&ZM=8&SZ=672,120",鶴岡市五十川,9997207,"
羽越本線
"
東北,JR羽越本線,小波渡,こばと,"
五十川	三瀬	","https://map.goo.ne.jp/s_gootransit/staticmap.php?MAP=E139.39.10.200N38.41.21.900&ZM=8&SZ=672,120",鶴岡市小波渡,9997462,"
羽越本線
"
東北,JR羽越本線,三瀬,さんぜ,"
小波渡	羽前水沢	","https://map.goo.ne.jp/s_gootransit/staticmap.php?MAP=E139.40.36.700N38.41.47.400&ZM=8&SZ=672,120",鶴岡市三瀬,9997463,"
羽越本線
"
東北,JR羽越本線,羽前水沢,うぜんみずさわ,"
三瀬	羽前大山	","https://map.goo.ne.jp/s_gootransit/staticmap.php?MAP=E139.44.6.200N38.42.38.300&ZM=8&SZ=672,120",鶴岡市大広,9997543,"
羽越本線
"
東北,JR羽越本線,羽前大山,うぜんおおやま,"
羽前水沢	鶴岡	","https://map.goo.ne.jp/s_gootransit/staticmap.php?MAP=E139.46.16.900N38.44.21.200&ZM=8&SZ=672,120",鶴岡市大山,9971124,"
羽越本線
"
東北,JR羽越本線,鶴岡,つるおか,"
羽前大山	藤島	","https://map.goo.ne.jp/s_gootransit/staticmap.php?MAP=E139.50.19.900N38.44.14.100&ZM=8&SZ=672,120",鶴岡市末広町,9970015,"
羽越本線
"
東北,JR羽越本線,藤島,ふじしま,"
鶴岡	西袋	","https://map.goo.ne.jp/s_gootransit/staticmap.php?MAP=E139.53.50.400N38.45.56.300&ZM=8&SZ=672,120",鶴岡市藤島,9997601,"
羽越本線
"
東北,JR羽越本線,西袋,にしぶくろ,"
藤島	余目	","https://map.goo.ne.jp/s_gootransit/staticmap.php?MAP=E139.54.40.400N38.48.31.800&ZM=8&SZ=672,120",東田川郡庄内町西袋,9997746,"
羽越本線
"
東北,JR羽越本線,余目,あまるめ,"
西袋	北余目	","https://map.goo.ne.jp/s_gootransit/staticmap.php?MAP=E139.54.53.400N38.50.28.900&ZM=8&SZ=672,120",東田川郡庄内町余目,9997781,"
羽越本線
陸羽西線
"
東北,JR羽越本線,北余目,きたあまるめ,"
余目	砂越	","https://map.goo.ne.jp/s_gootransit/staticmap.php?MAP=E139.54.41.500N38.51.52.500&ZM=8&SZ=672,120",東田川郡庄内町平岡,9997703,"
羽越本線
陸羽西線
"
東北,JR羽越本線,砂越,さごし,"
北余目	東酒田	","https://map.goo.ne.jp/s_gootransit/staticmap.php?MAP=E139.54.39.100N38.53.32.300&ZM=8&SZ=672,120",酒田市砂越,9996701,"
羽越本線
陸羽西線
"
東北,JR羽越本線,東酒田,ひがしさかた,"
砂越	酒田	","https://map.goo.ne.jp/s_gootransit/staticmap.php?MAP=E139.52.42.900N38.54.17.100&ZM=8&SZ=672,120",酒田市大町,9980859,"
羽越本線
陸羽西線
"
東北,JR羽越本線,酒田,さかた,"
東酒田	本楯	","https://map.goo.ne.jp/s_gootransit/staticmap.php?MAP=E139.50.57.400N38.55.9.700&ZM=8&SZ=672,120",酒田市幸町,9980023,"
羽越本線
陸羽西線
"
東北,JR羽越本線,本楯,もとたて,"
酒田	南鳥海	","https://map.goo.ne.jp/s_gootransit/staticmap.php?MAP=E139.53.6.800N38.57.56.200&ZM=8&SZ=672,120",酒田市本楯,9998134,"
羽越本線
"
東北,JR羽越本線,南鳥海,みなみちょうかい,"
本楯	遊佐	","https://map.goo.ne.jp/s_gootransit/staticmap.php?MAP=E139.54.7.400N38.59.4.400&ZM=8&SZ=672,120",酒田市米島,9998421,"
羽越本線
"
東北,JR羽越本線,遊佐,ゆざ,"
南鳥海	吹浦	","https://map.goo.ne.jp/s_gootransit/staticmap.php?MAP=E139.54.30.200N39.0.47.300&ZM=8&SZ=672,120",飽海郡遊佐町遊佐町,9998301,"
羽越本線
"
東北,JR羽越本線,吹浦,ふくら,"
遊佐	女鹿	","https://map.goo.ne.jp/s_gootransit/staticmap.php?MAP=E139.52.55.300N39.4.1.400&ZM=8&SZ=672,120",飽海郡遊佐町吹浦,9998521,"
羽越本線
"
東北,JR羽越本線,女鹿,めが,"
吹浦	小砂川	","https://map.goo.ne.jp/s_gootransit/staticmap.php?MAP=E139.53.3.700N39.5.45.300&ZM=8&SZ=672,120",飽海郡遊佐町吹浦,9998521,"
羽越本線
"
東北,JR羽越本線,小砂川,こさがわ,"
女鹿	上浜	","https://map.goo.ne.jp/s_gootransit/staticmap.php?MAP=E139.53.20.100N39.8.5.800&ZM=8&SZ=672,120",にかほ市象潟町小砂川,0180143,"
羽越本線
"
東北,JR羽越本線,上浜,かみはま,"
小砂川	象潟	","https://map.goo.ne.jp/s_gootransit/staticmap.php?MAP=E139.54.22.400N39.9.41.400&ZM=8&SZ=672,120",にかほ市象潟町洗釜,0180135,"
羽越本線
"
東北,JR羽越本線,象潟,きさかた,"
上浜	金浦	","https://map.goo.ne.jp/s_gootransit/staticmap.php?MAP=E139.54.20.200N39.12.17.300&ZM=8&SZ=672,120",にかほ市象潟町家の後,0180112,"
羽越本線
"
東北,JR羽越本線,金浦,このうら,"
象潟	仁賀保	","https://map.goo.ne.jp/s_gootransit/staticmap.php?MAP=E139.55.26.800N39.15.11.500&ZM=8&SZ=672,120",にかほ市金浦,0180311,"
羽越本線
"
東北,JR羽越本線,仁賀保,にかほ,"
金浦	西目	","https://map.goo.ne.jp/s_gootransit/staticmap.php?MAP=E139.58.5.100N39.17.13.700&ZM=8&SZ=672,120",にかほ市平沢,0180402,"
羽越本線
"
東北,JR羽越本線,西目,にしめ,"
仁賀保	羽後本荘	","https://map.goo.ne.jp/s_gootransit/staticmap.php?MAP=E140.1.19.800N39.20.41.700&ZM=8&SZ=672,120",由利本荘市西目町沼田,0180604,"
羽越本線
"
東北,JR羽越本線,羽後本荘,うごほんじょう,"
西目	羽後岩谷	","https://map.goo.ne.jp/s_gootransit/staticmap.php?MAP=E140.3.39.500N39.23.2.400&ZM=8&SZ=672,120",由利本荘市西梵天,0150858,"
由利高原鉄道鳥海山ろく線
羽越本線
"
東北,JR羽越本線,羽後岩谷,うごいわや,"
羽後本荘	折渡	","https://map.goo.ne.jp/s_gootransit/staticmap.php?MAP=E140.5.33.600N39.26.19.600&ZM=8&SZ=672,120",由利本荘市岩谷町,0180711,"
羽越本線
"
東北,JR羽越本線,折渡,おりわたり,"
羽後岩谷	羽後亀田	","https://map.goo.ne.jp/s_gootransit/staticmap.php?MAP=E140.5.40.600N39.28.24.800&ZM=8&SZ=672,120",由利本荘市岩城上黒川,0181225,"
羽越本線
"
東北,JR羽越本線,羽後亀田,うごかめだ,"
折渡	岩城みなと	","https://map.goo.ne.jp/s_gootransit/staticmap.php?MAP=E140.3.59.100N39.29.27.700&ZM=8&SZ=672,120",由利本荘市松ケ崎,0150032,"
羽越本線
"
東北,JR羽越本線,岩城みなと,いわきみなと,"
羽後亀田	道川	","https://map.goo.ne.jp/s_gootransit/staticmap.php?MAP=E140.3.30.100N39.32.33.800&ZM=8&SZ=672,120",由利本荘市岩城内道川,0181301,"
羽越本線
"
東北,JR羽越本線,道川,みちかわ,"
岩城みなと	下浜	","https://map.goo.ne.jp/s_gootransit/staticmap.php?MAP=E140.3.37.800N39.33.27.900&ZM=8&SZ=672,120",由利本荘市岩城内道川,0181301,"
羽越本線
"
東北,JR羽越本線,下浜,しもはま,"
道川	桂根	","https://map.goo.ne.jp/s_gootransit/staticmap.php?MAP=E140.4.4.700N39.37.0.900&ZM=8&SZ=672,120",秋田市下浜羽川,0101503,"
羽越本線
"
東北,JR羽越本線,桂根,かつらね,"
下浜	新屋（秋田）	","https://map.goo.ne.jp/s_gootransit/staticmap.php?MAP=E140.4.11.200N39.38.41.900&ZM=8&SZ=672,120",秋田市下浜桂根,0101501,"
羽越本線
"
東北,JR羽越本線,新屋（秋田）,あらや,"
桂根	羽後牛島	","https://map.goo.ne.jp/s_gootransit/staticmap.php?MAP=E140.5.28.300N39.40.28.700&ZM=8&SZ=672,120",秋田市新屋扇町,0101637,"
羽越本線
"
東北,JR羽越本線,羽後牛島,うごうしじま,"
新屋（秋田）	秋田	","https://map.goo.ne.jp/s_gootransit/staticmap.php?MAP=E140.7.11.400N39.41.35.100&ZM=8&SZ=672,120",秋田市牛島西,0100063,"
羽越本線
"
東北,JR羽越本線,秋田,あきた,"
羽後牛島		","https://map.goo.ne.jp/s_gootransit/staticmap.php?MAP=E140.7.58.900N39.42.52.100&ZM=8&SZ=672,120",秋田市中通,0100001,"
奥羽本線
男鹿線
羽越本線
"
東北,JR津軽線,青森,あおもり,"
	油川	","https://map.goo.ne.jp/s_gootransit/staticmap.php?MAP=E140.44.18.100N40.49.33.800&ZM=8&SZ=672,120",青森市柳川,0380012,"
奥羽本線
津軽海峡線
津軽線
青い森鉄道
"
東北,JR津軽線,油川,あぶらかわ,"
青森	津軽宮田	","https://map.goo.ne.jp/s_gootransit/staticmap.php?MAP=E140.41.38.800N40.51.14.500&ZM=8&SZ=672,120",青森市羽白,0380058,"
津軽海峡線
津軽線
"
東北,JR津軽線,津軽宮田,つがるみやた,"
油川	奥内	","https://map.goo.ne.jp/s_gootransit/staticmap.php?MAP=E140.40.40.600N40.53.3.800&ZM=8&SZ=672,120",青森市奥内,0380054,"
津軽海峡線
津軽線
"
東北,JR津軽線,奥内,おくない,"
津軽宮田	左堰	","https://map.goo.ne.jp/s_gootransit/staticmap.php?MAP=E140.40.32.700N40.54.1.700&ZM=8&SZ=672,120",青森市清水,0380052,"
津軽海峡線
津軽線
"
東北,JR津軽線,左堰,ひだりせき,"
奥内	後潟	","https://map.goo.ne.jp/s_gootransit/staticmap.php?MAP=E140.40.9.700N40.54.53.500&ZM=8&SZ=672,120",青森市左堰,0301273,"
津軽海峡線
津軽線
"
東北,JR津軽線,後潟,うしろがた,"
左堰	中沢	","https://map.goo.ne.jp/s_gootransit/staticmap.php?MAP=E140.39.57.900N40.55.43.200&ZM=8&SZ=672,120",青森市六枚橋,0301271,"
津軽海峡線
津軽線
"
東北,JR津軽線,中沢,なかさわ,"
後潟	蓬田	","https://map.goo.ne.jp/s_gootransit/staticmap.php?MAP=E140.39.34.700N40.56.47.700&ZM=8&SZ=672,120",青森市四戸橋,0301261,"
津軽海峡線
津軽線
"
東北,JR津軽線,蓬田,よもぎた,"
中沢	郷沢	","https://map.goo.ne.jp/s_gootransit/staticmap.php?MAP=E140.39.28.900N40.57.59.300&ZM=8&SZ=672,120",東津軽郡蓬田村阿弥陀川,0301212,"
津軽海峡線
津軽線
"
東北,JR津軽線,郷沢,ごうさわ,"
蓬田	瀬辺地	","https://map.goo.ne.jp/s_gootransit/staticmap.php?MAP=E140.39.21.200N40.59.6.400&ZM=8&SZ=672,120",東津軽郡蓬田村郷沢,0301203,"
津軽海峡線
津軽線
"
東北,JR津軽線,瀬辺地,せへじ,"
郷沢	蟹田	","https://map.goo.ne.jp/s_gootransit/staticmap.php?MAP=E140.39.6.100N41.0.18.200&ZM=8&SZ=672,120",東津軽郡蓬田村瀬辺地,0301202,"
津軽海峡線
津軽線
"
東北,JR津軽線,蟹田,かにた,"
瀬辺地	中小国	","https://map.goo.ne.jp/s_gootransit/staticmap.php?MAP=E140.38.45.700N41.2.8.500&ZM=8&SZ=672,120",東津軽郡外ヶ浜町蟹田,0301303,"
津軽海峡線
津軽線
"
東北,JR津軽線,中小国,なかおぐに,"
蟹田	大平	","https://map.goo.ne.jp/s_gootransit/staticmap.php?MAP=E140.36.1.100N41.2.56.500&ZM=8&SZ=672,120",東津軽郡外ヶ浜町蟹田小国,0301305,"
津軽海峡線
津軽線
"
東北,JR津軽線,大平,おおだい,"
中小国	津軽二股	","https://map.goo.ne.jp/s_gootransit/staticmap.php?MAP=E140.33.47.200N41.3.47.300&ZM=8&SZ=672,120",東津軽郡外ヶ浜町蟹田大平,0301307,"
津軽線
"
東北,JR津軽線,津軽二股,つがるふたまた,"
大平	大川平	","https://map.goo.ne.jp/s_gootransit/staticmap.php?MAP=E140.31.3.500N41.8.35.800&ZM=8&SZ=672,120",東津軽郡今別町大川平,0301505,"
津軽線
"
東北,JR津軽線,大川平,おおかわだい,"
津軽二股	今別	","https://map.goo.ne.jp/s_gootransit/staticmap.php?MAP=E140.30.39.800N41.9.37.700&ZM=8&SZ=672,120",東津軽郡今別町大川平,0301505,"
津軽線
"
東北,JR津軽線,今別,いまべつ,"
大川平	津軽浜名	","https://map.goo.ne.jp/s_gootransit/staticmap.php?MAP=E140.29.40.300N41.10.37.200&ZM=8&SZ=672,120",東津軽郡今別町今別,0301502,"
津軽線
"
東北,JR津軽線,津軽浜名,つがるはまな,"
今別	三厩	","https://map.goo.ne.jp/s_gootransit/staticmap.php?MAP=E140.28.32.500N41.10.41.400&ZM=8&SZ=672,120",東津軽郡今別町今別,0301502,"
津軽線
"
東北,JR津軽線,三厩,みんまや,"
津軽浜名		","https://map.goo.ne.jp/s_gootransit/staticmap.php?MAP=E140.26.53.100N41.10.59.100&ZM=8&SZ=672,120",東津軽郡外ヶ浜町三厩東町,0301737,"
津軽線
"
東北,JR東北本線利府支線,岩切,いわきり,"
	新利府	","https://map.goo.ne.jp/s_gootransit/staticmap.php?MAP=E140.57.32.500N38.17.53.100&ZM=8&SZ=672,120",仙台市宮城野区岩切,9830821,"
東北本線
東北本線利府支線
"
東北,JR東北本線利府支線,新利府,しんりふ,"
岩切	利府	","https://map.goo.ne.jp/s_gootransit/staticmap.php?MAP=E140.58.35.700N38.18.51.700&ZM=8&SZ=672,120",宮城郡利府町加瀬,9810111,"
東北本線利府支線
"
東北,JR東北本線利府支線,利府,りふ,"
新利府		","https://map.goo.ne.jp/s_gootransit/staticmap.php?MAP=E140.59.17.500N38.19.35.400&ZM=8&SZ=672,120",宮城郡利府町森郷,9810103,"
東北本線利府支線
"
東北,JR磐越東線,いわき,いわき,"
	赤井	","https://map.goo.ne.jp/s_gootransit/staticmap.php?MAP=E140.53.44.700N37.3.18.500&ZM=8&SZ=672,120",いわき市平,9708026,"
常磐線
磐越東線
"
東北,JR磐越東線,赤井,あかい,"
いわき	小川郷	","https://map.goo.ne.jp/s_gootransit/staticmap.php?MAP=E140.52.10.800N37.4.39.200&ZM=8&SZ=672,120",いわき市平赤井,9793131,"
磐越東線
"
東北,JR磐越東線,小川郷,おがわごう,"
赤井	江田（福島）	","https://map.goo.ne.jp/s_gootransit/staticmap.php?MAP=E140.51.57.500N37.7.24.500&ZM=8&SZ=672,120",いわき市小川町高萩,9793122,"
磐越東線
"
東北,JR磐越東線,江田（福島）,えだ,"
小川郷	川前	","https://map.goo.ne.jp/s_gootransit/staticmap.php?MAP=E140.49.47.200N37.10.34.200&ZM=8&SZ=672,120",いわき市小川町上小川,9793124,"
磐越東線
"
東北,JR磐越東線,川前,かわまえ,"
江田（福島）	夏井	","https://map.goo.ne.jp/s_gootransit/staticmap.php?MAP=E140.45.13.500N37.12.9.400&ZM=8&SZ=672,120",いわき市川前町川前,9793201,"
磐越東線
"
東北,JR磐越東線,夏井,なつい,"
川前	小野新町	","https://map.goo.ne.jp/s_gootransit/staticmap.php?MAP=E140.39.57.100N37.14.59.500&ZM=8&SZ=672,120",田村郡小野町夏井,9633312,"
磐越東線
"
東北,JR磐越東線,小野新町,おのにいまち,"
夏井	神俣	","https://map.goo.ne.jp/s_gootransit/staticmap.php?MAP=E140.38.23.100N37.16.21.400&ZM=8&SZ=672,120",田村郡小野町谷津作,9633402,"
磐越東線
"
東北,JR磐越東線,神俣,かんまた,"
小野新町	菅谷	","https://map.goo.ne.jp/s_gootransit/staticmap.php?MAP=E140.39.46.400N37.19.18.400&ZM=8&SZ=672,120",田村市滝根町神俣,9633602,"
磐越東線
"
東北,JR磐越東線,菅谷,すがや,"
神俣	大越	","https://map.goo.ne.jp/s_gootransit/staticmap.php?MAP=E140.38.52.500N37.20.50.800&ZM=8&SZ=672,120",田村市滝根町菅谷,9633601,"
磐越東線
"
東北,JR磐越東線,大越,おおごえ,"
菅谷	磐城常葉	","https://map.goo.ne.jp/s_gootransit/staticmap.php?MAP=E140.38.1.500N37.23.3.900&ZM=8&SZ=672,120",田村市大越町上大越,9634111,"
磐越東線
"
東北,JR磐越東線,磐城常葉,いわきときわ,"
大越	船引	","https://map.goo.ne.jp/s_gootransit/staticmap.php?MAP=E140.36.33.300N37.25.3.900&ZM=8&SZ=672,120",田村市船引町今泉,9634311,"
磐越東線
"
東北,JR磐越東線,船引,ふねひき,"
磐城常葉	要田	","https://map.goo.ne.jp/s_gootransit/staticmap.php?MAP=E140.34.40.400N37.26.24.300&ZM=8&SZ=672,120",田村市船引町船引,9634312,"
磐越東線
"
東北,JR磐越東線,要田,かなめた,"
船引	三春	","https://map.goo.ne.jp/s_gootransit/staticmap.php?MAP=E140.31.27.100N37.27.4.400&ZM=8&SZ=672,120",田村市船引町要田,9634323,"
磐越東線
"
東北,JR磐越東線,三春,みはる,"
要田	舞木	","https://map.goo.ne.jp/s_gootransit/staticmap.php?MAP=E140.28.55.300N37.26.48.200&ZM=8&SZ=672,120",田村郡三春町平沢,9637771,"
磐越東線
"
東北,JR磐越東線,舞木,もうぎ,"
三春	郡山（福島）	","https://map.goo.ne.jp/s_gootransit/staticmap.php?MAP=E140.26.18.600N37.24.49.400&ZM=8&SZ=672,120",郡山市舞木町,9630661,"
磐越東線
"
東北,JR磐越東線,郡山（福島）,こおりやま,"
舞木		","https://map.goo.ne.jp/s_gootransit/staticmap.php?MAP=E140.23.32.600N37.23.42.700&ZM=8&SZ=672,120",郡山市燧田,9638003,"
東北・北海道新幹線
東北本線
水郡線
磐越東線
磐越西線
"
東北,JR磐越西線,郡山（福島）,こおりやま,"
	郡山富田	","https://map.goo.ne.jp/s_gootransit/staticmap.php?MAP=E140.23.32.600N37.23.42.700&ZM=8&SZ=672,120",郡山市燧田,9638003,"
東北・北海道新幹線
東北本線
水郡線
磐越東線
磐越西線
"
東北,JR磐越西線,郡山富田,こおりやまとみた,"
郡山（福島）	喜久田	","https://map.goo.ne.jp/s_gootransit/staticmap.php?MAP=E140.22.21.100N37.25.3.300&ZM=8&SZ=672,120",郡山市富田町,9638041,"
磐越西線
"
東北,JR磐越西線,喜久田,きくた,"
郡山富田	安子ヶ島	","https://map.goo.ne.jp/s_gootransit/staticmap.php?MAP=E140.20.43.800N37.26.54.800&ZM=8&SZ=672,120",郡山市喜久田町堀之内,9630541,"
磐越西線
"
東北,JR磐越西線,安子ヶ島,あこがしま,"
喜久田	磐梯熱海	","https://map.goo.ne.jp/s_gootransit/staticmap.php?MAP=E140.18.50.700N37.28.7.400&ZM=8&SZ=672,120",郡山市熱海町安子島,9631304,"
磐越西線
"
東北,JR磐越西線,磐梯熱海,ばんだいあたみ,"
安子ヶ島	中山宿	","https://map.goo.ne.jp/s_gootransit/staticmap.php?MAP=E140.16.26.500N37.28.39.600&ZM=8&SZ=672,120",郡山市熱海町熱海,9631309,"
磐越西線
"
東北,JR磐越西線,中山宿,なかやまじゅく,"
磐梯熱海	上戸（福島）	","https://map.goo.ne.jp/s_gootransit/staticmap.php?MAP=E140.13.22.100N37.29.33.500&ZM=8&SZ=672,120",郡山市熱海町中山,9631308,"
磐越西線
"
東北,JR磐越西線,上戸（福島）,じょうこ,"
中山宿	猪苗代湖畔	","https://map.goo.ne.jp/s_gootransit/staticmap.php?MAP=E140.9.59.600N37.29.4.900&ZM=8&SZ=672,120",耶麻郡猪苗代町山潟,9692275,"
磐越西線
"
東北,JR磐越西線,猪苗代湖畔,いなわしろこはん,"
上戸（福島）	関都	","https://map.goo.ne.jp/s_gootransit/staticmap.php?MAP=E140.9.3.100N37.29.51.200&ZM=8&SZ=672,120",耶麻郡猪苗代町壺楊,9692274,"
磐越西線
"
東北,JR磐越西線,関都,せきと,"
猪苗代湖畔	川桁	","https://map.goo.ne.jp/s_gootransit/staticmap.php?MAP=E140.8.49.100N37.30.45.500&ZM=8&SZ=672,120",耶麻郡猪苗代町関都,9692273,"
磐越西線
"
東北,JR磐越西線,川桁,かわげた,"
関都	猪苗代	","https://map.goo.ne.jp/s_gootransit/staticmap.php?MAP=E140.8.24.900N37.31.57.300&ZM=8&SZ=672,120",耶麻郡猪苗代町川桁,9692663,"
磐越西線
"
東北,JR磐越西線,猪苗代,いなわしろ,"
川桁	翁島	","https://map.goo.ne.jp/s_gootransit/staticmap.php?MAP=E140.6.23.100N37.32.35.800&ZM=8&SZ=672,120",耶麻郡猪苗代町千代田,9693133,"
磐越西線
"
東北,JR磐越西線,翁島,おきなしま,"
猪苗代	磐梯町	","https://map.goo.ne.jp/s_gootransit/staticmap.php?MAP=E140.3.26.400N37.32.59.300&ZM=8&SZ=672,120",耶麻郡猪苗代町磐根,9693286,"
磐越西線
"
東北,JR磐越西線,磐梯町,ばんだいまち,"
翁島	東長原	","https://map.goo.ne.jp/s_gootransit/staticmap.php?MAP=E139.59.48.200N37.33.15.600&ZM=8&SZ=672,120",耶麻郡磐梯町磐梯,9693301,"
磐越西線
"
東北,JR磐越西線,東長原,ひがしながはら,"
磐梯町	広田	","https://map.goo.ne.jp/s_gootransit/staticmap.php?MAP=E139.57.5.300N37.33.48.700&ZM=8&SZ=672,120",会津若松市河東町熊野堂,9693421,"
磐越西線
"
東北,JR磐越西線,広田,ひろた,"
東長原	会津若松	","https://map.goo.ne.jp/s_gootransit/staticmap.php?MAP=E139.56.11.700N37.32.46.100&ZM=8&SZ=672,120",会津若松市河東町広田,9693471,"
磐越西線
"
東北,JR磐越西線,会津若松,あいづわかまつ,"
広田	堂島	","https://map.goo.ne.jp/s_gootransit/staticmap.php?MAP=E139.56.0.600N37.30.20.800&ZM=8&SZ=672,120",会津若松市駅前町,9650041,"
只見線
磐越西線
"
東北,JR磐越西線,堂島,どうじま,"
会津若松	笈川	","https://map.goo.ne.jp/s_gootransit/staticmap.php?MAP=E139.54.54.200N37.33.6.500&ZM=8&SZ=672,120",会津若松市河東町郡山,9693481,"
磐越西線
"
東北,JR磐越西線,笈川,おいかわ,"
堂島	塩川	","https://map.goo.ne.jp/s_gootransit/staticmap.php?MAP=E139.53.55.100N37.34.33.800&ZM=8&SZ=672,120",河沼郡湯川村湊,9693542,"
磐越西線
"
東北,JR磐越西線,塩川,しおかわ,"
笈川	姥堂	","https://map.goo.ne.jp/s_gootransit/staticmap.php?MAP=E139.53.25.900N37.35.28.700&ZM=8&SZ=672,120",喜多方市塩川町石橋,9693523,"
磐越西線
"
東北,JR磐越西線,姥堂,うばどう,"
塩川	会津豊川	","https://map.goo.ne.jp/s_gootransit/staticmap.php?MAP=E139.53.3.700N37.36.46.500&ZM=8&SZ=672,120",喜多方市塩川町新井田谷地,9693531,"
磐越西線
"
東北,JR磐越西線,会津豊川,あいづとよかわ,"
姥堂	喜多方	","https://map.goo.ne.jp/s_gootransit/staticmap.php?MAP=E139.52.48.700N37.37.49.500&ZM=8&SZ=672,120",喜多方市豊川町一井,9660912,"
磐越西線
"
東北,JR磐越西線,喜多方,きたかた,"
会津豊川	山都	","https://map.goo.ne.jp/s_gootransit/staticmap.php?MAP=E139.52.16.600N37.38.27.300&ZM=8&SZ=672,120",喜多方市町田下,9660846,"
磐越西線
"
東北,JR磐越西線,山都,やまと,"
喜多方	荻野	","https://map.goo.ne.jp/s_gootransit/staticmap.php?MAP=E139.46.11.400N37.38.10.200&ZM=8&SZ=672,120",喜多方市山都町広野,9694131,"
磐越西線
"
東北,JR磐越西線,荻野,おぎの,"
山都	尾登	","https://map.goo.ne.jp/s_gootransit/staticmap.php?MAP=E139.43.31.900N37.36.52.200&ZM=8&SZ=672,120",喜多方市高郷町上郷,9694301,"
磐越西線
"
東北,JR磐越西線,尾登,おのぼり,"
荻野	野沢	","https://map.goo.ne.jp/s_gootransit/staticmap.php?MAP=E139.41.42.900N37.36.21.800&ZM=8&SZ=672,120",耶麻郡西会津町登世島,9694401,"
磐越西線
"
東北,JR磐越西線,野沢,のざわ,"
尾登	上野尻	","https://map.goo.ne.jp/s_gootransit/staticmap.php?MAP=E139.38.53.300N37.35.16.200&ZM=8&SZ=672,120",耶麻郡西会津町野沢,9694406,"
磐越西線
"
東北,JR磐越西線,上野尻,かみのじり,"
野沢	徳沢	","https://map.goo.ne.jp/s_gootransit/staticmap.php?MAP=E139.38.14.300N37.37.19.300&ZM=8&SZ=672,120",耶麻郡西会津町上野尻,9694512,"
磐越西線
"
東北,JR磐越西線,徳沢,とくさわ,"
上野尻	豊実	","https://map.goo.ne.jp/s_gootransit/staticmap.php?MAP=E139.36.22.200N37.39.50.300&ZM=8&SZ=672,120",耶麻郡西会津町群岡,9694511,"
磐越西線
"
東北,JR磐越西線,豊実,とよみ,"
徳沢	日出谷	","https://map.goo.ne.jp/s_gootransit/staticmap.php?MAP=E139.34.46.800N37.40.38.800&ZM=8&SZ=672,120",東蒲原郡阿賀町豊実,9594304,"
磐越西線
"
東北,JR磐越西線,日出谷,ひでや,"
豊実	鹿瀬	","https://map.goo.ne.jp/s_gootransit/staticmap.php?MAP=E139.32.14.300N37.42.10.400&ZM=8&SZ=672,120",東蒲原郡阿賀町日出谷,9594303,"
磐越西線
"
東北,JR磐越西線,鹿瀬,かのせ,"
日出谷	津川	","https://map.goo.ne.jp/s_gootransit/staticmap.php?MAP=E139.28.58.600N37.41.33.700&ZM=8&SZ=672,120",東蒲原郡阿賀町向鹿瀬,9594301,"
磐越西線
"
東北,JR磐越西線,津川,つがわ,"
鹿瀬	三川（新潟）	","https://map.goo.ne.jp/s_gootransit/staticmap.php?MAP=E139.27.0.700N37.41.6.800&ZM=8&SZ=672,120",東蒲原郡阿賀町角島,9594401,"
磐越西線
"
東北,JR磐越西線,三川（新潟）,みかわ,"
津川	五十島	","https://map.goo.ne.jp/s_gootransit/staticmap.php?MAP=E139.23.5.200N37.42.19.500&ZM=8&SZ=672,120",東蒲原郡阿賀町白崎,9594622,"
磐越西線
"
東北,JR磐越西線,五十島,いがしま,"
三川（新潟）	東下条	","https://map.goo.ne.jp/s_gootransit/staticmap.php?MAP=E139.21.24.100N37.42.46.600&ZM=8&SZ=672,120",東蒲原郡阿賀町五十島,9594614,"
磐越西線
"
東北,JR磐越西線,東下条,ひがしげじょう,"
五十島	咲花	","https://map.goo.ne.jp/s_gootransit/staticmap.php?MAP=E139.19.30.400N37.44.1.900&ZM=8&SZ=672,120",東蒲原郡阿賀町熊渡,9594634,"
磐越西線
"
東北,JR磐越西線,咲花,さきはな,"
東下条	馬下	","https://map.goo.ne.jp/s_gootransit/staticmap.php?MAP=E139.17.39.600N37.43.55.200&ZM=8&SZ=672,120",五泉市佐取,9591615,"
磐越西線
"
東北,JR磐越西線,馬下,まおろし,"
咲花	猿和田	","https://map.goo.ne.jp/s_gootransit/staticmap.php?MAP=E139.15.50.300N37.44.4.800&ZM=8&SZ=672,120",五泉市馬下,9591614,"
磐越西線
"
東北,JR磐越西線,猿和田,さるわだ,"
馬下	五泉	","https://map.goo.ne.jp/s_gootransit/staticmap.php?MAP=E139.13.32.400N37.43.35.900&ZM=8&SZ=672,120",五泉市土堀,9591643,"
磐越西線
"
東北,JR磐越西線,五泉,ごせん,"
猿和田	北五泉	","https://map.goo.ne.jp/s_gootransit/staticmap.php?MAP=E139.10.59.000N37.43.53.100&ZM=8&SZ=672,120",五泉市駅前,9591823,"
磐越西線
"
東北,JR磐越西線,北五泉,きたごせん,"
五泉	新関（新潟）	","https://map.goo.ne.jp/s_gootransit/staticmap.php?MAP=E139.10.22.500N37.44.37.800&ZM=8&SZ=672,120",五泉市北五泉駅前,9591814,"
磐越西線
"
東北,JR磐越西線,新関（新潟）,しんせき,"
北五泉	東新津	","https://map.goo.ne.jp/s_gootransit/staticmap.php?MAP=E139.9.56.100N37.45.55.700&ZM=8&SZ=672,120",新潟市秋葉区大関,9560827,"
磐越西線
"
東北,JR磐越西線,東新津,ひがしにいつ,"
新関（新潟）	新津	","https://map.goo.ne.jp/s_gootransit/staticmap.php?MAP=E139.8.48.500N37.47.5.100&ZM=8&SZ=672,120",新潟市秋葉区滝谷町,9560854,"
磐越西線
"
東北,JR磐越西線,新津,にいつ,"
東新津		","https://map.goo.ne.jp/s_gootransit/staticmap.php?MAP=E139.7.27.900N37.47.50.900&ZM=8&SZ=672,120",新潟市秋葉区新津本町,9560864,"
信越本線
磐越西線
羽越本線
"
東北,JR只見線,会津若松,あいづわかまつ,"
	七日町	","https://map.goo.ne.jp/s_gootransit/staticmap.php?MAP=E139.56.0.600N37.30.20.800&ZM=8&SZ=672,120",会津若松市駅前町,9650041,"
只見線
磐越西線
"
東北,JR只見線,七日町,なぬかまち,"
会津若松	西若松	","https://map.goo.ne.jp/s_gootransit/staticmap.php?MAP=E139.55.21.100N37.29.54.500&ZM=8&SZ=672,120",会津若松市七日町,9650044,"
只見線
"
東北,JR只見線,西若松,にしわかまつ,"
七日町	会津本郷	","https://map.goo.ne.jp/s_gootransit/staticmap.php?MAP=E139.55.2.700N37.28.58.500&ZM=8&SZ=672,120",会津若松市材木町,9650853,"
会津鉄道
只見線
"
東北,JR只見線,会津本郷,あいづほんごう,"
西若松	会津高田	","https://map.goo.ne.jp/s_gootransit/staticmap.php?MAP=E139.53.44.400N37.27.37.600&ZM=8&SZ=672,120",会津若松市北会津町上米塚,9696183,"
只見線
"
東北,JR只見線,会津高田,あいづたかだ,"
会津本郷	根岸（福島）	","https://map.goo.ne.jp/s_gootransit/staticmap.php?MAP=E139.50.40.700N37.28.4.300&ZM=8&SZ=672,120",大沼郡会津美里町柳台甲,9696268,"
只見線
"
東北,JR只見線,根岸（福島）,ねぎし,"
会津高田	新鶴	","https://map.goo.ne.jp/s_gootransit/staticmap.php?MAP=E139.49.55.200N37.29.56.100&ZM=8&SZ=672,120",大沼郡会津美里町米田,9696405,"
只見線
"
東北,JR只見線,新鶴,にいつる,"
根岸（福島）	若宮	","https://map.goo.ne.jp/s_gootransit/staticmap.php?MAP=E139.49.54.600N37.30.51.000&ZM=8&SZ=672,120",大沼郡会津美里町立石田,9696411,"
只見線
"
東北,JR只見線,若宮,わかみや,"
新鶴	会津坂下	","https://map.goo.ne.jp/s_gootransit/staticmap.php?MAP=E139.49.53.900N37.31.55.900&ZM=8&SZ=672,120",河沼郡会津坂下町五ノ併,9696526,"
只見線
"
東北,JR只見線,会津坂下,あいづばんげ,"
若宮	塔寺	","https://map.goo.ne.jp/s_gootransit/staticmap.php?MAP=E139.49.29.400N37.33.13.400&ZM=8&SZ=672,120",河沼郡会津坂下町五反田,9696545,"
只見線
"
東北,JR只見線,塔寺,とうでら,"
会津坂下	会津坂本	","https://map.goo.ne.jp/s_gootransit/staticmap.php?MAP=E139.47.18.500N37.33.59.100&ZM=8&SZ=672,120",河沼郡会津坂下町気多宮,9696583,"
只見線
"
東北,JR只見線,会津坂本,あいづさかもと,"
塔寺	会津柳津	","https://map.goo.ne.jp/s_gootransit/staticmap.php?MAP=E139.45.35.900N37.33.1.700&ZM=8&SZ=672,120",河沼郡会津坂下町坂本,9696586,"
只見線
"
東北,JR只見線,会津柳津,あいづやないづ,"
会津坂本	郷戸	","https://map.goo.ne.jp/s_gootransit/staticmap.php?MAP=E139.43.37.700N37.32.8.500&ZM=8&SZ=672,120",河沼郡柳津町柳津,9697201,"
只見線
"
東北,JR只見線,郷戸,ごうど,"
会津柳津	滝谷（福島）	","https://map.goo.ne.jp/s_gootransit/staticmap.php?MAP=E139.42.47.700N37.30.48.000&ZM=8&SZ=672,120",河沼郡柳津町郷戸,9697205,"
只見線
"
東北,JR只見線,滝谷（福島）,たきや,"
郷戸	会津桧原	","https://map.goo.ne.jp/s_gootransit/staticmap.php?MAP=E139.42.4.600N37.29.28.700&ZM=8&SZ=672,120",河沼郡柳津町郷戸,9697205,"
只見線
"
東北,JR只見線,会津桧原,あいづひのはら,"
滝谷（福島）	会津西方	","https://map.goo.ne.jp/s_gootransit/staticmap.php?MAP=E139.40.57.600N37.29.19.700&ZM=8&SZ=672,120",大沼郡三島町桧原,9697513,"
只見線
"
東北,JR只見線,会津西方,あいづにしかた,"
会津桧原	会津宮下	","https://map.goo.ne.jp/s_gootransit/staticmap.php?MAP=E139.39.53.200N37.28.41.600&ZM=8&SZ=672,120",大沼郡三島町名入,9697402,"
只見線
"
東北,JR只見線,会津宮下,あいづみやした,"
会津西方	早戸	","https://map.goo.ne.jp/s_gootransit/staticmap.php?MAP=E139.39.1.500N37.28.5.100&ZM=8&SZ=672,120",大沼郡三島町宮下,9697511,"
只見線
"
東北,JR只見線,早戸,はやと,"
会津宮下	会津水沼	","https://map.goo.ne.jp/s_gootransit/staticmap.php?MAP=E139.35.48.400N37.28.1.100&ZM=8&SZ=672,120",大沼郡三島町早戸,9697406,"
只見線
"
東北,JR只見線,会津水沼,あいづみずぬま,"
早戸	会津中川	","https://map.goo.ne.jp/s_gootransit/staticmap.php?MAP=E139.33.49.600N37.28.48.000&ZM=8&SZ=672,120",大沼郡金山町水沼,9680001,"
只見線
"
東北,JR只見線,会津中川,あいづなかがわ,"
会津水沼	会津川口	","https://map.goo.ne.jp/s_gootransit/staticmap.php?MAP=E139.32.8.300N37.28.14.800&ZM=8&SZ=672,120",大沼郡金山町中川,9680006,"
只見線
"
東北,JR只見線,会津川口,あいづかわぐち,"
会津中川	本名	","https://map.goo.ne.jp/s_gootransit/staticmap.php?MAP=E139.31.37.500N37.27.7.900&ZM=8&SZ=672,120",大沼郡金山町川口,9680011,"
只見線
"
東北,JR只見線,本名,ほんな,"
会津川口	会津越川	","https://map.goo.ne.jp/s_gootransit/staticmap.php?MAP=E139.30.7.100N37.26.30.500&ZM=8&SZ=672,120",大沼郡金山町本名,9680016,"
只見線
"
東北,JR只見線,会津越川,あいづこすがわ,"
本名	会津横田	","https://map.goo.ne.jp/s_gootransit/staticmap.php?MAP=E139.28.21.400N37.23.44.300&ZM=8&SZ=672,120",大沼郡金山町越川,9680321,"
只見線
"
東北,JR只見線,会津横田,あいづよこた,"
会津越川	会津大塩	","https://map.goo.ne.jp/s_gootransit/staticmap.php?MAP=E139.26.20.900N37.23.21.500&ZM=8&SZ=672,120",大沼郡金山町横田,9680322,"
只見線
"
東北,JR只見線,会津大塩,あいづおおしお,"
会津横田	会津塩沢	","https://map.goo.ne.jp/s_gootransit/staticmap.php?MAP=E139.24.59.400N37.23.23.400&ZM=8&SZ=672,120",大沼郡金山町大塩,9680326,"
只見線
"
東北,JR只見線,会津塩沢,あいづしおざわ,"
会津大塩	会津蒲生	","https://map.goo.ne.jp/s_gootransit/staticmap.php?MAP=E139.21.29.800N37.23.26.300&ZM=8&SZ=672,120",南会津郡只見町塩沢,9680411,"
只見線
"
東北,JR只見線,会津蒲生,あいづがもう,"
会津塩沢	只見	","https://map.goo.ne.jp/s_gootransit/staticmap.php?MAP=E139.20.12.200N37.22.43.700&ZM=8&SZ=672,120",南会津郡只見町蒲生,9680414,"
只見線
"
東北,JR只見線,只見,ただみ,"
会津蒲生	大白川	","https://map.goo.ne.jp/s_gootransit/staticmap.php?MAP=E139.19.5.200N37.20.50.700&ZM=8&SZ=672,120",南会津郡只見町只見,9680421,"
只見線
"
東北,JR只見線,大白川,おおしらかわ,"
只見	入広瀬	","https://map.goo.ne.jp/s_gootransit/staticmap.php?MAP=E139.7.26.800N37.20.18.600&ZM=8&SZ=672,120",魚沼市大白川,9460303,"
只見線
"
東北,JR只見線,入広瀬,いりひろせ,"
大白川	上条（新潟）	","https://map.goo.ne.jp/s_gootransit/staticmap.php?MAP=E139.4.9.100N37.21.21.200&ZM=8&SZ=672,120",魚沼市大栃山,9460305,"
只見線
"
東北,JR只見線,上条（新潟）,かみじょう,"
入広瀬	越後須原	","https://map.goo.ne.jp/s_gootransit/staticmap.php?MAP=E139.3.14.300N37.20.37.600&ZM=8&SZ=672,120",魚沼市渋川,9460203,"
只見線
"
東北,JR只見線,越後須原,えちごすはら,"
上条（新潟）	魚沼田中	","https://map.goo.ne.jp/s_gootransit/staticmap.php?MAP=E139.1.15.600N37.19.3.400&ZM=8&SZ=672,120",魚沼市須原,9460216,"
只見線
"
東北,JR只見線,魚沼田中,うおぬまたなか,"
越後須原	越後広瀬	","https://map.goo.ne.jp/s_gootransit/staticmap.php?MAP=E138.59.45.100N37.17.28.200&ZM=8&SZ=672,120",魚沼市田中,9460106,"
只見線
"
東北,JR只見線,越後広瀬,えちごひろせ,"
魚沼田中	藪神	","https://map.goo.ne.jp/s_gootransit/staticmap.php?MAP=E138.59.4.600N37.16.17.600&ZM=8&SZ=672,120",魚沼市並柳,9460111,"
只見線
"
東北,JR只見線,藪神,やぶかみ,"
越後広瀬	小出	","https://map.goo.ne.jp/s_gootransit/staticmap.php?MAP=E138.58.44.300N37.15.13.600&ZM=8&SZ=672,120",魚沼市今泉,9460051,"
只見線
"
東北,JR只見線,小出,こいで,"
藪神		","https://map.goo.ne.jp/s_gootransit/staticmap.php?MAP=E138.57.24.500N37.13.49.700&ZM=8&SZ=672,120",魚沼市四日町,9460007,"
上越線
只見線
"
東北,JR仙山線,仙台,せんだい,"
	東照宮	","https://map.goo.ne.jp/s_gootransit/staticmap.php?MAP=E140.53.14.800N38.15.26.300&ZM=8&SZ=672,120",仙台市青葉区中央,9800021,"
仙台地下鉄南北線
仙台地下鉄東西線
仙台空港アクセス線
仙山線
仙石線
常磐線
東北・北海道新幹線
東北本線
東北本線利府支線
"
東北,JR仙山線,東照宮,とうしょうぐう,"
仙台	北仙台	","https://map.goo.ne.jp/s_gootransit/staticmap.php?MAP=E140.53.24.700N38.16.27.400&ZM=8&SZ=672,120",仙台市青葉区宮町,9800004,"
仙山線
"
東北,JR仙山線,北仙台,きたせんだい,"
東照宮	北山（宮城）	","https://map.goo.ne.jp/s_gootransit/staticmap.php?MAP=E140.52.24.100N38.16.43.100&ZM=8&SZ=672,120",仙台市青葉区昭和町,9810913,"
仙台地下鉄南北線
仙山線
"
東北,JR仙山線,北山（宮城）,きたやま,"
北仙台	東北福祉大前	","https://map.goo.ne.jp/s_gootransit/staticmap.php?MAP=E140.51.19.100N38.16.55.800&ZM=8&SZ=672,120",仙台市青葉区北山,9810931,"
仙山線
"
東北,JR仙山線,東北福祉大前,とうほくふくしだいまえ,"
北山（宮城）	国見（宮城）	","https://map.goo.ne.jp/s_gootransit/staticmap.php?MAP=E140.50.46.600N38.16.38.800&ZM=8&SZ=672,120",仙台市青葉区国見,9810943,"
仙山線
"
東北,JR仙山線,国見（宮城）,くにみ,"
東北福祉大前	葛岡	","https://map.goo.ne.jp/s_gootransit/staticmap.php?MAP=E140.50.12.700N38.16.18.500&ZM=8&SZ=672,120",仙台市青葉区荒巻,9810945,"
仙山線
"
東北,JR仙山線,葛岡,くずおか,"
国見（宮城）	陸前落合	","https://map.goo.ne.jp/s_gootransit/staticmap.php?MAP=E140.49.19.500N38.15.57.200&ZM=8&SZ=672,120",仙台市青葉区郷六,9893121,"
仙山線
"
東北,JR仙山線,陸前落合,りくぜんおちあい,"
葛岡	愛子	","https://map.goo.ne.jp/s_gootransit/staticmap.php?MAP=E140.47.36.300N38.16.13.600&ZM=8&SZ=672,120",仙台市青葉区下愛子,9893125,"
仙山線
"
東北,JR仙山線,愛子,あやし,"
陸前落合	陸前白沢	","https://map.goo.ne.jp/s_gootransit/staticmap.php?MAP=E140.45.53.200N38.16.10.700&ZM=8&SZ=672,120",仙台市青葉区上愛子,9893124,"
仙山線
"
東北,JR仙山線,陸前白沢,りくぜんしらさわ,"
愛子	熊ヶ根	","https://map.goo.ne.jp/s_gootransit/staticmap.php?MAP=E140.42.20.500N38.16.30.200&ZM=8&SZ=672,120",仙台市青葉区上愛子,9893124,"
仙山線
"
東北,JR仙山線,熊ヶ根,くまがね,"
陸前白沢	作並	","https://map.goo.ne.jp/s_gootransit/staticmap.php?MAP=E140.41.2.800N38.17.41.800&ZM=8&SZ=672,120",仙台市青葉区熊ケ根,9893432,"
仙山線
"
東北,JR仙山線,作並,さくなみ,"
熊ヶ根	奥新川	","https://map.goo.ne.jp/s_gootransit/staticmap.php?MAP=E140.38.8.900N38.18.53.400&ZM=8&SZ=672,120",仙台市青葉区作並,9893431,"
仙山線
"
東北,JR仙山線,奥新川,おくにっかわ,"
作並	面白山高原	","https://map.goo.ne.jp/s_gootransit/staticmap.php?MAP=E140.35.52.100N38.19.22.800&ZM=8&SZ=672,120",仙台市青葉区新川,9893434,"
仙山線
"
東北,JR仙山線,面白山高原,おもしろやまこうげん,"
奥新川	山寺	","https://map.goo.ne.jp/s_gootransit/staticmap.php?MAP=E140.30.1.800N38.19.48.100&ZM=8&SZ=672,120",山形市山寺,9993301,"
仙山線
"
東北,JR仙山線,山寺,やまでら,"
面白山高原	高瀬（山形）	","https://map.goo.ne.jp/s_gootransit/staticmap.php?MAP=E140.26.17.300N38.18.23.900&ZM=8&SZ=672,120",山形市山寺,9993301,"
仙山線
"
東北,JR仙山線,高瀬（山形）,たかせ,"
山寺	楯山	","https://map.goo.ne.jp/s_gootransit/staticmap.php?MAP=E140.23.57.900N38.17.55.100&ZM=8&SZ=672,120",山形市下東山,9902232,"
仙山線
"
東北,JR仙山線,楯山,たてやま,"
高瀬（山形）	羽前千歳	","https://map.goo.ne.jp/s_gootransit/staticmap.php?MAP=E140.22.26.200N38.17.55.500&ZM=8&SZ=672,120",山形市風間,9902221,"
仙山線
"
東北,JR仙山線,羽前千歳,うぜんちとせ,"
楯山		","https://map.goo.ne.jp/s_gootransit/staticmap.php?MAP=E140.20.43.700N38.17.4.100&ZM=8&SZ=672,120",山形市長町,9900811,"
仙山線
山形線
"
東北,JR仙石線,あおば通,あおばどおり,"
	仙台	","https://map.goo.ne.jp/s_gootransit/staticmap.php?MAP=E140.52.57.500N38.15.28.500&ZM=8&SZ=672,120",仙台市青葉区中央,9800021,"
仙石線
"
東北,JR仙石線,仙台,せんだい,"
あおば通	榴ヶ岡	","https://map.goo.ne.jp/s_gootransit/staticmap.php?MAP=E140.53.14.800N38.15.26.300&ZM=8&SZ=672,120",仙台市青葉区中央,9800021,"
仙台地下鉄南北線
仙台地下鉄東西線
仙台空港アクセス線
仙山線
仙石線
常磐線
東北・北海道新幹線
東北本線
東北本線利府支線
"
東北,JR仙石線,榴ヶ岡,つつじがおか,"
仙台	宮城野原	","https://map.goo.ne.jp/s_gootransit/staticmap.php?MAP=E140.53.49.100N38.15.21.500&ZM=8&SZ=672,120",仙台市宮城野区宮城野,9830045,"
仙石線
"
東北,JR仙石線,宮城野原,みやぎのはら,"
榴ヶ岡	陸前原ノ町	","https://map.goo.ne.jp/s_gootransit/staticmap.php?MAP=E140.54.29.600N38.15.28.500&ZM=8&SZ=672,120",仙台市宮城野区宮城野,9830045,"
仙石線
"
東北,JR仙石線,陸前原ノ町,りくぜんはらのまち,"
宮城野原	苦竹	","https://map.goo.ne.jp/s_gootransit/staticmap.php?MAP=E140.54.51.000N38.15.47.400&ZM=8&SZ=672,120",仙台市宮城野区五輪,9830842,"
仙石線
"
東北,JR仙石線,苦竹,にがたけ,"
陸前原ノ町	小鶴新田	","https://map.goo.ne.jp/s_gootransit/staticmap.php?MAP=E140.55.20.600N38.15.56.700&ZM=8&SZ=672,120",仙台市宮城野区苦竹,9830036,"
仙石線
"
東北,JR仙石線,小鶴新田,こづるしんでん,"
苦竹	福田町	","https://map.goo.ne.jp/s_gootransit/staticmap.php?MAP=E140.56.17.900N38.16.13.400&ZM=8&SZ=672,120",仙台市宮城野区新田,9830038,"
仙石線
"
東北,JR仙石線,福田町,ふくだまち,"
小鶴新田	陸前高砂	","https://map.goo.ne.jp/s_gootransit/staticmap.php?MAP=E140.57.41.900N38.16.19.100&ZM=8&SZ=672,120",仙台市宮城野区福田町,9830023,"
仙石線
"
東北,JR仙石線,陸前高砂,りくぜんたかさご,"
福田町	中野栄	","https://map.goo.ne.jp/s_gootransit/staticmap.php?MAP=E140.58.15.700N38.16.13.800&ZM=8&SZ=672,120",仙台市宮城野区福室,9830005,"
仙石線
"
東北,JR仙石線,中野栄,なかのさかえ,"
陸前高砂	多賀城	","https://map.goo.ne.jp/s_gootransit/staticmap.php?MAP=E140.59.19.400N38.16.40.400&ZM=8&SZ=672,120",仙台市宮城野区栄,9830011,"
仙石線
"
東北,JR仙石線,多賀城,たがじょう,"
中野栄	下馬	","https://map.goo.ne.jp/s_gootransit/staticmap.php?MAP=E141.0.31.800N38.17.19.400&ZM=8&SZ=672,120",多賀城市中央,9850873,"
仙石線
"
東北,JR仙石線,下馬,げば,"
多賀城	西塩釜	","https://map.goo.ne.jp/s_gootransit/staticmap.php?MAP=E141.1.6.600N38.18.9.700&ZM=8&SZ=672,120",多賀城市下馬,9850835,"
仙石線
"
東北,JR仙石線,西塩釜,にししおがま,"
下馬	本塩釜	","https://map.goo.ne.jp/s_gootransit/staticmap.php?MAP=E141.1.18.400N38.18.32.200&ZM=8&SZ=672,120",塩竈市錦町,9850024,"
仙石線
"
東北,JR仙石線,本塩釜,ほんしおがま,"
西塩釜	東塩釜	","https://map.goo.ne.jp/s_gootransit/staticmap.php?MAP=E141.1.33.300N38.18.52.700&ZM=8&SZ=672,120",塩竈市海岸通,9850002,"
仙石線
"
東北,JR仙石線,東塩釜,ひがししおがま,"
本塩釜	陸前浜田	","https://map.goo.ne.jp/s_gootransit/staticmap.php?MAP=E141.2.6.400N38.19.21.400&ZM=8&SZ=672,120",塩竈市藤倉,9850004,"
仙石線
"
東北,JR仙石線,陸前浜田,りくぜんはまだ,"
東塩釜	松島海岸	","https://map.goo.ne.jp/s_gootransit/staticmap.php?MAP=E141.2.42.600N38.20.52.300&ZM=8&SZ=672,120",宮城郡利府町赤沼,9810101,"
仙石線
"
東北,JR仙石線,松島海岸,まつしまかいがん,"
陸前浜田	高城町	","https://map.goo.ne.jp/s_gootransit/staticmap.php?MAP=E141.3.44.200N38.21.54.300&ZM=8&SZ=672,120",宮城郡松島町松島,9810213,"
仙石線
"
東北,JR仙石線,高城町,たかぎまち,"
松島海岸	手樽	","https://map.goo.ne.jp/s_gootransit/staticmap.php?MAP=E141.4.37.200N38.22.47.300&ZM=8&SZ=672,120",宮城郡松島町高城,9810215,"
仙石線
"
東北,JR仙石線,手樽,てたる,"
高城町	陸前富山	","https://map.goo.ne.jp/s_gootransit/staticmap.php?MAP=E141.5.46.900N38.23.3.500&ZM=8&SZ=672,120",宮城郡松島町手樽,9810211,"
仙石線
"
東北,JR仙石線,陸前富山,りくぜんとみやま,"
手樽	陸前大塚	","https://map.goo.ne.jp/s_gootransit/staticmap.php?MAP=E141.6.38.700N38.23.0.500&ZM=8&SZ=672,120",宮城郡松島町手樽,9810211,"
仙石線
"
東北,JR仙石線,東名,とうな,"
陸前大塚	野蒜	","https://map.goo.ne.jp/s_gootransit/staticmap.php?MAP=E141.8.51.400N38.22.19.700&ZM=8&SZ=672,120",東松島市新東名,9810413,"
仙石線
"
東北,JR仙石線,野蒜,のびる,"
東名	陸前小野	","https://map.goo.ne.jp/s_gootransit/staticmap.php?MAP=E141.9.38.800N38.22.33.900&ZM=8&SZ=672,120",東松島市野蒜,9810411,"
仙石線
"
東北,JR仙石線,陸前小野,りくぜんおの,"
野蒜	鹿妻	","https://map.goo.ne.jp/s_gootransit/staticmap.php?MAP=E141.10.41.100N38.23.34.700&ZM=8&SZ=672,120",東松島市牛網,9810301,"
仙石線
"
東北,JR仙石線,鹿妻,かづま,"
陸前小野	矢本	","https://map.goo.ne.jp/s_gootransit/staticmap.php?MAP=E141.11.36.500N38.24.1.100&ZM=8&SZ=672,120",東松島市矢本,9810503,"
仙石線
"
東北,JR仙石線,矢本,やもと,"
鹿妻	東矢本	","https://map.goo.ne.jp/s_gootransit/staticmap.php?MAP=E141.12.45.700N38.25.3.300&ZM=8&SZ=672,120",東松島市矢本,9810503,"
仙石線
"
東北,JR仙石線,東矢本,ひがしやもと,"
矢本	陸前赤井	","https://map.goo.ne.jp/s_gootransit/staticmap.php?MAP=E141.13.32.700N38.25.30.200&ZM=8&SZ=672,120",東松島市矢本,9810503,"
仙石線
"
東北,JR仙石線,陸前赤井,りくぜんあかい,"
東矢本	石巻あゆみ野	","https://map.goo.ne.jp/s_gootransit/staticmap.php?MAP=E141.14.32.900N38.25.46.400&ZM=8&SZ=672,120",東松島市赤井,9810501,"
仙石線
"
東北,JR仙石線,石巻あゆみ野,いしのまきあゆみの,"
陸前赤井	蛇田	","https://map.goo.ne.jp/s_gootransit/staticmap.php?MAP=E141.15.46.100N38.25.59.200&ZM=8&SZ=672,120",石巻市蛇田,9860861,"
仙石線
"
東北,JR仙石線,蛇田,へびた,"
石巻あゆみ野	陸前山下	","https://map.goo.ne.jp/s_gootransit/staticmap.php?MAP=E141.16.52.200N38.26.6.800&ZM=8&SZ=672,120",石巻市蛇田,9860861,"
仙石線
"
東北,JR仙石線,陸前山下,りくぜんやました,"
蛇田	石巻	","https://map.goo.ne.jp/s_gootransit/staticmap.php?MAP=E141.17.29.000N38.26.4.400&ZM=8&SZ=672,120",石巻市錦町,9860877,"
仙石線
"
東北,JR仙石線,石巻,いしのまき,"
陸前山下		","https://map.goo.ne.jp/s_gootransit/staticmap.php?MAP=E141.18.25.100N38.25.56.600&ZM=8&SZ=672,120",石巻市鋳銭場,9860826,"
仙石線
石巻線
"
東北,東武日光線・鬼怒川線,東武動物公園,とうぶどうぶつこうえん,"
	杉戸高野台	","https://map.goo.ne.jp/s_gootransit/staticmap.php?MAP=E139.43.47.800N36.1.18.300&ZM=8&SZ=672,120",南埼玉郡宮代町百間,3450801,"
東武スカイツリーライン
東武伊勢崎線
東武日光線
東武日光線・鬼怒川線
"
東北,東武日光線・鬼怒川線,杉戸高野台,すぎとたかのだい,"
東武動物公園	幸手	","https://map.goo.ne.jp/s_gootransit/staticmap.php?MAP=E139.43.3.600N36.2.53.900&ZM=8&SZ=672,120",北葛飾郡杉戸町高野台東,3450047,"
東武日光線
東武日光線・鬼怒川線
"
東北,東武日光線・鬼怒川線,幸手,さって,"
杉戸高野台	南栗橋	","https://map.goo.ne.jp/s_gootransit/staticmap.php?MAP=E139.43.5.500N36.4.16.900&ZM=8&SZ=672,120",幸手市中,3400115,"
東武日光線
東武日光線・鬼怒川線
"
東北,東武日光線・鬼怒川線,南栗橋,みなみくりはし,"
幸手	栗橋	","https://map.goo.ne.jp/s_gootransit/staticmap.php?MAP=E139.42.57.300N36.6.35.700&ZM=8&SZ=672,120",久喜市栗橋,3491104,"
東武日光線
東武日光線・鬼怒川線
"
東北,東武日光線・鬼怒川線,栗橋,くりはし,"
南栗橋	新古河	","https://map.goo.ne.jp/s_gootransit/staticmap.php?MAP=E139.41.50.500N36.7.57.400&ZM=8&SZ=672,120",久喜市伊坂,3491121,"
宇都宮線
東武日光線
東武日光線・鬼怒川線
湘南新宿ライン
"
東北,東武日光線・鬼怒川線,新古河,しんこが,"
栗橋	柳生	","https://map.goo.ne.jp/s_gootransit/staticmap.php?MAP=E139.41.24.600N36.11.22.100&ZM=8&SZ=672,120",加須市向古河,3491205,"
東武日光線
東武日光線・鬼怒川線
"
東北,東武日光線・鬼怒川線,柳生,やぎゅう,"
新古河	板倉東洋大前	","https://map.goo.ne.jp/s_gootransit/staticmap.php?MAP=E139.39.47.300N36.12.12.300&ZM=8&SZ=672,120",加須市小野袋,3491202,"
東武日光線
東武日光線・鬼怒川線
"
東北,東武日光線・鬼怒川線,板倉東洋大前,いたくらとうようだいまえ,"
柳生	藤岡	","https://map.goo.ne.jp/s_gootransit/staticmap.php?MAP=E139.39.6.500N36.13.7.800&ZM=8&SZ=672,120",邑楽郡板倉町朝日野,3740112,"
東武日光線
東武日光線・鬼怒川線
"
東北,東武日光線・鬼怒川線,藤岡,ふじおか,"
板倉東洋大前	静和	","https://map.goo.ne.jp/s_gootransit/staticmap.php?MAP=E139.38.55.700N36.15.8.800&ZM=8&SZ=672,120",栃木市藤岡町藤岡,3231104,"
東武日光線
東武日光線・鬼怒川線
"
東北,東武日光線・鬼怒川線,静和,しずわ,"
藤岡	新大平下	","https://map.goo.ne.jp/s_gootransit/staticmap.php?MAP=E139.41.17.400N36.18.48.200&ZM=8&SZ=672,120",栃木市静和,3294304,"
東武日光線
東武日光線・鬼怒川線
"
東北,東武日光線・鬼怒川線,新大平下,しんおおひらした,"
静和	栃木	","https://map.goo.ne.jp/s_gootransit/staticmap.php?MAP=E139.42.17.600N36.20.9.100&ZM=8&SZ=672,120",栃木市大平町富田,3294404,"
東武日光線
東武日光線・鬼怒川線
"
東北,東武日光線・鬼怒川線,栃木,とちぎ,"
新大平下	新栃木	","https://map.goo.ne.jp/s_gootransit/staticmap.php?MAP=E139.44.3.900N36.22.6.700&ZM=8&SZ=672,120",栃木市河合町,3280041,"
両毛線
東武日光線
東武日光線・鬼怒川線
"
東北,東武日光線・鬼怒川線,新栃木,しんとちぎ,"
栃木	合戦場	","https://map.goo.ne.jp/s_gootransit/staticmap.php?MAP=E139.44.44.200N36.23.13.200&ZM=8&SZ=672,120",栃木市平柳町,3280012,"
東武宇都宮線
東武日光線
東武日光線・鬼怒川線
"
東北,東武日光線・鬼怒川線,合戦場,かっせんば,"
新栃木	家中	","https://map.goo.ne.jp/s_gootransit/staticmap.php?MAP=E139.44.39.400N36.24.16.200&ZM=8&SZ=672,120",栃木市都賀町合戦場,3280113,"
東武日光線
東武日光線・鬼怒川線
"
東北,東武日光線・鬼怒川線,家中,いえなか,"
合戦場	東武金崎	","https://map.goo.ne.jp/s_gootransit/staticmap.php?MAP=E139.45.2.200N36.25.35.700&ZM=8&SZ=672,120",栃木市都賀町家中,3280111,"
東武日光線
東武日光線・鬼怒川線
"
東北,東武日光線・鬼怒川線,東武金崎,とうぶかなさき,"
家中	楡木	","https://map.goo.ne.jp/s_gootransit/staticmap.php?MAP=E139.45.9.600N36.27.47.400&ZM=8&SZ=672,120",栃木市西方町金崎,3220601,"
東武日光線
東武日光線・鬼怒川線
"
東北,東武日光線・鬼怒川線,楡木,にれぎ,"
東武金崎	樅山	","https://map.goo.ne.jp/s_gootransit/staticmap.php?MAP=E139.44.54.500N36.30.14.700&ZM=8&SZ=672,120",鹿沼市楡木町,3220526,"
東武日光線
東武日光線・鬼怒川線
"
東北,東武日光線・鬼怒川線,樅山,もみやま,"
楡木	新鹿沼	","https://map.goo.ne.jp/s_gootransit/staticmap.php?MAP=E139.44.42.100N36.31.46.500&ZM=8&SZ=672,120",鹿沼市樅山町,3220046,"
東武日光線
東武日光線・鬼怒川線
"
東北,東武日光線・鬼怒川線,新鹿沼,しんかぬま,"
樅山	北鹿沼	","https://map.goo.ne.jp/s_gootransit/staticmap.php?MAP=E139.44.52.800N36.33.13.900&ZM=8&SZ=672,120",鹿沼市鳥居跡町,3220044,"
東武日光線
東武日光線・鬼怒川線
"
東北,東武日光線・鬼怒川線,北鹿沼,きたかぬま,"
新鹿沼	板荷	","https://map.goo.ne.jp/s_gootransit/staticmap.php?MAP=E139.44.27.100N36.34.39.600&ZM=8&SZ=672,120",鹿沼市玉田町,3220072,"
東武日光線
東武日光線・鬼怒川線
"
東北,東武日光線・鬼怒川線,板荷,いたが,"
北鹿沼	下小代	","https://map.goo.ne.jp/s_gootransit/staticmap.php?MAP=E139.42.39.800N36.36.58.500&ZM=8&SZ=672,120",鹿沼市板荷,3211111,"
東武日光線
東武日光線・鬼怒川線
"
東北,東武日光線・鬼怒川線,下小代,しもごしろ,"
板荷	明神	","https://map.goo.ne.jp/s_gootransit/staticmap.php?MAP=E139.43.1.600N36.38.54.300&ZM=8&SZ=672,120",日光市小代,3211107,"
東武日光線
東武日光線・鬼怒川線
"
東北,東武日光線・鬼怒川線,明神,みょうじん,"
下小代	下今市	","https://map.goo.ne.jp/s_gootransit/staticmap.php?MAP=E139.42.56.200N36.40.24.300&ZM=8&SZ=672,120",日光市明神,3211101,"
東武日光線
東武日光線・鬼怒川線
"
東北,東武日光線・鬼怒川線,下今市,しもいまいち,"
明神	上今市	","https://map.goo.ne.jp/s_gootransit/staticmap.php?MAP=E139.41.46.400N36.43.20.600&ZM=8&SZ=672,120",日光市今市,3211261,"
東武日光線
東武日光線・鬼怒川線
東武鬼怒川線
"
東北,東武日光線・鬼怒川線,上今市,かみいまいち,"
下今市	東武日光	","https://map.goo.ne.jp/s_gootransit/staticmap.php?MAP=E139.41.3.500N36.43.29.500&ZM=8&SZ=672,120",日光市今市,3211261,"
東武日光線
東武日光線・鬼怒川線
東武鬼怒川線
"
東北,東武日光線・鬼怒川線,東武日光,とうぶにっこう,"
上今市	大谷向	","https://map.goo.ne.jp/s_gootransit/staticmap.php?MAP=E139.37.22.100N36.44.42.700&ZM=8&SZ=672,120",日光市松原町,3211406,"
東武日光線
東武日光線・鬼怒川線
東武鬼怒川線
"
東北,東武日光線・鬼怒川線,大谷向,だいやむこう,"
東武日光	大桑（栃木）	","https://map.goo.ne.jp/s_gootransit/staticmap.php?MAP=E139.41.42.400N36.43.44.800&ZM=8&SZ=672,120",日光市今市,3211261,"
東武日光線・鬼怒川線
東武鬼怒川線
"
東北,東武日光線・鬼怒川線,大桑（栃木）,おおくわ,"
大谷向	新高徳	","https://map.goo.ne.jp/s_gootransit/staticmap.php?MAP=E139.43.0.500N36.45.27.800&ZM=8&SZ=672,120",日光市大桑町,3212411,"
東武日光線・鬼怒川線
東武鬼怒川線
"
東北,東武日光線・鬼怒川線,新高徳,しんたかとく,"
大桑（栃木）	小佐越	","https://map.goo.ne.jp/s_gootransit/staticmap.php?MAP=E139.42.50.700N36.46.36.100&ZM=8&SZ=672,120",日光市高徳,3212523,"
東武日光線・鬼怒川線
東武鬼怒川線
"
東北,東武日光線・鬼怒川線,小佐越,こさごえ,"
新高徳	鬼怒川温泉	","https://map.goo.ne.jp/s_gootransit/staticmap.php?MAP=E139.42.34.900N36.47.56.300&ZM=8&SZ=672,120",日光市鬼怒川温泉大原,3212522,"
東武日光線・鬼怒川線
東武鬼怒川線
"
東北,東武日光線・鬼怒川線,鬼怒川温泉,きぬがわおんせん,"
小佐越	鬼怒川公園	","https://map.goo.ne.jp/s_gootransit/staticmap.php?MAP=E139.43.11.400N36.49.10.200&ZM=8&SZ=672,120",日光市鬼怒川温泉大原,3212522,"
東武日光線・鬼怒川線
東武鬼怒川線
"
東北,東武日光線・鬼怒川線,鬼怒川公園,きぬがわこうえん,"
鬼怒川温泉	新藤原	","https://map.goo.ne.jp/s_gootransit/staticmap.php?MAP=E139.43.34.200N36.50.15.500&ZM=8&SZ=672,120",日光市藤原,3212521,"
東武日光線・鬼怒川線
東武鬼怒川線
"
東北,東武日光線・鬼怒川線,新藤原,しんふじわら,"
鬼怒川公園		","https://map.goo.ne.jp/s_gootransit/staticmap.php?MAP=E139.44.10.500N36.50.57.700&ZM=8&SZ=672,120",日光市藤原,3212521,"
東武日光線・鬼怒川線
東武鬼怒川線
野岩鉄道会津鬼怒川線
"
東北,野岩鉄道会津鬼怒川線,新藤原,しんふじわら,"
	龍王峡	","https://map.goo.ne.jp/s_gootransit/staticmap.php?MAP=E139.44.10.500N36.50.57.700&ZM=8&SZ=672,120",日光市藤原,3212521,"
東武日光線・鬼怒川線
東武鬼怒川線
野岩鉄道会津鬼怒川線
"
東北,野岩鉄道会津鬼怒川線,龍王峡,りゅうおうきょう,"
新藤原	川治温泉	","https://map.goo.ne.jp/s_gootransit/staticmap.php?MAP=E139.43.18.400N36.51.28.300&ZM=8&SZ=672,120",日光市藤原,3212521,"
東武日光線・鬼怒川線
野岩鉄道会津鬼怒川線
"
東北,野岩鉄道会津鬼怒川線,川治温泉,かわじおんせん,"
龍王峡	川治湯元	","https://map.goo.ne.jp/s_gootransit/staticmap.php?MAP=E139.42.25.200N36.52.51.800&ZM=8&SZ=672,120",日光市藤原,3212521,"
東武日光線・鬼怒川線
野岩鉄道会津鬼怒川線
"
東北,野岩鉄道会津鬼怒川線,川治湯元,かわじゆもと,"
川治温泉	湯西川温泉	","https://map.goo.ne.jp/s_gootransit/staticmap.php?MAP=E139.42.21.600N36.53.31.500&ZM=8&SZ=672,120",日光市川治温泉川治,3212611,"
東武日光線・鬼怒川線
野岩鉄道会津鬼怒川線
"
東北,野岩鉄道会津鬼怒川線,湯西川温泉,ゆにしがわおんせん,"
川治湯元	中三依温泉	","https://map.goo.ne.jp/s_gootransit/staticmap.php?MAP=E139.41.30.500N36.55.35.100&ZM=8&SZ=672,120",日光市西川,3212603,"
東武日光線・鬼怒川線
野岩鉄道会津鬼怒川線
"
東北,野岩鉄道会津鬼怒川線,中三依温泉,なかみよりおんせん,"
湯西川温泉	上三依塩原温泉口	","https://map.goo.ne.jp/s_gootransit/staticmap.php?MAP=E139.42.9.400N36.58.55.600&ZM=8&SZ=672,120",日光市中三依,3212803,"
東武日光線・鬼怒川線
野岩鉄道会津鬼怒川線
"
東北,野岩鉄道会津鬼怒川線,上三依塩原温泉口,かみみよりしおばらおんせんぐち,"
中三依温泉	男鹿高原	","https://map.goo.ne.jp/s_gootransit/staticmap.php?MAP=E139.43.50.200N37.0.40.700&ZM=8&SZ=672,120",日光市上三依,3212802,"
東武日光線・鬼怒川線
野岩鉄道会津鬼怒川線
"
東北,野岩鉄道会津鬼怒川線,男鹿高原,おじかこうげん,"
上三依塩原温泉口	会津高原尾瀬口	","https://map.goo.ne.jp/s_gootransit/staticmap.php?MAP=E139.43.37.800N37.2.41.300&ZM=8&SZ=672,120",日光市横川,3212801,"
東武日光線・鬼怒川線
野岩鉄道会津鬼怒川線
"
東北,野岩鉄道会津鬼怒川線,会津高原尾瀬口,あいづこうげんおぜぐち,"
男鹿高原		","https://map.goo.ne.jp/s_gootransit/staticmap.php?MAP=E139.42.30.100N37.5.13.200&ZM=8&SZ=672,120",南会津郡南会津町滝原,9670015,"
会津鉄道
東武日光線・鬼怒川線
野岩鉄道会津鬼怒川線
"
東北,会津鉄道,会津高原尾瀬口,あいづこうげんおぜぐち,"
	七ヶ岳登山口	","https://map.goo.ne.jp/s_gootransit/staticmap.php?MAP=E139.42.30.100N37.5.13.200&ZM=8&SZ=672,120",南会津郡南会津町滝原,9670015,"
会津鉄道
東武日光線・鬼怒川線
野岩鉄道会津鬼怒川線
"
東北,会津鉄道,七ヶ岳登山口,ななつがたけとざんぐち,"
会津高原尾瀬口	会津山村道場	","https://map.goo.ne.jp/s_gootransit/staticmap.php?MAP=E139.43.14.200N37.7.16.200&ZM=8&SZ=672,120",南会津郡南会津町糸沢,9670014,"
会津鉄道
東武日光線・鬼怒川線
"
東北,会津鉄道,会津山村道場,あいづさんそんどうじょう,"
七ヶ岳登山口	会津荒海	","https://map.goo.ne.jp/s_gootransit/staticmap.php?MAP=E139.44.7.500N37.8.28.900&ZM=8&SZ=672,120",南会津郡南会津町糸沢,9670014,"
会津鉄道
東武日光線・鬼怒川線
"
東北,会津鉄道,会津荒海,あいづあらかい,"
会津山村道場	中荒井	","https://map.goo.ne.jp/s_gootransit/staticmap.php?MAP=E139.44.12.800N37.9.0.900&ZM=8&SZ=672,120",南会津郡南会津町関本,9670013,"
会津鉄道
東武日光線・鬼怒川線
"
東北,会津鉄道,中荒井,なかあらい,"
会津荒海	会津田島	","https://map.goo.ne.jp/s_gootransit/staticmap.php?MAP=E139.45.14.800N37.10.37.800&ZM=8&SZ=672,120",南会津郡南会津町中荒井,9670005,"
会津鉄道
東武日光線・鬼怒川線
"
東北,会津鉄道,会津田島,あいづたじま,"
中荒井	田島高校前	","https://map.goo.ne.jp/s_gootransit/staticmap.php?MAP=E139.46.39.900N37.12.0.800&ZM=8&SZ=672,120",南会津郡南会津町田島,9670004,"
会津鉄道
東武日光線・鬼怒川線
"
東北,会津鉄道,田島高校前,たじまこうこうまえ,"
会津田島	会津長野	","https://map.goo.ne.jp/s_gootransit/staticmap.php?MAP=E139.48.14.500N37.12.23.400&ZM=8&SZ=672,120",南会津郡南会津町田島,9670004,"
会津鉄道
"
東北,会津鉄道,会津長野,あいづながの,"
田島高校前	養鱒公園	","https://map.goo.ne.jp/s_gootransit/staticmap.php?MAP=E139.49.37.200N37.12.43.600&ZM=8&SZ=672,120",南会津郡南会津町長野,9670001,"
会津鉄道
"
東北,会津鉄道,養鱒公園,ようそんこうえん,"
会津長野	ふるさと公園	","https://map.goo.ne.jp/s_gootransit/staticmap.php?MAP=E139.50.42.400N37.13.17.300&ZM=8&SZ=672,120",南会津郡下郷町落合,9695343,"
会津鉄道
"
東北,会津鉄道,ふるさと公園,ふるさとこうえん,"
養鱒公園	会津下郷	","https://map.goo.ne.jp/s_gootransit/staticmap.php?MAP=E139.51.44.000N37.14.24.000&ZM=8&SZ=672,120",南会津郡下郷町沢田,9695344,"
会津鉄道
"
東北,会津鉄道,会津下郷,あいづしもごう,"
ふるさと公園	弥五島	","https://map.goo.ne.jp/s_gootransit/staticmap.php?MAP=E139.52.5.400N37.15.7.400&ZM=8&SZ=672,120",南会津郡下郷町豊成,9695311,"
会津鉄道
"
東北,会津鉄道,弥五島,やごしま,"
会津下郷	塔のへつり	","https://map.goo.ne.jp/s_gootransit/staticmap.php?MAP=E139.53.34.700N37.15.47.300&ZM=8&SZ=672,120",南会津郡下郷町弥五島,9695204,"
会津鉄道
"
東北,会津鉄道,塔のへつり,とうのへつり,"
弥五島	湯野上温泉	","https://map.goo.ne.jp/s_gootransit/staticmap.php?MAP=E139.54.15.300N37.16.16.200&ZM=8&SZ=672,120",南会津郡下郷町弥五島,9695204,"
会津鉄道
"
東北,会津鉄道,湯野上温泉,ゆのかみおんせん,"
塔のへつり	芦ノ牧温泉南	","https://map.goo.ne.jp/s_gootransit/staticmap.php?MAP=E139.53.53.700N37.18.3.400&ZM=8&SZ=672,120",南会津郡下郷町湯野上,9695206,"
会津鉄道
"
東北,会津鉄道,芦ノ牧温泉南,あしのまきおんせんみなみ,"
湯野上温泉	大川ダム公園	","https://map.goo.ne.jp/s_gootransit/staticmap.php?MAP=E139.55.18.300N37.19.53.700&ZM=8&SZ=672,120",会津若松市大戸町大川,9695133,"
会津鉄道
"
東北,会津鉄道,大川ダム公園,おおかわだむこうえん,"
芦ノ牧温泉南	芦ノ牧温泉	","https://map.goo.ne.jp/s_gootransit/staticmap.php?MAP=E139.55.26.600N37.20.37.600&ZM=8&SZ=672,120",会津若松市大戸町大川,9695133,"
会津鉄道
"
東北,会津鉄道,芦ノ牧温泉,あしのまきおんせん,"
大川ダム公園	あまや	","https://map.goo.ne.jp/s_gootransit/staticmap.php?MAP=E139.56.7.900N37.23.32.600&ZM=8&SZ=672,120",会津若松市大戸町上三寄香塩,9695122,"
会津鉄道
"
東北,会津鉄道,あまや,あまや,"
芦ノ牧温泉	門田	","https://map.goo.ne.jp/s_gootransit/staticmap.php?MAP=E139.55.15.600N37.24.48.600&ZM=8&SZ=672,120",会津若松市大戸町上雨屋,9695114,"
会津鉄道
"
東北,会津鉄道,門田,もんでん,"
あまや	南若松	","https://map.goo.ne.jp/s_gootransit/staticmap.php?MAP=E139.55.1.300N37.26.22.400&ZM=8&SZ=672,120",会津若松市門田町面川,9650828,"
会津鉄道
"
東北,会津鉄道,南若松,みなみわかまつ,"
門田	西若松	","https://map.goo.ne.jp/s_gootransit/staticmap.php?MAP=E139.55.3.800N37.27.23.400&ZM=8&SZ=672,120",会津若松市門田町一ノ堰,9650844,"
会津鉄道
"
東北,会津鉄道,西若松,にしわかまつ,"
南若松		","https://map.goo.ne.jp/s_gootransit/staticmap.php?MAP=E139.55.2.700N37.28.58.500&ZM=8&SZ=672,120",会津若松市材木町,9650853,"
会津鉄道
只見線
"
東北,福島交通飯坂線,福島（福島）,ふくしま,"
	曽根田	","https://map.goo.ne.jp/s_gootransit/staticmap.php?MAP=E140.27.48.000N37.45.5.400&ZM=8&SZ=672,120",福島市栄町,9608031,"
山形線
東北・北海道新幹線
東北本線
福島交通飯坂線
阿武隈急行
"
東北,福島交通飯坂線,曽根田,そねだ,"
福島（福島）	美術館図書館前	","https://map.goo.ne.jp/s_gootransit/staticmap.php?MAP=E140.27.46.500N37.45.26.300&ZM=8&SZ=672,120",福島市曾根田町,9608051,"
福島交通飯坂線
"
東北,福島交通飯坂線,美術館図書館前,びじゅつかんとしょかんまえ,"
曽根田	岩代清水	","https://map.goo.ne.jp/s_gootransit/staticmap.php?MAP=E140.27.31.400N37.45.50.700&ZM=8&SZ=672,120",福島市森合,9608003,"
福島交通飯坂線
"
東北,福島交通飯坂線,岩代清水,いわしろしみず,"
美術館図書館前	泉（福島交通）	","https://map.goo.ne.jp/s_gootransit/staticmap.php?MAP=E140.27.4.800N37.46.22.900&ZM=8&SZ=672,120",福島市泉,9608253,"
福島交通飯坂線
"
東北,福島交通飯坂線,泉（福島交通）,いずみ,"
岩代清水	上松川	","https://map.goo.ne.jp/s_gootransit/staticmap.php?MAP=E140.26.57.900N37.46.30.700&ZM=8&SZ=672,120",福島市泉,9608253,"
福島交通飯坂線
"
東北,福島交通飯坂線,上松川,かみまつかわ,"
泉（福島交通）	笹谷	","https://map.goo.ne.jp/s_gootransit/staticmap.php?MAP=E140.26.39.900N37.46.50.200&ZM=8&SZ=672,120",福島市南沢又,9608254,"
福島交通飯坂線
"
東北,福島交通飯坂線,笹谷,ささや,"
上松川	桜水	","https://map.goo.ne.jp/s_gootransit/staticmap.php?MAP=E140.26.35.100N37.47.3.600&ZM=8&SZ=672,120",福島市笹谷,9600241,"
福島交通飯坂線
"
東北,福島交通飯坂線,桜水,さくらみず,"
笹谷	平野（福島）	","https://map.goo.ne.jp/s_gootransit/staticmap.php?MAP=E140.26.40.100N37.47.34.500&ZM=8&SZ=672,120",福島市笹谷,9600241,"
福島交通飯坂線
"
東北,福島交通飯坂線,平野（福島）,ひらの,"
桜水	医王寺前	","https://map.goo.ne.jp/s_gootransit/staticmap.php?MAP=E140.26.46.500N37.48.7.500&ZM=8&SZ=672,120",福島市飯坂町平野,9600231,"
福島交通飯坂線
"
東北,福島交通飯坂線,医王寺前,いおうじまえ,"
平野（福島）	花水坂	","https://map.goo.ne.jp/s_gootransit/staticmap.php?MAP=E140.26.58.400N37.48.48.200&ZM=8&SZ=672,120",福島市飯坂町平野,9600231,"
福島交通飯坂線
"
東北,福島交通飯坂線,花水坂,はなみずざか,"
医王寺前	飯坂温泉	","https://map.goo.ne.jp/s_gootransit/staticmap.php?MAP=E140.27.15.100N37.49.28.100&ZM=8&SZ=672,120",福島市飯坂町,9600201,"
福島交通飯坂線
"
東北,福島交通飯坂線,飯坂温泉,いいざかおんせん,"
花水坂		","https://map.goo.ne.jp/s_gootransit/staticmap.php?MAP=E140.27.27.500N37.49.36.700&ZM=8&SZ=672,120",福島市飯坂町,9600201,"
福島交通飯坂線
"
東北,いわて銀河鉄道,盛岡,もりおか,"
	青山（岩手）	","https://map.goo.ne.jp/s_gootransit/staticmap.php?MAP=E141.8.22.400N39.41.54.600&ZM=8&SZ=672,120",盛岡市盛岡駅前通,0200034,"
いわて銀河鉄道
山田線
東北・北海道新幹線
東北本線
田沢湖線
"
東北,いわて銀河鉄道,青山（岩手）,あおやま,"
盛岡	厨川	","https://map.goo.ne.jp/s_gootransit/staticmap.php?MAP=E141.7.18.500N39.43.18.700&ZM=8&SZ=672,120",盛岡市上堂,0200125,"
いわて銀河鉄道
"
東北,いわて銀河鉄道,厨川,くりやがわ,"
青山（岩手）	巣子	","https://map.goo.ne.jp/s_gootransit/staticmap.php?MAP=E141.7.57.600N39.44.30.700&ZM=8&SZ=672,120",盛岡市厨川,0200124,"
いわて銀河鉄道
"
東北,いわて銀河鉄道,巣子,すご,"
厨川	滝沢	","https://map.goo.ne.jp/s_gootransit/staticmap.php?MAP=E141.9.9.100N39.46.51.300&ZM=8&SZ=672,120",滝沢市巣子,0200611,"
いわて銀河鉄道
"
東北,いわて銀河鉄道,滝沢,たきざわ,"
巣子	渋民	","https://map.goo.ne.jp/s_gootransit/staticmap.php?MAP=E141.9.11.800N39.47.45.600&ZM=8&SZ=672,120",滝沢市野沢,0200622,"
いわて銀河鉄道
"
東北,いわて銀河鉄道,渋民,しぶたみ,"
滝沢	好摩	","https://map.goo.ne.jp/s_gootransit/staticmap.php?MAP=E141.9.27.400N39.49.54.300&ZM=8&SZ=672,120",盛岡市玉山区下田,0284134,"
いわて銀河鉄道
"
東北,いわて銀河鉄道,好摩,こうま,"
渋民	岩手川口	","https://map.goo.ne.jp/s_gootransit/staticmap.php?MAP=E141.10.37.900N39.52.17.100&ZM=8&SZ=672,120",盛岡市玉山区好摩,0284125,"
いわて銀河鉄道
花輪線
"
東北,いわて銀河鉄道,岩手川口,いわてかわぐち,"
好摩	いわて沼宮内	","https://map.goo.ne.jp/s_gootransit/staticmap.php?MAP=E141.12.10.300N39.54.57.900&ZM=8&SZ=672,120",岩手郡岩手町川口,0284211,"
いわて銀河鉄道
"
東北,いわて銀河鉄道,いわて沼宮内,いわてぬまくない,"
岩手川口	御堂	","https://map.goo.ne.jp/s_gootransit/staticmap.php?MAP=E141.13.15.200N39.57.27.200&ZM=8&SZ=672,120",岩手郡岩手町江刈内,0284303,"
いわて銀河鉄道
東北・北海道新幹線
"
東北,いわて銀河鉄道,御堂,みどう,"
いわて沼宮内	奥中山高原	","https://map.goo.ne.jp/s_gootransit/staticmap.php?MAP=E141.14.25.800N40.0.5.600&ZM=8&SZ=672,120",岩手郡岩手町五日市,0284307,"
いわて銀河鉄道
"
東北,いわて銀河鉄道,奥中山高原,おくなかやまこうげん,"
御堂	小繋	","https://map.goo.ne.jp/s_gootransit/staticmap.php?MAP=E141.13.55.100N40.3.48.800&ZM=8&SZ=672,120",二戸郡一戸町中山,0285133,"
いわて銀河鉄道
"
東北,いわて銀河鉄道,小繋,こつなぎ,"
奥中山高原	小鳥谷	","https://map.goo.ne.jp/s_gootransit/staticmap.php?MAP=E141.15.49.500N40.7.12.000&ZM=8&SZ=672,120",二戸郡一戸町小繋,0285132,"
いわて銀河鉄道
"
東北,いわて銀河鉄道,小鳥谷,こずや,"
小繋	一戸	","https://map.goo.ne.jp/s_gootransit/staticmap.php?MAP=E141.18.41.700N40.10.6.400&ZM=8&SZ=672,120",二戸郡一戸町小鳥谷,0285221,"
いわて銀河鉄道
"
東北,いわて銀河鉄道,一戸,いちのへ,"
小鳥谷	二戸	","https://map.goo.ne.jp/s_gootransit/staticmap.php?MAP=E141.18.3.100N40.12.26.100&ZM=8&SZ=672,120",二戸郡一戸町西法寺,0285301,"
いわて銀河鉄道
"
東北,いわて銀河鉄道,二戸,にのへ,"
一戸	斗米	","https://map.goo.ne.jp/s_gootransit/staticmap.php?MAP=E141.17.22.600N40.15.25.100&ZM=8&SZ=672,120",二戸市石切所,0286103,"
いわて銀河鉄道
東北・北海道新幹線
"
東北,いわて銀河鉄道,斗米,とまい,"
二戸	金田一温泉	","https://map.goo.ne.jp/s_gootransit/staticmap.php?MAP=E141.17.39.700N40.16.58.200&ZM=8&SZ=672,120",二戸市米沢,0286104,"
いわて銀河鉄道
"
東北,いわて銀河鉄道,金田一温泉,きんたいちおんせん,"
斗米	目時	","https://map.goo.ne.jp/s_gootransit/staticmap.php?MAP=E141.18.25.900N40.19.13.400&ZM=8&SZ=672,120",二戸市金田一,0285711,"
いわて銀河鉄道
"
東北,いわて銀河鉄道,目時,めとき,"
金田一温泉		","https://map.goo.ne.jp/s_gootransit/staticmap.php?MAP=E141.17.35.300N40.20.57.200&ZM=8&SZ=672,120",三戸郡三戸町目時,0390113,"
いわて銀河鉄道
青い森鉄道
"
東北,青い森鉄道,目時,めとき,"
	三戸	","https://map.goo.ne.jp/s_gootransit/staticmap.php?MAP=E141.17.35.300N40.20.57.200&ZM=8&SZ=672,120",三戸郡三戸町目時,0390113,"
いわて銀河鉄道
青い森鉄道
"
東北,青い森鉄道,三戸,さんのへ,"
目時	諏訪ノ平	","https://map.goo.ne.jp/s_gootransit/staticmap.php?MAP=E141.16.36.200N40.23.34.600&ZM=8&SZ=672,120",三戸郡南部町大向,0390103,"
青い森鉄道
"
東北,青い森鉄道,諏訪ノ平,すわのたいら,"
三戸	剣吉	","https://map.goo.ne.jp/s_gootransit/staticmap.php?MAP=E141.18.29.700N40.24.43.900&ZM=8&SZ=672,120",三戸郡南部町玉掛,0390101,"
青い森鉄道
"
東北,青い森鉄道,剣吉,けんよし,"
諏訪ノ平	苫米地	","https://map.goo.ne.jp/s_gootransit/staticmap.php?MAP=E141.21.1.800N40.26.46.500&ZM=8&SZ=672,120",三戸郡南部町剣吉,0390612,"
青い森鉄道
"
東北,青い森鉄道,苫米地,とまべち,"
剣吉	北高岩	","https://map.goo.ne.jp/s_gootransit/staticmap.php?MAP=E141.22.42.300N40.27.50.900&ZM=8&SZ=672,120",三戸郡南部町苫米地,0390802,"
青い森鉄道
"
東北,青い森鉄道,北高岩,きたたかいわ,"
苫米地	八戸	","https://map.goo.ne.jp/s_gootransit/staticmap.php?MAP=E141.24.33.900N40.28.21.000&ZM=8&SZ=672,120",八戸市上野,0391108,"
青い森鉄道
"
東北,青い森鉄道,八戸,はちのへ,"
北高岩	陸奥市川	","https://map.goo.ne.jp/s_gootransit/staticmap.php?MAP=E141.26.6.100N40.30.23.600&ZM=8&SZ=672,120",八戸市尻内町,0391101,"
八戸線
東北・北海道新幹線
青い森鉄道
"
東北,青い森鉄道,陸奥市川,むついちかわ,"
八戸	下田（青森）	","https://map.goo.ne.jp/s_gootransit/staticmap.php?MAP=E141.26.33.600N40.33.37.100&ZM=8&SZ=672,120",八戸市市川町,0392241,"
青い森鉄道
"
東北,青い森鉄道,下田（青森）,しもだ,"
陸奥市川	向山	","https://map.goo.ne.jp/s_gootransit/staticmap.php?MAP=E141.24.40.300N40.35.21.300&ZM=8&SZ=672,120",上北郡おいらせ町境田,0392124,"
青い森鉄道
"
東北,青い森鉄道,向山,むかいやま,"
下田（青森）	三沢（青森）	","https://map.goo.ne.jp/s_gootransit/staticmap.php?MAP=E141.22.25.600N40.37.39.100&ZM=8&SZ=672,120",上北郡おいらせ町向山,0392151,"
青い森鉄道
"
東北,青い森鉄道,三沢（青森）,みさわ,"
向山	小川原	","https://map.goo.ne.jp/s_gootransit/staticmap.php?MAP=E141.21.26.500N40.40.1.900&ZM=8&SZ=672,120",三沢市古間木栄町,0330044,"
青い森鉄道
"
東北,青い森鉄道,小川原,こがわら,"
三沢（青森）	上北町	","https://map.goo.ne.jp/s_gootransit/staticmap.php?MAP=E141.18.12.600N40.42.24.900&ZM=8&SZ=672,120",上北郡東北町大浦,0392402,"
青い森鉄道
"
東北,青い森鉄道,上北町,かみきたちょう,"
小川原	乙供	","https://map.goo.ne.jp/s_gootransit/staticmap.php?MAP=E141.16.6.100N40.43.49.600&ZM=8&SZ=672,120",上北郡東北町上北北,0392404,"
青い森鉄道
"
東北,青い森鉄道,乙供,おっとも,"
上北町	千曳	","https://map.goo.ne.jp/s_gootransit/staticmap.php?MAP=E141.13.0.300N40.46.38.600&ZM=8&SZ=672,120",上北郡東北町上笹橋,0392661,"
青い森鉄道
"
東北,青い森鉄道,千曳,ちびき,"
乙供	野辺地	","https://map.goo.ne.jp/s_gootransit/staticmap.php?MAP=E141.9.24.700N40.48.5.900&ZM=8&SZ=672,120",上北郡東北町千曳,0392675,"
青い森鉄道
"
東北,青い森鉄道,野辺地,のへじ,"
千曳	狩場沢	","https://map.goo.ne.jp/s_gootransit/staticmap.php?MAP=E141.7.23.300N40.51.9.000&ZM=8&SZ=672,120",上北郡野辺地町野辺地,0393131,"
大湊線
青い森鉄道
"
東北,青い森鉄道,狩場沢,かりばさわ,"
野辺地	清水川	","https://map.goo.ne.jp/s_gootransit/staticmap.php?MAP=E141.4.29.500N40.53.52.100&ZM=8&SZ=672,120",東津軽郡平内町狩場沢,0393343,"
青い森鉄道
"
東北,青い森鉄道,清水川,しみずがわ,"
狩場沢	小湊	","https://map.goo.ne.jp/s_gootransit/staticmap.php?MAP=E141.1.42.100N40.55.8.400&ZM=8&SZ=672,120",東津軽郡平内町清水川,0393332,"
青い森鉄道
"
東北,青い森鉄道,小湊,こみなと,"
清水川	西平内	","https://map.goo.ne.jp/s_gootransit/staticmap.php?MAP=E140.57.27.600N40.55.37.400&ZM=8&SZ=672,120",東津軽郡平内町小湊,0393321,"
青い森鉄道
"
東北,青い森鉄道,西平内,にしひらない,"
小湊	浅虫温泉	","https://map.goo.ne.jp/s_gootransit/staticmap.php?MAP=E140.54.59.700N40.54.55.800&ZM=8&SZ=672,120",東津軽郡平内町小豆沢,0393364,"
青い森鉄道
"
東北,青い森鉄道,浅虫温泉,あさむしおんせん,"
西平内	野内	","https://map.goo.ne.jp/s_gootransit/staticmap.php?MAP=E140.51.57.400N40.53.19.600&ZM=8&SZ=672,120",青森市浅虫,0393501,"
青い森鉄道
"
東北,青い森鉄道,野内,のない,"
浅虫温泉	矢田前	","https://map.goo.ne.jp/s_gootransit/staticmap.php?MAP=E140.49.13.900N40.50.36.500&ZM=8&SZ=672,120",青森市野内,0393503,"
青い森鉄道
"
東北,青い森鉄道,矢田前,やだまえ,"
野内	小柳（青森）	","https://map.goo.ne.jp/s_gootransit/staticmap.php?MAP=E140.48.38.400N40.49.52.100&ZM=8&SZ=672,120",青森市矢田前,0300936,"
青い森鉄道
"
東北,青い森鉄道,小柳（青森）,こやなぎ,"
矢田前	東青森	","https://map.goo.ne.jp/s_gootransit/staticmap.php?MAP=E140.48.4.200N40.48.54.800&ZM=8&SZ=672,120",青森市小柳,0300915,"
青い森鉄道
"
東北,青い森鉄道,東青森,ひがしあおもり,"
小柳（青森）	筒井（青森）	","https://map.goo.ne.jp/s_gootransit/staticmap.php?MAP=E140.47.12.500N40.48.28.300&ZM=8&SZ=672,120",青森市浜館,0300947,"
青い森鉄道
"
東北,青い森鉄道,筒井（青森）,つつい,"
東青森	青森	","https://map.goo.ne.jp/s_gootransit/staticmap.php?MAP=E140.46.26.800N40.48.10.400&ZM=8&SZ=672,120",青森市筒井,0300944,"
青い森鉄道
"
東北,青い森鉄道,青森,あおもり,"
筒井（青森）		","https://map.goo.ne.jp/s_gootransit/staticmap.php?MAP=E140.44.18.100N40.49.33.800&ZM=8&SZ=672,120",青森市柳川,0380012,"
奥羽本線
津軽海峡線
津軽線
青い森鉄道
"
東北,三陸鉄道リアス線,盛,さかり,"
	陸前赤崎	","https://map.goo.ne.jp/s_gootransit/staticmap.php?MAP=E141.42.51.700N39.4.57.400&ZM=8&SZ=672,120",大船渡市盛町,0220003,"
三陸鉄道リアス線
三陸鉄道南リアス線
大船渡線
"
東北,三陸鉄道リアス線,陸前赤崎,りくぜんあかさき,"
盛	綾里	","https://map.goo.ne.jp/s_gootransit/staticmap.php?MAP=E141.44.40.500N39.3.56.400&ZM=8&SZ=672,120",大船渡市赤崎町,0220007,"
三陸鉄道リアス線
三陸鉄道南リアス線
"
東北,三陸鉄道リアス線,綾里,りょうり,"
陸前赤崎	恋し浜	","https://map.goo.ne.jp/s_gootransit/staticmap.php?MAP=E141.48.10.100N39.3.4.700&ZM=8&SZ=672,120",大船渡市三陸町綾里,0220211,"
三陸鉄道リアス線
三陸鉄道南リアス線
"
東北,三陸鉄道リアス線,恋し浜,こいしはま,"
綾里	甫嶺	","https://map.goo.ne.jp/s_gootransit/staticmap.php?MAP=E141.49.10.000N39.4.18.000&ZM=8&SZ=672,120",大船渡市三陸町綾里,0220211,"
三陸鉄道リアス線
三陸鉄道南リアス線
"
東北,三陸鉄道リアス線,甫嶺,ほれい,"
恋し浜	三陸	","https://map.goo.ne.jp/s_gootransit/staticmap.php?MAP=E141.48.36.900N39.5.25.300&ZM=8&SZ=672,120",大船渡市三陸町越喜来,0220101,"
三陸鉄道リアス線
三陸鉄道南リアス線
"
東北,三陸鉄道リアス線,三陸,さんりく,"
甫嶺	吉浜（岩手）	","https://map.goo.ne.jp/s_gootransit/staticmap.php?MAP=E141.48.48.700N39.6.51.800&ZM=8&SZ=672,120",大船渡市三陸町越喜来,0220101,"
三陸鉄道リアス線
三陸鉄道南リアス線
"
東北,三陸鉄道リアス線,吉浜（岩手）,よしはま,"
三陸	唐丹	","https://map.goo.ne.jp/s_gootransit/staticmap.php?MAP=E141.50.23.800N39.8.54.000&ZM=8&SZ=672,120",大船渡市三陸町吉浜,0220102,"
三陸鉄道リアス線
三陸鉄道南リアス線
"
東北,三陸鉄道リアス線,唐丹,とうに,"
吉浜（岩手）	平田（岩手）	","https://map.goo.ne.jp/s_gootransit/staticmap.php?MAP=E141.51.53.300N39.11.56.200&ZM=8&SZ=672,120",釜石市唐丹町,0260121,"
三陸鉄道リアス線
三陸鉄道南リアス線
"
東北,三陸鉄道リアス線,平田（岩手）,へいた,"
唐丹	釜石	","https://map.goo.ne.jp/s_gootransit/staticmap.php?MAP=E141.53.22.500N39.14.34.300&ZM=8&SZ=672,120",釜石市平田,0260001,"
三陸鉄道リアス線
三陸鉄道南リアス線
"
東北,三陸鉄道リアス線,釜石,かまいし,"
平田（岩手）	両石	","https://map.goo.ne.jp/s_gootransit/staticmap.php?MAP=E141.52.33.900N39.16.13.700&ZM=8&SZ=672,120",釜石市鈴子町,0260031,"
三陸鉄道リアス線
三陸鉄道南リアス線
山田線
釜石線
"
東北,三陸鉄道リアス線,両石,りょういし,"
釜石	鵜住居	","https://map.goo.ne.jp/s_gootransit/staticmap.php?MAP=E141.53.33.300N39.18.19.500&ZM=8&SZ=672,120",釜石市両石町,0260304,"
三陸鉄道リアス線
山田線
"
東北,三陸鉄道リアス線,鵜住居,うのすまい,"
両石	大槌	","https://map.goo.ne.jp/s_gootransit/staticmap.php?MAP=E141.53.29.300N39.19.25.900&ZM=8&SZ=672,120",釜石市鵜住居町,0260301,"
三陸鉄道リアス線
山田線
"
東北,三陸鉄道リアス線,大槌,おおつち,"
鵜住居	吉里吉里	","https://map.goo.ne.jp/s_gootransit/staticmap.php?MAP=E141.54.23.700N39.21.14.100&ZM=8&SZ=672,120",上閉伊郡大槌町本町,0281116,"
三陸鉄道リアス線
山田線
"
東北,三陸鉄道リアス線,吉里吉里,きりきり,"
大槌	浪板海岸	","https://map.goo.ne.jp/s_gootransit/staticmap.php?MAP=E141.56.32.900N39.22.0.600&ZM=8&SZ=672,120",上閉伊郡大槌町吉里吉里,0281101,"
三陸鉄道リアス線
山田線
"
東北,三陸鉄道リアス線,浪板海岸,なみいたかいがん,"
吉里吉里	岩手船越	","https://map.goo.ne.jp/s_gootransit/staticmap.php?MAP=E141.56.19.300N39.22.50.200&ZM=8&SZ=672,120",上閉伊郡大槌町吉里吉里,0281101,"
三陸鉄道リアス線
山田線
"
東北,三陸鉄道リアス線,岩手船越,いわてふなこし,"
浪板海岸	織笠	","https://map.goo.ne.jp/s_gootransit/staticmap.php?MAP=E141.58.39.400N39.25.41.900&ZM=8&SZ=672,120",下閉伊郡山田町船越,0281371,"
三陸鉄道リアス線
山田線
"
東北,三陸鉄道リアス線,織笠,おりかさ,"
岩手船越	陸中山田	","https://map.goo.ne.jp/s_gootransit/staticmap.php?MAP=E141.57.31.500N39.27.2.500&ZM=8&SZ=672,120",下閉伊郡山田町織笠,0281361,"
三陸鉄道リアス線
山田線
"
東北,三陸鉄道リアス線,陸中山田,りくちゅうやまだ,"
織笠	豊間根	","https://map.goo.ne.jp/s_gootransit/staticmap.php?MAP=E141.57.16.400N39.27.37.900&ZM=8&SZ=672,120",下閉伊郡山田町川向町,0281342,"
三陸鉄道リアス線
山田線
"
東北,三陸鉄道リアス線,豊間根,とよまね,"
陸中山田	払川	","https://map.goo.ne.jp/s_gootransit/staticmap.php?MAP=E141.55.41.600N39.31.52.900&ZM=8&SZ=672,120",下閉伊郡山田町豊間根,0281302,"
三陸鉄道リアス線
山田線
"
東北,三陸鉄道リアス線,払川,はらいがわ,"
豊間根	津軽石	","https://map.goo.ne.jp/s_gootransit/staticmap.php?MAP=E141.56.22.500N39.33.29.700&ZM=8&SZ=672,120",宮古市津軽石,0270203,"
三陸鉄道リアス線
"
東北,三陸鉄道リアス線,津軽石,つがるいし,"
払川	八木沢・宮古短大	","https://map.goo.ne.jp/s_gootransit/staticmap.php?MAP=E141.56.29.800N39.34.43.700&ZM=8&SZ=672,120",宮古市津軽石,0270203,"
三陸鉄道リアス線
山田線
"
東北,三陸鉄道リアス線,八木沢・宮古短大,やぎさわ みやこたんだい,"
津軽石	磯鶏	","https://map.goo.ne.jp/s_gootransit/staticmap.php?MAP=E141.57.6.000N39.37.3.200&ZM=8&SZ=672,120",宮古市八木沢,0270031,"
三陸鉄道リアス線
"
東北,三陸鉄道リアス線,磯鶏,そけい,"
八木沢・宮古短大	宮古	","https://map.goo.ne.jp/s_gootransit/staticmap.php?MAP=E141.57.52.400N39.37.39.200&ZM=8&SZ=672,120",宮古市磯鶏,0270024,"
三陸鉄道リアス線
山田線
"
東北,三陸鉄道リアス線,宮古,みやこ,"
磯鶏	山口団地	","https://map.goo.ne.jp/s_gootransit/staticmap.php?MAP=E141.57.4.900N39.38.13.800&ZM=8&SZ=672,120",宮古市宮町,0270052,"
三陸鉄道リアス線
三陸鉄道北リアス線
山田線
"
東北,三陸鉄道リアス線,山口団地,やまぐちだんち,"
宮古	一の渡	","https://map.goo.ne.jp/s_gootransit/staticmap.php?MAP=E141.56.12.600N39.38.36.600&ZM=8&SZ=672,120",宮古市山口,0270063,"
三陸鉄道リアス線
三陸鉄道北リアス線
"
東北,三陸鉄道リアス線,一の渡,いちのわたり,"
山口団地	佐羽根	","https://map.goo.ne.jp/s_gootransit/staticmap.php?MAP=E141.56.45.700N39.41.3.800&ZM=8&SZ=672,120",宮古市崎山,0270097,"
三陸鉄道リアス線
三陸鉄道北リアス線
"
東北,三陸鉄道リアス線,佐羽根,さばね,"
一の渡	田老	","https://map.goo.ne.jp/s_gootransit/staticmap.php?MAP=E141.56.23.800N39.42.29.900&ZM=8&SZ=672,120",宮古市田代,0270067,"
三陸鉄道リアス線
三陸鉄道北リアス線
"
東北,三陸鉄道リアス線,田老,たろう,"
佐羽根	新田老	","https://map.goo.ne.jp/s_gootransit/staticmap.php?MAP=E141.58.4.600N39.43.45.300&ZM=8&SZ=672,120",宮古市田老小林,0270351,"
三陸鉄道リアス線
三陸鉄道北リアス線
"
東北,三陸鉄道リアス線,新田老,しんたろう,"
田老	摂待	","https://map.goo.ne.jp/s_gootransit/staticmap.php?MAP=E141.58.14.100N39.43.57.800&ZM=8&SZ=672,120",宮古市田老字館が森,0270301,"
三陸鉄道リアス線
"
東北,三陸鉄道リアス線,摂待,せったい,"
新田老	岩泉小本	","https://map.goo.ne.jp/s_gootransit/staticmap.php?MAP=E141.57.57.500N39.48.25.200&ZM=8&SZ=672,120",宮古市田老摂待,0270384,"
三陸鉄道リアス線
三陸鉄道北リアス線
"
東北,三陸鉄道リアス線,岩泉小本,いわいずみおもと,"
摂待	島越	","https://map.goo.ne.jp/s_gootransit/staticmap.php?MAP=E141.57.42.200N39.50.25.100&ZM=8&SZ=672,120",下閉伊郡岩泉町小本,0270421,"
三陸鉄道リアス線
三陸鉄道北リアス線
"
東北,三陸鉄道リアス線,島越,しまのこし,"
岩泉小本	田野畑	","https://map.goo.ne.jp/s_gootransit/staticmap.php?MAP=E141.56.35.500N39.54.46.200&ZM=8&SZ=672,120",下閉伊郡田野畑村島越,0288404,"
三陸鉄道リアス線
三陸鉄道北リアス線
"
東北,三陸鉄道リアス線,田野畑,たのはた,"
島越	普代	","https://map.goo.ne.jp/s_gootransit/staticmap.php?MAP=E141.56.14.400N39.55.53.300&ZM=8&SZ=672,120",下閉伊郡田野畑村和野,0288407,"
三陸鉄道リアス線
三陸鉄道北リアス線
"
東北,三陸鉄道リアス線,普代,ふだい,"
田野畑	白井海岸	","https://map.goo.ne.jp/s_gootransit/staticmap.php?MAP=E141.53.23.500N40.0.0.400&ZM=8&SZ=672,120",下閉伊郡普代村銅屋,0288332,"
三陸鉄道リアス線
三陸鉄道北リアス線
"
東北,三陸鉄道リアス線,白井海岸,しらいかいがん,"
普代	堀内	","https://map.goo.ne.jp/s_gootransit/staticmap.php?MAP=E141.53.12.300N40.1.47.400&ZM=8&SZ=672,120",下閉伊郡普代村白井,0288311,"
三陸鉄道リアス線
三陸鉄道北リアス線
"
東北,三陸鉄道リアス線,堀内,ほりない,"
白井海岸	野田玉川	","https://map.goo.ne.jp/s_gootransit/staticmap.php?MAP=E141.51.47.900N40.2.57.500&ZM=8&SZ=672,120",下閉伊郡普代村馬場野,0288301,"
三陸鉄道リアス線
三陸鉄道北リアス線
"
東北,三陸鉄道リアス線,野田玉川,のだたまがわ,"
堀内	十府ヶ浦海岸	","https://map.goo.ne.jp/s_gootransit/staticmap.php?MAP=E141.49.56.900N40.4.48.200&ZM=8&SZ=672,120",九戸郡野田村玉川,0288202,"
三陸鉄道リアス線
三陸鉄道北リアス線
"
東北,三陸鉄道リアス線,十府ヶ浦海岸,とふがうらかいがん,"
野田玉川	陸中野田	","https://map.goo.ne.jp/s_gootransit/staticmap.php?MAP=E141.49.38.400N40.5.52.900&ZM=8&SZ=672,120",九戸郡野田村,0288200,"
三陸鉄道リアス線
三陸鉄道北リアス線
"
東北,三陸鉄道リアス線,陸中野田,りくちゅうのだ,"
十府ヶ浦海岸	陸中宇部	","https://map.goo.ne.jp/s_gootransit/staticmap.php?MAP=E141.49.21.600N40.6.47.800&ZM=8&SZ=672,120",九戸郡野田村野田,0288201,"
三陸鉄道リアス線
三陸鉄道北リアス線
"
東北,三陸鉄道リアス線,陸中宇部,りくちゅううべ,"
陸中野田	久慈	","https://map.goo.ne.jp/s_gootransit/staticmap.php?MAP=E141.47.22.200N40.7.46.500&ZM=8&SZ=672,120",久慈市宇部町,0288111,"
三陸鉄道リアス線
三陸鉄道北リアス線
"
東北,三陸鉄道リアス線,久慈,くじ,"
陸中宇部		","https://map.goo.ne.jp/s_gootransit/staticmap.php?MAP=E141.46.27.800N40.11.16.100&ZM=8&SZ=672,120",久慈市中央,0280061,"
三陸鉄道リアス線
三陸鉄道北リアス線
八戸線
"
東北,弘南鉄道大鰐線,大鰐,おおわに,"
	宿川原	","https://map.goo.ne.jp/s_gootransit/staticmap.php?MAP=E140.34.12.800N40.31.9.400&ZM=8&SZ=672,120",南津軽郡大鰐町大鰐,0380211,"
弘南鉄道大鰐線
"
東北,弘南鉄道大鰐線,宿川原,しゅくがわら,"
大鰐	鯖石	","https://map.goo.ne.jp/s_gootransit/staticmap.php?MAP=E140.33.39.200N40.31.22.900&ZM=8&SZ=672,120",南津軽郡大鰐町宿川原,0380231,"
弘南鉄道大鰐線
"
東北,弘南鉄道大鰐線,鯖石,さばいし,"
宿川原	石川プール前	","https://map.goo.ne.jp/s_gootransit/staticmap.php?MAP=E140.33.22.200N40.31.58.400&ZM=8&SZ=672,120",南津軽郡大鰐町鯖石,0380241,"
弘南鉄道大鰐線
"
東北,弘南鉄道大鰐線,石川プール前,いしかわぷーるまえ,"
鯖石	石川（弘南鉄道）	","https://map.goo.ne.jp/s_gootransit/staticmap.php?MAP=E140.33.14.800N40.32.24.300&ZM=8&SZ=672,120",弘前市小金崎,0368123,"
弘南鉄道大鰐線
"
東北,弘南鉄道大鰐線,石川（弘南鉄道）,いしかわ,"
石川プール前	義塾高校前	","https://map.goo.ne.jp/s_gootransit/staticmap.php?MAP=E140.32.41.800N40.32.53.400&ZM=8&SZ=672,120",弘前市石川,0368124,"
弘南鉄道大鰐線
"
東北,弘南鉄道大鰐線,義塾高校前,ぎじゅくこうこうまえ,"
石川（弘南鉄道）	津軽大沢	","https://map.goo.ne.jp/s_gootransit/staticmap.php?MAP=E140.31.51.800N40.33.11.200&ZM=8&SZ=672,120",弘前市石川,0368124,"
弘南鉄道大鰐線
"
東北,弘南鉄道大鰐線,津軽大沢,つがるおおさわ,"
義塾高校前	松木平	","https://map.goo.ne.jp/s_gootransit/staticmap.php?MAP=E140.31.12.200N40.33.18.600&ZM=8&SZ=672,120",弘前市大沢,0368125,"
弘南鉄道大鰐線
"
東北,弘南鉄道大鰐線,松木平,まつきたい,"
津軽大沢	小栗山	","https://map.goo.ne.jp/s_gootransit/staticmap.php?MAP=E140.30.2.300N40.33.28.700&ZM=8&SZ=672,120",弘前市小栗山,0368127,"
弘南鉄道大鰐線
"
東北,弘南鉄道大鰐線,小栗山,こぐりやま,"
松木平	千年	","https://map.goo.ne.jp/s_gootransit/staticmap.php?MAP=E140.29.24.400N40.33.41.900&ZM=8&SZ=672,120",弘前市小栗山,0368127,"
弘南鉄道大鰐線
"
東北,弘南鉄道大鰐線,千年,ちとせ,"
小栗山	聖愛中高前	","https://map.goo.ne.jp/s_gootransit/staticmap.php?MAP=E140.29.1.500N40.33.52.500&ZM=8&SZ=672,120",弘前市松原西,0368142,"
弘南鉄道大鰐線
"
東北,弘南鉄道大鰐線,聖愛中高前,せいあいちゅうこうまえ,"
千年	弘前学院大前	","https://map.goo.ne.jp/s_gootransit/staticmap.php?MAP=E140.28.34.400N40.34.28.700&ZM=8&SZ=672,120",弘前市中野,0368155,"
弘南鉄道大鰐線
"
東北,弘南鉄道大鰐線,弘前学院大前,ひろさきがくいんだいまえ,"
聖愛中高前	弘高下	","https://map.goo.ne.jp/s_gootransit/staticmap.php?MAP=E140.28.26.900N40.34.50.600&ZM=8&SZ=672,120",弘前市中野,0368155,"
弘南鉄道大鰐線
"
東北,弘南鉄道大鰐線,弘高下,ひろこうした,"
弘前学院大前	中央弘前	","https://map.goo.ne.jp/s_gootransit/staticmap.php?MAP=E140.28.18.200N40.35.25.100&ZM=8&SZ=672,120",弘前市桜林町,0368222,"
弘南鉄道大鰐線
"
東北,弘南鉄道大鰐線,中央弘前,ちゅうおうひろさき,"
弘高下		","https://map.goo.ne.jp/s_gootransit/staticmap.php?MAP=E140.28.33.600N40.35.48.300&ZM=8&SZ=672,120",弘前市吉野町,0368188,"
弘南鉄道大鰐線
"
東北,弘南鉄道弘南線,弘前,ひろさき,"
	弘前東高前	","https://map.goo.ne.jp/s_gootransit/staticmap.php?MAP=E140.29.18.200N40.35.50.200&ZM=8&SZ=672,120",弘前市表町,0368096,"
五能線
奥羽本線
弘南鉄道弘南線
"
東北,弘南鉄道弘南線,弘前東高前,ひろさきひがしこうまえ,"
弘前	運動公園前（青森）	","https://map.goo.ne.jp/s_gootransit/staticmap.php?MAP=E140.29.33.100N40.35.21.600&ZM=8&SZ=672,120",弘前市川先,0368103,"
弘南鉄道弘南線
"
東北,弘南鉄道弘南線,運動公園前（青森）,うんどうこうえんまえ,"
弘前東高前	新里（青森）	","https://map.goo.ne.jp/s_gootransit/staticmap.php?MAP=E140.30.23.300N40.35.12.600&ZM=8&SZ=672,120",弘前市小比内,0368102,"
弘南鉄道弘南線
"
東北,弘南鉄道弘南線,新里（青森）,にさと,"
運動公園前（青森）	館田	","https://map.goo.ne.jp/s_gootransit/staticmap.php?MAP=E140.31.24.800N40.35.4.500&ZM=8&SZ=672,120",弘前市新里,0368083,"
弘南鉄道弘南線
"
東北,弘南鉄道弘南線,館田,たちた,"
新里（青森）	平賀	","https://map.goo.ne.jp/s_gootransit/staticmap.php?MAP=E140.32.31.800N40.34.56.800&ZM=8&SZ=672,120",平川市館田中前田,0360155,"
弘南鉄道弘南線
"
東北,弘南鉄道弘南線,平賀,ひらか,"
館田	柏農高校前	","https://map.goo.ne.jp/s_gootransit/staticmap.php?MAP=E140.33.52.400N40.34.56.200&ZM=8&SZ=672,120",平川市本町北柳田,0360103,"
弘南鉄道弘南線
"
東北,弘南鉄道弘南線,柏農高校前,はくのうこうこうまえ,"
平賀	津軽尾上	","https://map.goo.ne.jp/s_gootransit/staticmap.php?MAP=E140.34.4.300N40.35.56.900&ZM=8&SZ=672,120",平川市荒田北岡部,0360112,"
弘南鉄道弘南線
"
東北,弘南鉄道弘南線,津軽尾上,つがるおのえ,"
柏農高校前	尾上高校前	","https://map.goo.ne.jp/s_gootransit/staticmap.php?MAP=E140.34.46.600N40.36.40.200&ZM=8&SZ=672,120",平川市中佐渡南田,0360221,"
弘南鉄道弘南線
"
東北,弘南鉄道弘南線,尾上高校前,おのえこうこうまえ,"
津軽尾上	田んぼアート	","https://map.goo.ne.jp/s_gootransit/staticmap.php?MAP=E140.34.50.400N40.37.21.800&ZM=8&SZ=672,120",平川市猿賀上川,0360242,"
弘南鉄道弘南線
"
東北,弘南鉄道弘南線,田んぼアート,たんぼあーと,"
尾上高校前	田舎館	","https://map.goo.ne.jp/s_gootransit/staticmap.php?MAP=E140.34.37.200N40.37.49.500&ZM=8&SZ=672,120",南津軽郡田舎館村高樋,0381111,"
弘南鉄道弘南線
"
東北,弘南鉄道弘南線,田舎館,いなかだて,"
田んぼアート	境松	","https://map.goo.ne.jp/s_gootransit/staticmap.php?MAP=E140.34.29.100N40.38.3.500&ZM=8&SZ=672,120",南津軽郡田舎館村高樋,0381111,"
弘南鉄道弘南線
"
東北,弘南鉄道弘南線,境松,さかいまつ,"
田舎館	黒石（青森）	","https://map.goo.ne.jp/s_gootransit/staticmap.php?MAP=E140.34.45.200N40.38.46.100&ZM=8&SZ=672,120",黒石市境松,0360389,"
弘南鉄道弘南線
"
東北,弘南鉄道弘南線,黒石（青森）,くろいし,"
境松		","https://map.goo.ne.jp/s_gootransit/staticmap.php?MAP=E140.35.40.200N40.38.44.300&ZM=8&SZ=672,120",黒石市緑町,0360383,"
弘南鉄道弘南線
"
東北,津軽鉄道,津軽五所川原,つがるごしょがわら,"
	十川（青森）	","https://map.goo.ne.jp/s_gootransit/staticmap.php?MAP=E140.27.6.800N40.48.26.200&ZM=8&SZ=672,120",五所川原市大町,0370063,"
津軽鉄道
"
東北,津軽鉄道,十川（青森）,とがわ,"
津軽五所川原	五農校前	","https://map.goo.ne.jp/s_gootransit/staticmap.php?MAP=E140.27.36.900N40.48.53.200&ZM=8&SZ=672,120",五所川原市漆川,0370017,"
津軽鉄道
"
東北,津軽鉄道,五農校前,ごのうこうまえ,"
十川（青森）	津軽飯詰	","https://map.goo.ne.jp/s_gootransit/staticmap.php?MAP=E140.28.55.300N40.49.6.300&ZM=8&SZ=672,120",五所川原市一野坪,0370093,"
津軽鉄道
"
東北,津軽鉄道,津軽飯詰,つがるいいづめ,"
五農校前	毘沙門	","https://map.goo.ne.jp/s_gootransit/staticmap.php?MAP=E140.28.57.900N40.49.37.400&ZM=8&SZ=672,120",五所川原市飯詰,0370002,"
津軽鉄道
"
東北,津軽鉄道,毘沙門,びしゃもん,"
津軽飯詰	嘉瀬	","https://map.goo.ne.jp/s_gootransit/staticmap.php?MAP=E140.28.52.200N40.51.19.400&ZM=8&SZ=672,120",五所川原市毘沙門,0370096,"
津軽鉄道
"
東北,津軽鉄道,嘉瀬,かせ,"
毘沙門	金木	","https://map.goo.ne.jp/s_gootransit/staticmap.php?MAP=E140.28.22.800N40.52.41.900&ZM=8&SZ=672,120",五所川原市金木町嘉瀬,0370204,"
津軽鉄道
"
東北,津軽鉄道,金木,かなぎ,"
嘉瀬	芦野公園	","https://map.goo.ne.jp/s_gootransit/staticmap.php?MAP=E140.27.48.200N40.54.0.900&ZM=8&SZ=672,120",五所川原市金木町,0370202,"
津軽鉄道
"
東北,津軽鉄道,芦野公園,あしのこうえん,"
金木	川倉	","https://map.goo.ne.jp/s_gootransit/staticmap.php?MAP=E140.27.18.400N40.54.34.300&ZM=8&SZ=672,120",五所川原市金木町,0370202,"
津軽鉄道
"
東北,津軽鉄道,川倉,かわくら,"
芦野公園	大沢内	","https://map.goo.ne.jp/s_gootransit/staticmap.php?MAP=E140.26.49.900N40.55.25.300&ZM=8&SZ=672,120",五所川原市金木町川倉,0370201,"
津軽鉄道
"
東北,津軽鉄道,大沢内,おおざわない,"
川倉	深郷田	","https://map.goo.ne.jp/s_gootransit/staticmap.php?MAP=E140.26.27.100N40.56.15.800&ZM=8&SZ=672,120",北津軽郡中泊町大沢内,0370311,"
津軽鉄道
"
東北,津軽鉄道,深郷田,ふこうだ,"
大沢内	津軽中里	","https://map.goo.ne.jp/s_gootransit/staticmap.php?MAP=E140.26.40.500N40.56.55.100&ZM=8&SZ=672,120",北津軽郡中泊町深郷田,0370308,"
津軽鉄道
"
東北,津軽鉄道,津軽中里,つがるなかさと,"
深郷田		","https://map.goo.ne.jp/s_gootransit/staticmap.php?MAP=E140.26.40.200N40.57.43.900&ZM=8&SZ=672,120",北津軽郡中泊町中里,0370305,"
津軽鉄道
"
東北,由利高原鉄道鳥海山ろく線,羽後本荘,うごほんじょう,"
	薬師堂（秋田）	","https://map.goo.ne.jp/s_gootransit/staticmap.php?MAP=E140.3.39.500N39.23.2.400&ZM=8&SZ=672,120",由利本荘市西梵天,0150858,"
由利高原鉄道鳥海山ろく線
羽越本線
"
東北,由利高原鉄道鳥海山ろく線,薬師堂（秋田）,やくしどう,"
羽後本荘	子吉	","https://map.goo.ne.jp/s_gootransit/staticmap.php?MAP=E140.3.8.900N39.21.54.800&ZM=8&SZ=672,120",由利本荘市薬師堂,0150041,"
由利高原鉄道鳥海山ろく線
"
東北,由利高原鉄道鳥海山ろく線,子吉,こよし,"
薬師堂（秋田）	鮎川（秋田）	","https://map.goo.ne.jp/s_gootransit/staticmap.php?MAP=E140.3.48.100N39.20.51.300&ZM=8&SZ=672,120",由利本荘市玉ノ池,0150044,"
由利高原鉄道鳥海山ろく線
"
東北,由利高原鉄道鳥海山ろく線,鮎川（秋田）,あゆかわ,"
子吉	黒沢（由利高原鉄道）	","https://map.goo.ne.jp/s_gootransit/staticmap.php?MAP=E140.4.29.100N39.19.32.500&ZM=8&SZ=672,120",由利本荘市東鮎川,0150362,"
由利高原鉄道鳥海山ろく線
"
東北,由利高原鉄道鳥海山ろく線,黒沢（由利高原鉄道）,くろさわ,"
鮎川（秋田）	曲沢	","https://map.goo.ne.jp/s_gootransit/staticmap.php?MAP=E140.5.47.300N39.19.3.600&ZM=8&SZ=672,120",由利本荘市黒沢,0150361,"
由利高原鉄道鳥海山ろく線
"
東北,由利高原鉄道鳥海山ろく線,曲沢,まがりさわ,"
黒沢（由利高原鉄道）	前郷	","https://map.goo.ne.jp/s_gootransit/staticmap.php?MAP=E140.6.22.600N39.19.4.500&ZM=8&SZ=672,120",由利本荘市前郷,0150341,"
由利高原鉄道鳥海山ろく線
"
東北,由利高原鉄道鳥海山ろく線,前郷,まえごう,"
曲沢	久保田（秋田）	","https://map.goo.ne.jp/s_gootransit/staticmap.php?MAP=E140.6.58.300N39.18.36.500&ZM=8&SZ=672,120",由利本荘市前郷,0150341,"
由利高原鉄道鳥海山ろく線
"
東北,由利高原鉄道鳥海山ろく線,久保田（秋田）,くぼた,"
前郷	西滝沢	","https://map.goo.ne.jp/s_gootransit/staticmap.php?MAP=E140.6.54.900N39.17.39.800&ZM=8&SZ=672,120",由利本荘市久保田,0150302,"
由利高原鉄道鳥海山ろく線
"
東北,由利高原鉄道鳥海山ろく線,西滝沢,にしたきさわ,"
久保田（秋田）	吉沢	","https://map.goo.ne.jp/s_gootransit/staticmap.php?MAP=E140.7.11.300N39.16.32.300&ZM=8&SZ=672,120",由利本荘市山本,0150333,"
由利高原鉄道鳥海山ろく線
"
東北,由利高原鉄道鳥海山ろく線,吉沢,よしざわ,"
西滝沢	川辺	","https://map.goo.ne.jp/s_gootransit/staticmap.php?MAP=E140.7.6.400N39.15.56.600&ZM=8&SZ=672,120",由利本荘市吉沢,0150324,"
由利高原鉄道鳥海山ろく線
"
東北,由利高原鉄道鳥海山ろく線,川辺,かわべ,"
吉沢	矢島	","https://map.goo.ne.jp/s_gootransit/staticmap.php?MAP=E140.7.25.600N39.14.46.200&ZM=8&SZ=672,120",由利本荘市矢島町川辺,0150412,"
由利高原鉄道鳥海山ろく線
"
東北,由利高原鉄道鳥海山ろく線,矢島,やしま,"
川辺		","https://map.goo.ne.jp/s_gootransit/staticmap.php?MAP=E140.8.32.800N39.13.38.500&ZM=8&SZ=672,120",由利本荘市矢島町七日町,0150404,"
由利高原鉄道鳥海山ろく線
"
東北,山形鉄道フラワー長井線,赤湯,あかゆ,"
	南陽市役所	","https://map.goo.ne.jp/s_gootransit/staticmap.php?MAP=E140.9.8.200N38.2.39.400&ZM=8&SZ=672,120",南陽市郡山,9992241,"
山形線
山形鉄道フラワー長井線
"
東北,山形鉄道フラワー長井線,南陽市役所,なんようしやくしょ,"
赤湯	宮内（山形）	","https://map.goo.ne.jp/s_gootransit/staticmap.php?MAP=E140.9.7.900N38.3.9.800&ZM=8&SZ=672,120",南陽市三間通,9992232,"
山形鉄道フラワー長井線
"
東北,山形鉄道フラワー長井線,宮内（山形）,みやうち,"
南陽市役所	おりはた	","https://map.goo.ne.jp/s_gootransit/staticmap.php?MAP=E140.8.19.400N38.4.4.400&ZM=8&SZ=672,120",南陽市宮内,9920472,"
山形鉄道フラワー長井線
"
東北,山形鉄道フラワー長井線,おりはた,おりはた,"
宮内（山形）	梨郷	","https://map.goo.ne.jp/s_gootransit/staticmap.php?MAP=E140.7.33.500N38.3.48.600&ZM=8&SZ=672,120",南陽市漆山,9920474,"
山形鉄道フラワー長井線
"
東北,山形鉄道フラワー長井線,梨郷,りんごう,"
おりはた	西大塚	","https://map.goo.ne.jp/s_gootransit/staticmap.php?MAP=E140.6.4.800N38.3.15.400&ZM=8&SZ=672,120",南陽市竹原,9920478,"
山形鉄道フラワー長井線
"
東北,山形鉄道フラワー長井線,西大塚,にしおおつか,"
梨郷	今泉（山形）	","https://map.goo.ne.jp/s_gootransit/staticmap.php?MAP=E140.4.4.600N38.3.8.800&ZM=8&SZ=672,120",東置賜郡川西町西大塚,9920601,"
山形鉄道フラワー長井線
"
東北,山形鉄道フラワー長井線,今泉（山形）,いまいずみ,"
西大塚	時庭	","https://map.goo.ne.jp/s_gootransit/staticmap.php?MAP=E140.2.51.200N38.3.13.500&ZM=8&SZ=672,120",長井市今泉,9930033,"
山形鉄道フラワー長井線
米坂線
"
東北,山形鉄道フラワー長井線,時庭,ときにわ,"
今泉（山形）	南長井	","https://map.goo.ne.jp/s_gootransit/staticmap.php?MAP=E140.1.58.700N38.4.25.300&ZM=8&SZ=672,120",長井市時庭,9930035,"
山形鉄道フラワー長井線
"
東北,山形鉄道フラワー長井線,南長井,みなみながい,"
時庭	長井	","https://map.goo.ne.jp/s_gootransit/staticmap.php?MAP=E140.2.16.300N38.5.40.700&ZM=8&SZ=672,120",長井市四ツ谷,9930015,"
山形鉄道フラワー長井線
"
東北,山形鉄道フラワー長井線,長井,ながい,"
南長井	あやめ公園	","https://map.goo.ne.jp/s_gootransit/staticmap.php?MAP=E140.2.12.700N38.6.12.800&ZM=8&SZ=672,120",長井市栄町,9930084,"
山形鉄道フラワー長井線
"
東北,山形鉄道フラワー長井線,あやめ公園,あやめこうえん,"
長井	羽前成田	","https://map.goo.ne.jp/s_gootransit/staticmap.php?MAP=E140.2.9.700N38.6.40.800&ZM=8&SZ=672,120",長井市横町,9930087,"
山形鉄道フラワー長井線
"
東北,山形鉄道フラワー長井線,羽前成田,うぜんなりた,"
あやめ公園	白兎	","https://map.goo.ne.jp/s_gootransit/staticmap.php?MAP=E140.2.18.100N38.7.41.200&ZM=8&SZ=672,120",長井市成田,9930075,"
山形鉄道フラワー長井線
"
東北,山形鉄道フラワー長井線,白兎,しろうさぎ,"
羽前成田	蚕桑	","https://map.goo.ne.jp/s_gootransit/staticmap.php?MAP=E140.2.39.800N38.8.49.200&ZM=8&SZ=672,120",長井市白兎,9930071,"
山形鉄道フラワー長井線
"
東北,山形鉄道フラワー長井線,蚕桑,こぐわ,"
白兎	鮎貝	","https://map.goo.ne.jp/s_gootransit/staticmap.php?MAP=E140.3.0.500N38.9.30.700&ZM=8&SZ=672,120",西置賜郡白鷹町高玉,9920773,"
山形鉄道フラワー長井線
"
東北,山形鉄道フラワー長井線,鮎貝,あゆかい,"
蚕桑	四季の郷	","https://map.goo.ne.jp/s_gootransit/staticmap.php?MAP=E140.4.27.700N38.10.46.300&ZM=8&SZ=672,120",西置賜郡白鷹町鮎貝,9920771,"
山形鉄道フラワー長井線
"
東北,山形鉄道フラワー長井線,四季の郷,しきのさと,"
鮎貝	荒砥	","https://map.goo.ne.jp/s_gootransit/staticmap.php?MAP=E140.4.52.700N38.10.58.300&ZM=8&SZ=672,120",西置賜郡白鷹町鮎貝,9920771,"
山形鉄道フラワー長井線
"
東北,山形鉄道フラワー長井線,荒砥,あらと,"
四季の郷		","https://map.goo.ne.jp/s_gootransit/staticmap.php?MAP=E140.6.2.600N38.11.6.100&ZM=8&SZ=672,120",西置賜郡白鷹町荒砥甲,9920831,"
山形鉄道フラワー長井線
"
東北,阿武隈急行,槻木,つきのき,"
	東船岡	","https://map.goo.ne.jp/s_gootransit/staticmap.php?MAP=E140.48.48.100N38.4.33.800&ZM=8&SZ=672,120",柴田郡柴田町槻木新町,9891751,"
東北本線
阿武隈急行
"
東北,阿武隈急行,東船岡,ひがしふなおか,"
槻木	岡	","https://map.goo.ne.jp/s_gootransit/staticmap.php?MAP=E140.47.35.700N38.2.49.500&ZM=8&SZ=672,120",柴田郡柴田町上名生,9891611,"
阿武隈急行
"
東北,阿武隈急行,岡,おか,"
東船岡	横倉（宮城）	","https://map.goo.ne.jp/s_gootransit/staticmap.php?MAP=E140.47.1.500N38.0.57.200&ZM=8&SZ=672,120",角田市岡,9811524,"
阿武隈急行
"
東北,阿武隈急行,横倉（宮城）,よこくら,"
岡	角田	","https://map.goo.ne.jp/s_gootransit/staticmap.php?MAP=E140.46.46.200N37.59.38.400&ZM=8&SZ=672,120",角田市横倉,9811512,"
阿武隈急行
"
東北,阿武隈急行,角田,かくだ,"
横倉（宮城）	南角田	","https://map.goo.ne.jp/s_gootransit/staticmap.php?MAP=E140.46.33.100N37.58.34.600&ZM=8&SZ=672,120",角田市角田,9811505,"
阿武隈急行
"
東北,阿武隈急行,南角田,みなみかくだ,"
角田	北丸森	","https://map.goo.ne.jp/s_gootransit/staticmap.php?MAP=E140.46.22.900N37.57.42.600&ZM=8&SZ=672,120",角田市角田,9811505,"
阿武隈急行
"
東北,阿武隈急行,北丸森,きたまるもり,"
南角田	丸森	","https://map.goo.ne.jp/s_gootransit/staticmap.php?MAP=E140.46.31.800N37.56.24.300&ZM=8&SZ=672,120",伊具郡丸森町木沼,9812106,"
阿武隈急行
"
東北,阿武隈急行,丸森,まるもり,"
北丸森	あぶくま	","https://map.goo.ne.jp/s_gootransit/staticmap.php?MAP=E140.45.54.500N37.55.39.800&ZM=8&SZ=672,120",伊具郡丸森町舘矢間山田,9812103,"
阿武隈急行
"
東北,阿武隈急行,あぶくま,あぶくま,"
丸森	兜	","https://map.goo.ne.jp/s_gootransit/staticmap.php?MAP=E140.41.21.700N37.54.37.600&ZM=8&SZ=672,120",伊具郡丸森町滝の上,9812185,"
阿武隈急行
"
東北,阿武隈急行,兜,かぶと,"
あぶくま	富野	","https://map.goo.ne.jp/s_gootransit/staticmap.php?MAP=E140.38.59.500N37.53.32.700&ZM=8&SZ=672,120",伊達市梁川町舟生,9600704,"
阿武隈急行
"
東北,阿武隈急行,富野,とみの,"
兜	やながわ希望の森公園前	","https://map.goo.ne.jp/s_gootransit/staticmap.php?MAP=E140.37.51.100N37.52.18.300&ZM=8&SZ=672,120",伊達市梁川町舟生,9600704,"
阿武隈急行
"
東北,阿武隈急行,やながわ希望の森公園前,やながわきぼうのもりこうえんまえ,"
富野	梁川（福島）	","https://map.goo.ne.jp/s_gootransit/staticmap.php?MAP=E140.37.8.600N37.51.17.600&ZM=8&SZ=672,120",伊達市梁川町北町頭,9600726,"
阿武隈急行
"
東北,阿武隈急行,梁川（福島）,やながわ,"
やながわ希望の森公園前	新田（福島）	","https://map.goo.ne.jp/s_gootransit/staticmap.php?MAP=E140.36.24.700N37.50.34.500&ZM=8&SZ=672,120",伊達市梁川町青葉町,9600756,"
阿武隈急行
"
東北,阿武隈急行,新田（福島）,にった,"
梁川（福島）	二井田	","https://map.goo.ne.jp/s_gootransit/staticmap.php?MAP=E140.35.47.100N37.50.5.100&ZM=8&SZ=672,120",伊達市梁川町新田,9600767,"
阿武隈急行
"
東北,阿武隈急行,二井田,にいだ,"
新田（福島）	大泉（福島）	","https://map.goo.ne.jp/s_gootransit/staticmap.php?MAP=E140.35.2.000N37.49.29.100&ZM=8&SZ=672,120",伊達市保原町二井田,9600633,"
阿武隈急行
"
東北,阿武隈急行,大泉（福島）,おおいずみ,"
二井田	保原	","https://map.goo.ne.jp/s_gootransit/staticmap.php?MAP=E140.34.11.300N37.49.0.200&ZM=8&SZ=672,120",伊達市保原町大泉,9600634,"
阿武隈急行
"
東北,阿武隈急行,保原,ほばら,"
大泉（福島）	上保原	","https://map.goo.ne.jp/s_gootransit/staticmap.php?MAP=E140.33.37.300N37.48.42.500&ZM=8&SZ=672,120",伊達市保原町東野崎,9600671,"
阿武隈急行
"
東北,阿武隈急行,上保原,かみほばら,"
保原	高子	","https://map.goo.ne.jp/s_gootransit/staticmap.php?MAP=E140.32.47.300N37.48.24.000&ZM=8&SZ=672,120",伊達市保原町上保原,9600684,"
阿武隈急行
"
東北,阿武隈急行,高子,たかこ,"
上保原	向瀬上	","https://map.goo.ne.jp/s_gootransit/staticmap.php?MAP=E140.31.50.200N37.48.19.500&ZM=8&SZ=672,120",伊達市保原町上保原,9600684,"
阿武隈急行
"
東北,阿武隈急行,向瀬上,むかいせのうえ,"
高子	瀬上	","https://map.goo.ne.jp/s_gootransit/staticmap.php?MAP=E140.30.49.100N37.48.12.800&ZM=8&SZ=672,120",福島市瀬上町,9600101,"
阿武隈急行
"
東北,阿武隈急行,瀬上,せのうえ,"
向瀬上	福島学院前	","https://map.goo.ne.jp/s_gootransit/staticmap.php?MAP=E140.30.7.000N37.47.57.700&ZM=8&SZ=672,120",福島市瀬上町,9600101,"
阿武隈急行
"
東北,阿武隈急行,福島学院前,ふくしまがくいんまえ,"
瀬上	卸町（福島）	","https://map.goo.ne.jp/s_gootransit/staticmap.php?MAP=E140.29.31.000N37.47.44.500&ZM=8&SZ=672,120",福島市瀬上町,9600101,"
阿武隈急行
"
東北,阿武隈急行,卸町（福島）,おろしまち,"
福島学院前	福島（福島）	","https://map.goo.ne.jp/s_gootransit/staticmap.php?MAP=E140.28.58.400N37.47.32.900&ZM=8&SZ=672,120",福島市鎌田,9600102,"
阿武隈急行
"
東北,阿武隈急行,福島（福島）,ふくしま,"
卸町（福島）		","https://map.goo.ne.jp/s_gootransit/staticmap.php?MAP=E140.27.48.000N37.45.5.400&ZM=8&SZ=672,120",福島市栄町,9608031,"
山形線
東北・北海道新幹線
東北本線
福島交通飯坂線
阿武隈急行
"
東北,秋田内陸縦貫鉄道,角館,かくのだて,"
	羽後太田	","https://map.goo.ne.jp/s_gootransit/staticmap.php?MAP=E140.34.28.700N39.35.20.500&ZM=8&SZ=672,120",仙北市角館町下菅沢,0140366,"
田沢湖線
秋田内陸縦貫鉄道
"
東北,秋田内陸縦貫鉄道,羽後太田,うごおおた,"
角館	西明寺	","https://map.goo.ne.jp/s_gootransit/staticmap.php?MAP=E140.34.39.900N39.37.27.700&ZM=8&SZ=672,120",仙北市田沢湖角館東前郷,0141116,"
秋田内陸縦貫鉄道
"
東北,秋田内陸縦貫鉄道,西明寺,さいみょうじ,"
羽後太田	八津	","https://map.goo.ne.jp/s_gootransit/staticmap.php?MAP=E140.33.59.300N39.39.1.200&ZM=8&SZ=672,120",仙北市西木町門屋,0140515,"
秋田内陸縦貫鉄道
"
東北,秋田内陸縦貫鉄道,八津,やつ,"
西明寺	羽後長戸呂	","https://map.goo.ne.jp/s_gootransit/staticmap.php?MAP=E140.33.22.600N39.41.5.800&ZM=8&SZ=672,120",仙北市西木町小山田,0140516,"
秋田内陸縦貫鉄道
"
東北,秋田内陸縦貫鉄道,羽後長戸呂,うごながとろ,"
八津	松葉	","https://map.goo.ne.jp/s_gootransit/staticmap.php?MAP=E140.34.8.300N39.43.29.300&ZM=8&SZ=672,120",仙北市西木町桧木内,0140602,"
秋田内陸縦貫鉄道
"
東北,秋田内陸縦貫鉄道,松葉,まつば,"
羽後長戸呂	羽後中里	","https://map.goo.ne.jp/s_gootransit/staticmap.php?MAP=E140.35.37.600N39.44.28.300&ZM=8&SZ=672,120",仙北市西木町桧木内,0140602,"
秋田内陸縦貫鉄道
"
東北,秋田内陸縦貫鉄道,羽後中里,うごなかざと,"
松葉	左通	","https://map.goo.ne.jp/s_gootransit/staticmap.php?MAP=E140.36.22.300N39.46.6.200&ZM=8&SZ=672,120",仙北市西木町桧木内,0140602,"
秋田内陸縦貫鉄道
"
東北,秋田内陸縦貫鉄道,左通,さどおり,"
羽後中里	上桧木内	","https://map.goo.ne.jp/s_gootransit/staticmap.php?MAP=E140.35.22.300N39.47.56.600&ZM=8&SZ=672,120",仙北市西木町上桧木内,0140601,"
秋田内陸縦貫鉄道
"
東北,秋田内陸縦貫鉄道,上桧木内,かみひのきない,"
左通	戸沢	","https://map.goo.ne.jp/s_gootransit/staticmap.php?MAP=E140.35.9.100N39.48.54.500&ZM=8&SZ=672,120",仙北市西木町上桧木内,0140601,"
秋田内陸縦貫鉄道
"
東北,秋田内陸縦貫鉄道,戸沢,とざわ,"
上桧木内	阿仁マタギ	","https://map.goo.ne.jp/s_gootransit/staticmap.php?MAP=E140.35.5.700N39.51.22.400&ZM=8&SZ=672,120",仙北市西木町上桧木内,0140601,"
秋田内陸縦貫鉄道
"
東北,秋田内陸縦貫鉄道,阿仁マタギ,あにまたぎ,"
戸沢	奥阿仁	","https://map.goo.ne.jp/s_gootransit/staticmap.php?MAP=E140.31.10.600N39.55.0.200&ZM=8&SZ=672,120",北秋田市阿仁中村,0184732,"
秋田内陸縦貫鉄道
"
東北,秋田内陸縦貫鉄道,奥阿仁,おくあに,"
阿仁マタギ	比立内	","https://map.goo.ne.jp/s_gootransit/staticmap.php?MAP=E140.29.34.600N39.54.31.900&ZM=8&SZ=672,120",北秋田市阿仁戸鳥内,0184733,"
秋田内陸縦貫鉄道
"
東北,秋田内陸縦貫鉄道,比立内,ひたちない,"
奥阿仁	岩野目	","https://map.goo.ne.jp/s_gootransit/staticmap.php?MAP=E140.27.25.400N39.54.7.400&ZM=8&SZ=672,120",北秋田市阿仁比立内,0184735,"
秋田内陸縦貫鉄道
"
東北,秋田内陸縦貫鉄道,岩野目,いわのめ,"
比立内	笑内	","https://map.goo.ne.jp/s_gootransit/staticmap.php?MAP=E140.26.2.700N39.55.6.600&ZM=8&SZ=672,120",北秋田市阿仁幸屋渡,0184742,"
秋田内陸縦貫鉄道
"
東北,秋田内陸縦貫鉄道,笑内,おかしない,"
岩野目	萱草	","https://map.goo.ne.jp/s_gootransit/staticmap.php?MAP=E140.25.0.300N39.55.56.100&ZM=8&SZ=672,120",北秋田市阿仁笑内,0184743,"
秋田内陸縦貫鉄道
"
東北,秋田内陸縦貫鉄道,萱草,かやくさ,"
笑内	荒瀬	","https://map.goo.ne.jp/s_gootransit/staticmap.php?MAP=E140.24.56.900N39.57.21.400&ZM=8&SZ=672,120",北秋田市阿仁萱草,0184745,"
秋田内陸縦貫鉄道
"
東北,秋田内陸縦貫鉄道,荒瀬,あらせ,"
萱草	阿仁合	","https://map.goo.ne.jp/s_gootransit/staticmap.php?MAP=E140.24.20.700N39.58.38.100&ZM=8&SZ=672,120",北秋田市阿仁荒瀬,0184621,"
秋田内陸縦貫鉄道
"
東北,秋田内陸縦貫鉄道,阿仁合,あにあい,"
荒瀬	小渕	","https://map.goo.ne.jp/s_gootransit/staticmap.php?MAP=E140.24.17.200N39.59.50.500&ZM=8&SZ=672,120",北秋田市阿仁銀山,0184613,"
秋田内陸縦貫鉄道
"
東北,秋田内陸縦貫鉄道,小渕,こぶち,"
阿仁合	前田南	","https://map.goo.ne.jp/s_gootransit/staticmap.php?MAP=E140.24.16.500N40.1.51.500&ZM=8&SZ=672,120",北秋田市阿仁小渕,0184602,"
秋田内陸縦貫鉄道
"
東北,秋田内陸縦貫鉄道,前田南,まえだみなみ,"
小渕	阿仁前田温泉	","https://map.goo.ne.jp/s_gootransit/staticmap.php?MAP=E140.24.21.400N40.2.52.700&ZM=8&SZ=672,120",北秋田市五味堀,0184514,"
秋田内陸縦貫鉄道
"
東北,秋田内陸縦貫鉄道,阿仁前田温泉,あにまえだおんせん,"
前田南	桂瀬	","https://map.goo.ne.jp/s_gootransit/staticmap.php?MAP=E140.25.16.500N40.3.31.500&ZM=8&SZ=672,120",北秋田市小又,0184513,"
秋田内陸縦貫鉄道
"
東北,秋田内陸縦貫鉄道,桂瀬,かつらせ,"
阿仁前田温泉	米内沢	","https://map.goo.ne.jp/s_gootransit/staticmap.php?MAP=E140.25.16.500N40.5.55.100&ZM=8&SZ=672,120",北秋田市桂瀬,0184516,"
秋田内陸縦貫鉄道
"
東北,秋田内陸縦貫鉄道,米内沢,よないざわ,"
桂瀬	上杉	","https://map.goo.ne.jp/s_gootransit/staticmap.php?MAP=E140.22.36.700N40.7.32.500&ZM=8&SZ=672,120",北秋田市米内沢,0184301,"
秋田内陸縦貫鉄道
"
東北,秋田内陸縦貫鉄道,上杉,かみすぎ,"
米内沢	合川	","https://map.goo.ne.jp/s_gootransit/staticmap.php?MAP=E140.21.11.800N40.8.37.100&ZM=8&SZ=672,120",北秋田市上杉,0184231,"
秋田内陸縦貫鉄道
"
東北,秋田内陸縦貫鉄道,合川,あいかわ,"
上杉	大野台	","https://map.goo.ne.jp/s_gootransit/staticmap.php?MAP=E140.20.0.800N40.9.30.700&ZM=8&SZ=672,120",北秋田市下杉,0184221,"
秋田内陸縦貫鉄道
"
東北,秋田内陸縦貫鉄道,大野台,おおのだい,"
合川	縄文小ヶ田	","https://map.goo.ne.jp/s_gootransit/staticmap.php?MAP=E140.20.38.800N40.11.3.100&ZM=8&SZ=672,120",北秋田市上杉,0184231,"
秋田内陸縦貫鉄道
"
東北,秋田内陸縦貫鉄道,縄文小ヶ田,じょうもんおがた,"
大野台	西鷹巣	","https://map.goo.ne.jp/s_gootransit/staticmap.php?MAP=E140.21.9.500N40.12.8.200&ZM=8&SZ=672,120",北秋田市脇神,0183454,"
秋田内陸縦貫鉄道
"
東北,秋田内陸縦貫鉄道,西鷹巣,にしたかのす,"
縄文小ヶ田	鷹巣	","https://map.goo.ne.jp/s_gootransit/staticmap.php?MAP=E140.21.41.200N40.13.20.100&ZM=8&SZ=672,120",北秋田市鷹巣,0183331,"
秋田内陸縦貫鉄道
"
東北,秋田内陸縦貫鉄道,鷹巣,たかのす,"
西鷹巣		","https://map.goo.ne.jp/s_gootransit/staticmap.php?MAP=E140.22.21.300N40.13.45.600&ZM=8&SZ=672,120",北秋田市松葉町,0183321,"
秋田内陸縦貫鉄道
"